{"type": "FeatureCollection", "features": [{"type": "Feature", "geometry": {"type": "LineString", "coordinates": [[14.87824, 55.530705], [14.736656666666667, 55.48719333333334], [14.591243333333333, 55.440955], [14.487323333333334, 55.367055], [14.381408333333333, 55.289903333333335], [14.277815, 55.21645], [14.17165, 55.1406], [14.05572, 55.06724666666666], [12.255443333333334, 54.572145], [12.210871666666666, 54.497094999999995], [12.124925, 54.441495], [11.981975, 54.43815666666667], [11.83238, 54.44257833333334], [11.676803333333334, 54.45890333333333], [11.531658333333333, 54.497571666666666], [11.389086666666666, 54.53711833333333], [11.250456666666667, 54.576908333333336], [11.103755, 54.603105], [10.94966, 54.62003333333334], [10.81151, 54.667903333333335], [10.793096666666665, 54.749165], [10.836131666666667, 54.84390166666667], [10.89526, 54.94195833333333], [10.991815, 55.021065], [10.990595, 55.11766166666666], [11.075768333333334, 55.191541666666666], [11.068321666666666, 55.27535666666667], [10.832831666666667, 55.56995833333334], [10.785535000000001, 55.65857333333334], [10.807595, 55.749116666666666], [10.816646666666665, 55.842385], [10.905096666666667, 55.908575000000006], [10.479635, 57.85517], [10.306875, 57.85152333333333], [10.130241666666667, 57.847701666666666], [9.949853333333333, 57.841165000000004], [9.777593333333334, 57.831268333333334], [9.614103333333333, 57.816903333333336], [9.47165, 57.77281666666667], [9.334491666666667, 57.72262833333333], [9.190446666666666, 57.675155000000004], [9.050170000000001, 57.62770833333333], [8.915008333333333, 57.58128], [8.773011666666667, 57.53268833333333], [8.632810000000001, 57.48551], [8.501348333333333, 57.42890333333333], [8.359236666666666, 57.385268333333336], [8.215629999999999, 57.33579833333333], [8.073101666666666, 57.287958333333336], [7.932011666666667, 57.24155333333333], [7.784225, 57.19175333333333], [7.63606, 57.14478666666666], [7.5137816666666675, 57.080155]]}, "properties": {"label": "PIONER 1", "mmsi": "273271320", "imo": "9378618", "name": "PIONER 1", "shiptype": "", "first_seen_utc": "2025-12-29T09:09:40Z", "last_seen_utc": "2026-01-07T02:29:38Z", "destination": "SGSIN", "eta": "{'Day': 15, 'Hour': 18, 'Minute': 0, 'Month': 2}", "display": "", "links": "<a href=\"https://www.vesselfinder.com/vessels?name=9378618\" target=\"_blank\" rel=\"noopener\">VesselFinder</a> | <a href=\"https://www.marinetraffic.com/en/ais/search/all?keyword=9378618\" target=\"_blank\" rel=\"noopener\">MarineTraffic</a>", "vf_url": "https://www.vesselfinder.com/vessels?name=9378618", "mst_url": "https://www.marinetraffic.com/en/ais/search/all?keyword=9378618", "method": "v3_2pass_track3d_fromru10d", "ru_seen_in_lookback": true, "in_monitor_on_day": true}}, {"type": "Feature", "geometry": {"type": "Point", "coordinates": [7.5137816666666675, 57.080155]}, "properties": {"label": "PIONER 1", "mmsi": "273271320", "imo": "9378618", "name": "PIONER 1", "shiptype": "", "first_seen_utc": "2025-12-29T09:09:40Z", "last_seen_utc": "2026-01-07T02:29:38Z", "destination": "SGSIN", "eta": "{'Day': 15, 'Hour': 18, 'Minute': 0, 'Month': 2}", "display": "PIONER 1 (273271320)", "links": "<a href=\"https://www.vesselfinder.com/vessels?name=9378618\" target=\"_blank\" rel=\"noopener\">VesselFinder</a> | <a href=\"https://www.marinetraffic.com/en/ais/search/all?keyword=9378618\" target=\"_blank\" rel=\"noopener\">MarineTraffic</a>", "vf_url": "https://www.vesselfinder.com/vessels?name=9378618", "mst_url": "https://www.marinetraffic.com/en/ais/search/all?keyword=9378618", "method": "v3_2pass_track3d_fromru10d", "ru_seen_in_lookback": true, "in_monitor_on_day": true}}, {"type": "Feature", "geometry": {"type": "LineString", "coordinates": [[19.671938333333333, 54.70482833333333], [19.954936666666665, 54.798588333333335], [20.03609833333333, 54.88052666666667]]}, "properties": {"label": "AMBAL", "mmsi": "273355410", "imo": "8807416", "name": "AMBAL", "shiptype": "", "first_seen_utc": "2026-01-02T05:06:07Z", "last_seen_utc": "2026-01-07T15:10:50Z", "destination": "RUULU/RUKGD", "eta": "{'Day': 6, 'Hour': 6, 'Minute': 0, 'Month': 1}", "display": "", "links": "<a href=\"https://www.vesselfinder.com/vessels?name=8807416\" target=\"_blank\" rel=\"noopener\">VesselFinder</a> | <a href=\"https://www.marinetraffic.com/en/ais/search/all?keyword=8807416\" target=\"_blank\" rel=\"noopener\">MarineTraffic</a>", "vf_url": "https://www.vesselfinder.com/vessels?name=8807416", "mst_url": "https://www.marinetraffic.com/en/ais/search/all?keyword=8807416", "method": "v3_2pass_track3d_fromru10d", "ru_seen_in_lookback": true, "in_monitor_on_day": true}}, {"type": "Feature", "geometry": {"type": "Point", "coordinates": [20.03609833333333, 54.88052666666667]}, "properties": {"label": "AMBAL", "mmsi": "273355410", "imo": "8807416", "name": "AMBAL", "shiptype": "", "first_seen_utc": "2026-01-02T05:06:07Z", "last_seen_utc": "2026-01-07T15:10:50Z", "destination": "RUULU/RUKGD", "eta": "{'Day': 6, 'Hour': 6, 'Minute': 0, 'Month': 1}", "display": "AMBAL (273355410)", "links": "<a href=\"https://www.vesselfinder.com/vessels?name=8807416\" target=\"_blank\" rel=\"noopener\">VesselFinder</a> | <a href=\"https://www.marinetraffic.com/en/ais/search/all?keyword=8807416\" target=\"_blank\" rel=\"noopener\">MarineTraffic</a>", "vf_url": "https://www.vesselfinder.com/vessels?name=8807416", "mst_url": "https://www.marinetraffic.com/en/ais/search/all?keyword=8807416", "method": "v3_2pass_track3d_fromru10d", "ru_seen_in_lookback": true, "in_monitor_on_day": true}}, {"type": "Feature", "geometry": {"type": "LineString", "coordinates": [[6.9713666666666665, 57.71255], [7.1390666666666664, 57.706066666666665], [7.301433333333334, 57.70251666666666], [7.457483333333333, 57.699283333333334], [7.60905, 57.69265], [7.758883333333333, 57.68771666666667], [7.90785, 57.686816666666665], [8.065966666666666, 57.695883333333335], [8.23185, 57.706583333333334], [8.388866666666667, 57.718783333333334], [8.555733333333334, 57.72091666666667], [8.744366666666668, 57.726800000000004], [8.942933333333334, 57.737049999999996], [9.18085, 57.748133333333335], [10.257633333333333, 57.79495], [10.88585, 55.879133333333336], [10.809233333333333, 55.82338333333333], [10.801816666666667, 55.756816666666666], [10.777466666666667, 55.67585], [11.029566666666666, 55.35611666666667], [11.072016666666666, 55.26383333333333], [11.061316666666666, 55.17701666666667], [11.03215, 55.083], [11.012, 54.988899999999994], [10.903316666666665, 54.9238], [10.865583333333332, 54.84056666666667], [10.864833333333333, 54.751549999999995], [10.927883333333334, 54.676233333333336], [11.070566666666668, 54.61888333333333], [11.22625, 54.56991666666667], [11.3888, 54.52283333333333], [11.541633333333333, 54.477583333333335], [11.692583333333333, 54.43205], [11.853299999999999, 54.40938333333334], [12.02745, 54.40585], [12.18875, 54.42785], [14.295266666666667, 55.12623333333333], [14.398133333333334, 55.19931666666666], [14.481033333333333, 55.257016666666665], [14.567016666666666, 55.316833333333335], [14.661783333333334, 55.38375], [14.858816666666666, 55.44648333333334], [15.034516666666667, 55.50278333333333]]}, "properties": {"label": "ARARAT", "mmsi": "273434350", "imo": "9171187", "name": "ARARAT", "shiptype": "", "first_seen_utc": "2026-01-03T21:19:15Z", "last_seen_utc": "2026-01-07T03:05:54Z", "destination": "RUULU", "eta": "{'Day': 10, 'Hour': 12, 'Minute': 0, 'Month': 1}", "display": "", "links": "<a href=\"https://www.vesselfinder.com/vessels?name=9171187\" target=\"_blank\" rel=\"noopener\">VesselFinder</a> | <a href=\"https://www.marinetraffic.com/en/ais/search/all?keyword=9171187\" target=\"_blank\" rel=\"noopener\">MarineTraffic</a>", "vf_url": "https://www.vesselfinder.com/vessels?name=9171187", "mst_url": "https://www.marinetraffic.com/en/ais/search/all?keyword=9171187", "method": "v3_2pass_track3d_fromru10d", "ru_seen_in_lookback": false, "in_monitor_on_day": true}}, {"type": "Feature", "geometry": {"type": "Point", "coordinates": [15.034516666666667, 55.50278333333333]}, "properties": {"label": "ARARAT", "mmsi": "273434350", "imo": "9171187", "name": "ARARAT", "shiptype": "", "first_seen_utc": "2026-01-03T21:19:15Z", "last_seen_utc": "2026-01-07T03:05:54Z", "destination": "RUULU", "eta": "{'Day': 10, 'Hour': 12, 'Minute': 0, 'Month': 1}", "display": "ARARAT (273434350)", "links": "<a href=\"https://www.vesselfinder.com/vessels?name=9171187\" target=\"_blank\" rel=\"noopener\">VesselFinder</a> | <a href=\"https://www.marinetraffic.com/en/ais/search/all?keyword=9171187\" target=\"_blank\" rel=\"noopener\">MarineTraffic</a>", "vf_url": "https://www.vesselfinder.com/vessels?name=9171187", "mst_url": "https://www.marinetraffic.com/en/ais/search/all?keyword=9171187", "method": "v3_2pass_track3d_fromru10d", "ru_seen_in_lookback": false, "in_monitor_on_day": true}}, {"type": "Feature", "geometry": {"type": "LineString", "coordinates": [[3.9895833333333335, 58.53208333333334], [3.9884333333333335, 58.4642], [3.9765333333333337, 58.422783333333335], [3.9681833333333336, 58.492916666666666], [3.9760666666666666, 58.55453333333333], [3.9667000000000003, 58.61043333333334], [3.95395, 58.66608333333333], [3.9504499999999996, 58.72748333333333], [3.94905, 58.78855], [3.94025, 58.84983333333333], [3.9293166666666663, 58.91245], [3.9215166666666668, 58.977133333333335], [3.9149833333333333, 59.03778333333333], [3.90705, 59.1047], [3.905733333333333, 59.1776], [3.903233333333333, 59.2506], [3.90215, 59.325050000000005], [3.9053166666666663, 59.400666666666666], [3.9007, 59.467650000000006], [3.908533333333333, 59.7429], [3.91425, 59.81451666666667], [3.9126166666666666, 59.87351666666667], [3.9113333333333333, 59.9338], [3.91525, 59.9945], [3.912383333333333, 60.0546], [3.9114833333333334, 60.11416666666666], [3.9188166666666664, 60.17205], [3.9209666666666667, 60.23191666666666], [3.9196999999999997, 60.29161666666666], [3.9238833333333334, 60.35248333333333], [3.9330333333333334, 60.4154], [3.93425, 60.476816666666664], [3.9335166666666668, 60.538783333333335], [3.9360666666666666, 60.602333333333334], [3.937316666666667, 60.661449999999995], [3.9328166666666666, 60.72185], [3.9286833333333333, 60.780566666666665], [3.9188666666666667, 60.84225], [3.91905, 60.90586666666666], [3.9198999999999997, 60.96873333333333], [3.92085, 61.03181666666667], [3.9170666666666665, 61.09535], [3.9191999999999996, 61.15781666666667], [3.9593166666666666, 61.16158333333333], [4.00125, 61.1051], [4.002033333333333, 61.05216666666667], [4.004383333333333, 61.00371666666667], [4.0085, 60.95556666666666], [4.002633333333333, 60.90646666666667], [4.007216666666666, 60.86228333333334], [4.0422666666666665, 60.822916666666664], [4.0815, 60.7686], [4.09395, 60.71093333333333], [4.084733333333333, 60.713816666666666], [4.073633333333333, 60.72038333333333], [4.0623, 60.727266666666665], [4.05125, 60.73478333333333], [4.038783333333333, 60.74348333333333], [4.0295499999999995, 60.752849999999995], [4.020816666666667, 60.76181666666666], [4.0091, 60.77041666666666], [3.9992666666666663, 60.778533333333336], [3.9896666666666665, 60.78751666666667], [3.9786833333333336, 60.79533333333333], [3.967966666666667, 60.803133333333335], [3.9551666666666665, 60.810966666666666], [3.9424166666666665, 60.8189], [3.9302, 60.82731666666667], [3.918, 60.83558333333334], [3.905333333333333, 60.843399999999995], [3.89219, 60.85177833333333], [3.87975, 60.860033333333334], [3.86905, 60.868500000000004], [3.8580166666666664, 60.87591666666666], [3.848783333333333, 60.88356666666667], [3.844666666666667, 60.890883333333335], [3.8503833333333333, 60.85574999999999], [3.87035, 60.77618333333333], [3.896183333333333, 60.693075], [3.91615, 60.60943333333333], [3.9491666666666663, 60.52953333333333], [3.984383333333333, 60.44711666666667], [4.01935, 60.3646], [4.043, 60.28066666666667], [4.061283333333333, 60.197966666666666], [4.08775, 60.1136], [4.1067, 60.027366666666666], [4.109766666666667, 59.93766666666667], [4.117500000000001, 59.84793333333334], [4.154283333333334, 59.76236666666667], [4.188766666666667, 59.67518333333333], [4.228800000000001, 59.5905], [4.257116666666667, 59.506566666666664], [4.283883333333334, 59.423433333333335], [4.2988333333333335, 59.33923333333333], [4.3117833333333335, 59.25873333333333], [4.3309, 59.17511666666667], [4.407666666666667, 59.09903333333333], [4.4836833333333335, 59.02395], [4.52535, 58.9433], [4.534966666666667, 58.86331666666667], [4.5377833333333335, 58.784200000000006], [4.5299, 58.70105], [4.512016666666667, 58.62348333333333], [4.492050000000001, 58.55158333333333], [4.448933333333333, 58.4829], [4.4074, 58.41258333333334], [4.3719, 58.340983333333334], [4.3297, 58.27238333333333], [4.27585, 58.20295], [4.23375, 58.127116666666666]]}, "properties": {"label": "SIYANIE SEVERA", "mmsi": "273398650", "imo": "9250385", "name": "SIYANIE SEVERA", "shiptype": "", "first_seen_utc": "2026-01-04T00:36:46Z", "last_seen_utc": "2026-01-07T11:10:57Z", "destination": "SFAX", "eta": "{'Day': 18, 'Hour': 12, 'Minute': 0, 'Month': 1}", "display": "", "links": "<a href=\"https://www.vesselfinder.com/vessels?name=9250385\" target=\"_blank\" rel=\"noopener\">VesselFinder</a> | <a href=\"https://www.marinetraffic.com/en/ais/search/all?keyword=9250385\" target=\"_blank\" rel=\"noopener\">MarineTraffic</a>", "vf_url": "https://www.vesselfinder.com/vessels?name=9250385", "mst_url": "https://www.marinetraffic.com/en/ais/search/all?keyword=9250385", "method": "v3_2pass_track3d_fromru10d", "ru_seen_in_lookback": false, "in_monitor_on_day": true}}, {"type": "Feature", "geometry": {"type": "Point", "coordinates": [4.23375, 58.127116666666666]}, "properties": {"label": "SIYANIE SEVERA", "mmsi": "273398650", "imo": "9250385", "name": "SIYANIE SEVERA", "shiptype": "", "first_seen_utc": "2026-01-04T00:36:46Z", "last_seen_utc": "2026-01-07T11:10:57Z", "destination": "SFAX", "eta": "{'Day': 18, 'Hour': 12, 'Minute': 0, 'Month': 1}", "display": "SIYANIE SEVERA (273398650)", "links": "<a href=\"https://www.vesselfinder.com/vessels?name=9250385\" target=\"_blank\" rel=\"noopener\">VesselFinder</a> | <a href=\"https://www.marinetraffic.com/en/ais/search/all?keyword=9250385\" target=\"_blank\" rel=\"noopener\">MarineTraffic</a>", "vf_url": "https://www.vesselfinder.com/vessels?name=9250385", "mst_url": "https://www.marinetraffic.com/en/ais/search/all?keyword=9250385", "method": "v3_2pass_track3d_fromru10d", "ru_seen_in_lookback": false, "in_monitor_on_day": true}}, {"type": "Feature", "geometry": {"type": "LineString", "coordinates": [[1.7700866666666668, 51.113475], [1.8994166666666668, 51.16856666666667], [2.0329466666666667, 51.21794166666667], [2.0938233333333334, 51.298226666666665], [2.129713333333333, 51.384519999999995], [2.2104166666666667, 51.462271666666666], [2.509943333333333, 51.704233333333335], [2.597513333333333, 51.77594333333333], [2.85447, 51.95833666666667], [3.896183333333333, 52.61857833333333], [4.042278333333333, 52.693916666666674], [4.133108333333333, 52.756665], [4.203705, 52.829910000000005], [4.27497, 52.905411666666666], [4.348986666666667, 52.981315], [4.420703333333334, 53.058526666666666], [4.49405, 53.13554666666666], [4.556938333333333, 53.2145], [4.6112899999999994, 53.290213333333334], [4.6648483333333335, 53.36241333333333], [4.720931666666667, 53.433281666666666], [4.76895, 53.50006666666666], [4.811436666666666, 53.557741666666665], [4.852268333333333, 53.61800166666667], [9.309956666666666, 57.496224999999995], [9.42122, 57.53611333333333], [9.536098333333333, 57.576751666666674], [9.659951666666666, 57.61778666666667], [9.815941666666667, 57.66934666666667], [9.968358333333333, 57.69773166666666], [10.095706666666667, 57.72456666666667], [10.231266666666667, 57.74839833333333], [10.436905, 57.783635]]}, "properties": {"label": "LADY MARIIA", "mmsi": "273292160", "imo": "9220641", "name": "LADY MARIIA", "shiptype": "", "first_seen_utc": "2026-01-04T10:50:30Z", "last_seen_utc": "2026-01-07T06:12:07Z", "destination": "TO ORDER", "eta": "{'Day': 0, 'Hour': 24, 'Minute': 60, 'Month': 0}", "display": "", "links": "<a href=\"https://www.vesselfinder.com/vessels?name=9220641\" target=\"_blank\" rel=\"noopener\">VesselFinder</a> | <a href=\"https://www.marinetraffic.com/en/ais/search/all?keyword=9220641\" target=\"_blank\" rel=\"noopener\">MarineTraffic</a>", "vf_url": "https://www.vesselfinder.com/vessels?name=9220641", "mst_url": "https://www.marinetraffic.com/en/ais/search/all?keyword=9220641", "method": "v3_2pass_track3d_fromru10d", "ru_seen_in_lookback": false, "in_monitor_on_day": true}}, {"type": "Feature", "geometry": {"type": "Point", "coordinates": [10.436905, 57.783635]}, "properties": {"label": "LADY MARIIA", "mmsi": "273292160", "imo": "9220641", "name": "LADY MARIIA", "shiptype": "", "first_seen_utc": "2026-01-04T10:50:30Z", "last_seen_utc": "2026-01-07T06:12:07Z", "destination": "TO ORDER", "eta": "{'Day': 0, 'Hour': 24, 'Minute': 60, 'Month': 0}", "display": "LADY MARIIA (273292160)", "links": "<a href=\"https://www.vesselfinder.com/vessels?name=9220641\" target=\"_blank\" rel=\"noopener\">VesselFinder</a> | <a href=\"https://www.marinetraffic.com/en/ais/search/all?keyword=9220641\" target=\"_blank\" rel=\"noopener\">MarineTraffic</a>", "vf_url": "https://www.vesselfinder.com/vessels?name=9220641", "mst_url": "https://www.marinetraffic.com/en/ais/search/all?keyword=9220641", "method": "v3_2pass_track3d_fromru10d", "ru_seen_in_lookback": false, "in_monitor_on_day": true}}, {"type": "Feature", "geometry": {"type": "LineString", "coordinates": [[1.2880333333333334, 50.665355], [1.3811916666666666, 50.72307333333333], [1.409745, 50.80257166666667], [1.4441116666666667, 50.877831666666665], [1.4998150000000001, 50.94444166666666], [1.577715, 50.99785], [1.6580133333333333, 51.04378333333333], [1.7308883333333334, 51.08989166666667], [1.808455, 51.13366333333333], [1.904645, 51.16067833333333], [2.0003633333333335, 51.194015], [2.0897666666666668, 51.23322833333334], [2.4911516666666667, 51.680103333333335], [8.32846, 57.33565], [8.518675, 57.40772166666667], [8.874106666666668, 57.533051666666665], [8.998748333333333, 57.578208333333336], [9.118661666666666, 57.622175], [9.408886666666666, 57.707526666666666], [9.611208333333334, 57.789588333333334], [9.813186666666667, 57.799591666666664], [9.957311666666667, 57.80193166666666], [10.108131666666667, 57.804055], [10.263483333333333, 57.805746666666664]]}, "properties": {"label": "KAPITAN DANILKIN", "mmsi": "273131200", "imo": "8406729", "name": "KAPITAN DANILKIN", "shiptype": "", "first_seen_utc": "2026-01-04T21:09:03Z", "last_seen_utc": "2026-01-07T13:21:43Z", "destination": "FOR ORDER", "eta": "{'Day': 0, 'Hour': 12, 'Minute': 0, 'Month': 0}", "display": "", "links": "<a href=\"https://www.vesselfinder.com/vessels?name=8406729\" target=\"_blank\" rel=\"noopener\">VesselFinder</a> | <a href=\"https://www.marinetraffic.com/en/ais/search/all?keyword=8406729\" target=\"_blank\" rel=\"noopener\">MarineTraffic</a>", "vf_url": "https://www.vesselfinder.com/vessels?name=8406729", "mst_url": "https://www.marinetraffic.com/en/ais/search/all?keyword=8406729", "method": "v3_2pass_track3d_fromru10d", "ru_seen_in_lookback": false, "in_monitor_on_day": true}}, {"type": "Feature", "geometry": {"type": "Point", "coordinates": [10.263483333333333, 57.805746666666664]}, "properties": {"label": "KAPITAN DANILKIN", "mmsi": "273131200", "imo": "8406729", "name": "KAPITAN DANILKIN", "shiptype": "", "first_seen_utc": "2026-01-04T21:09:03Z", "last_seen_utc": "2026-01-07T13:21:43Z", "destination": "FOR ORDER", "eta": "{'Day': 0, 'Hour': 12, 'Minute': 0, 'Month': 0}", "display": "KAPITAN DANILKIN (273131200)", "links": "<a href=\"https://www.vesselfinder.com/vessels?name=8406729\" target=\"_blank\" rel=\"noopener\">VesselFinder</a> | <a href=\"https://www.marinetraffic.com/en/ais/search/all?keyword=8406729\" target=\"_blank\" rel=\"noopener\">MarineTraffic</a>", "vf_url": "https://www.vesselfinder.com/vessels?name=8406729", "mst_url": "https://www.marinetraffic.com/en/ais/search/all?keyword=8406729", "method": "v3_2pass_track3d_fromru10d", "ru_seen_in_lookback": false, "in_monitor_on_day": true}}, {"type": "Feature", "geometry": {"type": "LineString", "coordinates": [[-0.9772183333333333, 50.15228333333334], [-0.7550133333333334, 50.19132333333334], [-0.5437016666666667, 50.230215], [1.2436516666666668, 50.65017], [1.36638, 50.737015], [1.4254733333333334, 50.84818833333333], [1.5228283333333332, 50.947561666666665], [1.6539966666666668, 51.030028333333334], [1.7674349999999999, 51.118516666666665], [1.9146533333333333, 51.17632166666667], [2.05539, 51.23444], [2.115955, 51.320765], [2.1385266666666665, 51.41338833333334], [2.2550733333333333, 51.48492833333333], [2.34802, 51.55342333333333], [2.435801666666667, 51.62230833333333], [2.5274349999999997, 51.68346833333333], [2.6024666666666665, 51.762550000000005], [2.6624383333333332, 51.84432833333334], [2.712193333333333, 51.93173], [5.596486666666666, 57.056691666666666], [5.514963333333333, 57.16526833333333], [5.435125, 57.27398166666667], [5.356105, 57.38439166666667], [5.276595, 57.495778333333334], [5.188636666666667, 57.606163333333335], [5.106973333333333, 57.71655833333333], [5.026683333333334, 57.82814666666666], [4.944, 57.94392166666667], [4.856771666666666, 58.058675], [4.769881666666667, 58.17476], [4.687880000000001, 58.29104666666667], [4.606166666666667, 58.40533166666667], [4.512978333333334, 58.52135166666667], [4.421411666666667, 58.63375833333334], [4.347756666666667, 58.752475], [4.29304, 58.876495], [4.217218333333333, 58.99327], [4.1858216666666666, 59.11249], [4.181295, 59.229220000000005], [4.1882, 59.343561666666666], [4.184143333333333, 59.45788], [4.1772133333333334, 59.569098333333336], [4.184505, 59.67941833333334], [4.1837816666666665, 59.790910000000004], [4.185978333333334, 59.90618], [4.189536666666666, 60.019890000000004], [4.190785, 60.13119666666667], [4.189291666666667, 60.246626666666664], [4.187796666666666, 60.365705000000005], [4.182953333333334, 60.484955]]}, "properties": {"label": "JAGGER", "mmsi": "273277060", "imo": "9354301", "name": "JAGGER", "shiptype": "", "first_seen_utc": "2026-01-05T08:59:43Z", "last_seen_utc": "2026-01-07T15:40:42Z", "destination": "FOR ORDER", "eta": "{'Day': 11, 'Hour': 19, 'Minute': 0, 'Month': 1}", "display": "", "links": "<a href=\"https://www.vesselfinder.com/vessels?name=9354301\" target=\"_blank\" rel=\"noopener\">VesselFinder</a> | <a href=\"https://www.marinetraffic.com/en/ais/search/all?keyword=9354301\" target=\"_blank\" rel=\"noopener\">MarineTraffic</a>", "vf_url": "https://www.vesselfinder.com/vessels?name=9354301", "mst_url": "https://www.marinetraffic.com/en/ais/search/all?keyword=9354301", "method": "v3_2pass_track3d_fromru10d", "ru_seen_in_lookback": false, "in_monitor_on_day": true}}, {"type": "Feature", "geometry": {"type": "Point", "coordinates": [4.182953333333334, 60.484955]}, "properties": {"label": "JAGGER", "mmsi": "273277060", "imo": "9354301", "name": "JAGGER", "shiptype": "", "first_seen_utc": "2026-01-05T08:59:43Z", "last_seen_utc": "2026-01-07T15:40:42Z", "destination": "FOR ORDER", "eta": "{'Day': 11, 'Hour': 19, 'Minute': 0, 'Month': 1}", "display": "JAGGER (273277060)", "links": "<a href=\"https://www.vesselfinder.com/vessels?name=9354301\" target=\"_blank\" rel=\"noopener\">VesselFinder</a> | <a href=\"https://www.marinetraffic.com/en/ais/search/all?keyword=9354301\" target=\"_blank\" rel=\"noopener\">MarineTraffic</a>", "vf_url": "https://www.vesselfinder.com/vessels?name=9354301", "mst_url": "https://www.marinetraffic.com/en/ais/search/all?keyword=9354301", "method": "v3_2pass_track3d_fromru10d", "ru_seen_in_lookback": false, "in_monitor_on_day": true}}, {"type": "Feature", "geometry": {"type": "LineString", "coordinates": [[3.2089366666666668, 51.347595], [3.1971883333333335, 51.329719999999995]]}, "properties": {"label": "273743672", "mmsi": "273743672", "imo": "", "name": "", "shiptype": "", "first_seen_utc": "2026-01-05T12:25:24Z", "last_seen_utc": "2026-01-07T13:50:17Z", "destination": "", "eta": "", "display": "", "links": "<a href=\"https://www.vesselfinder.com/vessels?name=273743672\" target=\"_blank\" rel=\"noopener\">VesselFinder</a> | <a href=\"https://www.marinetraffic.com/en/ais/search/all?keyword=273743672\" target=\"_blank\" rel=\"noopener\">MarineTraffic</a>", "vf_url": "https://www.vesselfinder.com/vessels?name=273743672", "mst_url": "https://www.marinetraffic.com/en/ais/search/all?keyword=273743672", "method": "v3_2pass_track3d_fromru10d", "ru_seen_in_lookback": false, "in_monitor_on_day": true}}, {"type": "Feature", "geometry": {"type": "Point", "coordinates": [3.1971883333333335, 51.329719999999995]}, "properties": {"label": "273743672", "mmsi": "273743672", "imo": "", "name": "", "shiptype": "", "first_seen_utc": "2026-01-05T12:25:24Z", "last_seen_utc": "2026-01-07T13:50:17Z", "destination": "", "eta": "", "display": "273743672 (273743672)", "links": "<a href=\"https://www.vesselfinder.com/vessels?name=273743672\" target=\"_blank\" rel=\"noopener\">VesselFinder</a> | <a href=\"https://www.marinetraffic.com/en/ais/search/all?keyword=273743672\" target=\"_blank\" rel=\"noopener\">MarineTraffic</a>", "vf_url": "https://www.vesselfinder.com/vessels?name=273743672", "mst_url": "https://www.marinetraffic.com/en/ais/search/all?keyword=273743672", "method": "v3_2pass_track3d_fromru10d", "ru_seen_in_lookback": false, "in_monitor_on_day": true}}, {"type": "Feature", "geometry": {"type": "LineString", "coordinates": [[-0.2816916666666666, 50.271229999999996], [1.2608716666666666, 50.648705], [1.393055, 50.71857833333333], [1.42309, 50.82274833333334], [1.4804016666666666, 50.925125], [1.5870199999999999, 51.00958333333333], [1.71973, 51.07521], [1.84703, 51.13887], [1.9838133333333334, 51.19123666666667], [2.098996666666667, 51.254958333333335], [2.150205, 51.346601666666665], [2.19923, 51.43711833333334], [2.476, 51.681898333333336], [2.5836266666666665, 51.77782166666667], [7.161666666666666, 56.970078333333326], [7.443121666666667, 57.07036666666667], [7.60782, 57.120149999999995]]}, "properties": {"label": "PLUTON", "mmsi": "273271850", "imo": "9288746", "name": "PLUTON", "shiptype": "", "first_seen_utc": "2026-01-05T23:04:47Z", "last_seen_utc": "2026-01-07T15:26:14Z", "destination": "BALTICSEA FOR ORDERS", "eta": "{'Day': 11, 'Hour': 6, 'Minute': 0, 'Month': 1}", "display": "", "links": "<a href=\"https://www.vesselfinder.com/vessels?name=9288746\" target=\"_blank\" rel=\"noopener\">VesselFinder</a> | <a href=\"https://www.marinetraffic.com/en/ais/search/all?keyword=9288746\" target=\"_blank\" rel=\"noopener\">MarineTraffic</a>", "vf_url": "https://www.vesselfinder.com/vessels?name=9288746", "mst_url": "https://www.marinetraffic.com/en/ais/search/all?keyword=9288746", "method": "v3_2pass_track3d_fromru10d", "ru_seen_in_lookback": false, "in_monitor_on_day": true}}, {"type": "Feature", "geometry": {"type": "Point", "coordinates": [7.60782, 57.120149999999995]}, "properties": {"label": "PLUTON", "mmsi": "273271850", "imo": "9288746", "name": "PLUTON", "shiptype": "", "first_seen_utc": "2026-01-05T23:04:47Z", "last_seen_utc": "2026-01-07T15:26:14Z", "destination": "BALTICSEA FOR ORDERS", "eta": "{'Day': 11, 'Hour': 6, 'Minute': 0, 'Month': 1}", "display": "PLUTON (273271850)", "links": "<a href=\"https://www.vesselfinder.com/vessels?name=9288746\" target=\"_blank\" rel=\"noopener\">VesselFinder</a> | <a href=\"https://www.marinetraffic.com/en/ais/search/all?keyword=9288746\" target=\"_blank\" rel=\"noopener\">MarineTraffic</a>", "vf_url": "https://www.vesselfinder.com/vessels?name=9288746", "mst_url": "https://www.marinetraffic.com/en/ais/search/all?keyword=9288746", "method": "v3_2pass_track3d_fromru10d", "ru_seen_in_lookback": false, "in_monitor_on_day": true}}, {"type": "Feature", "geometry": {"type": "LineString", "coordinates": [[15.167863333333335, 55.484500000000004], [14.910673333333333, 55.480378333333334], [14.451763333333334, 55.32810333333334], [13.309571666666667, 55.246203333333334], [13.062891666666667, 55.254389999999994], [12.858046666666667, 55.26368], [12.685043333333335, 55.30263], [12.69191, 55.405811666666665], [12.704771666666666, 55.518015], [12.696336666666667, 55.630559999999996], [12.696176666666666, 55.74851666666667], [12.731, 55.86020333333333], [12.705363333333334, 55.97174166666667], [12.619026666666667, 56.07861833333333], [12.452210000000001, 56.162643333333335], [9.690721666666667, 57.831291666666665], [9.481304999999999, 57.824335], [9.284515, 57.81620833333333], [9.084413333333334, 57.812443333333334], [8.885351666666667, 57.80415333333334]]}, "properties": {"label": "KEM", "mmsi": "273439910", "imo": "8413370", "name": "KEM", "shiptype": "", "first_seen_utc": "2026-01-06T14:37:56Z", "last_seen_utc": "2026-01-07T15:39:20Z", "destination": "MURMANSK", "eta": "{'Day': 0, 'Hour': 24, 'Minute': 60, 'Month': 0}", "display": "", "links": "<a href=\"https://www.vesselfinder.com/vessels?name=8413370\" target=\"_blank\" rel=\"noopener\">VesselFinder</a> | <a href=\"https://www.marinetraffic.com/en/ais/search/all?keyword=8413370\" target=\"_blank\" rel=\"noopener\">MarineTraffic</a>", "vf_url": "https://www.vesselfinder.com/vessels?name=8413370", "mst_url": "https://www.marinetraffic.com/en/ais/search/all?keyword=8413370", "method": "v3_2pass_track3d_fromru10d", "ru_seen_in_lookback": false, "in_monitor_on_day": true}}, {"type": "Feature", "geometry": {"type": "Point", "coordinates": [8.885351666666667, 57.80415333333334]}, "properties": {"label": "KEM", "mmsi": "273439910", "imo": "8413370", "name": "KEM", "shiptype": "", "first_seen_utc": "2026-01-06T14:37:56Z", "last_seen_utc": "2026-01-07T15:39:20Z", "destination": "MURMANSK", "eta": "{'Day': 0, 'Hour': 24, 'Minute': 60, 'Month': 0}", "display": "KEM (273439910)", "links": "<a href=\"https://www.vesselfinder.com/vessels?name=8413370\" target=\"_blank\" rel=\"noopener\">VesselFinder</a> | <a href=\"https://www.marinetraffic.com/en/ais/search/all?keyword=8413370\" target=\"_blank\" rel=\"noopener\">MarineTraffic</a>", "vf_url": "https://www.vesselfinder.com/vessels?name=8413370", "mst_url": "https://www.marinetraffic.com/en/ais/search/all?keyword=8413370", "method": "v3_2pass_track3d_fromru10d", "ru_seen_in_lookback": false, "in_monitor_on_day": true}}, {"type": "Feature", "geometry": {"type": "LineString", "coordinates": [[19.29892166666667, 54.822298333333336], [20.039976666666668, 54.88145333333333]]}, "properties": {"label": "FESCO NOVIK", "mmsi": "273329660", "imo": "9296987", "name": "FESCO NOVIK", "shiptype": "", "first_seen_utc": "2026-01-07T07:28:31Z", "last_seen_utc": "2026-01-07T11:15:43Z", "destination": "RU LED-RU BLT", "eta": "{'Day': 7, 'Hour': 11, 'Minute': 0, 'Month': 1}", "display": "", "links": "<a href=\"https://www.vesselfinder.com/vessels?name=9296987\" target=\"_blank\" rel=\"noopener\">VesselFinder</a> | <a href=\"https://www.marinetraffic.com/en/ais/search/all?keyword=9296987\" target=\"_blank\" rel=\"noopener\">MarineTraffic</a>", "vf_url": "https://www.vesselfinder.com/vessels?name=9296987", "mst_url": "https://www.marinetraffic.com/en/ais/search/all?keyword=9296987", "method": "v3_2pass_track3d_fromru10d", "ru_seen_in_lookback": true, "in_monitor_on_day": true}}, {"type": "Feature", "geometry": {"type": "Point", "coordinates": [20.039976666666668, 54.88145333333333]}, "properties": {"label": "FESCO NOVIK", "mmsi": "273329660", "imo": "9296987", "name": "FESCO NOVIK", "shiptype": "", "first_seen_utc": "2026-01-07T07:28:31Z", "last_seen_utc": "2026-01-07T11:15:43Z", "destination": "RU LED-RU BLT", "eta": "{'Day': 7, 'Hour': 11, 'Minute': 0, 'Month': 1}", "display": "FESCO NOVIK (273329660)", "links": "<a href=\"https://www.vesselfinder.com/vessels?name=9296987\" target=\"_blank\" rel=\"noopener\">VesselFinder</a> | <a href=\"https://www.marinetraffic.com/en/ais/search/all?keyword=9296987\" target=\"_blank\" rel=\"noopener\">MarineTraffic</a>", "vf_url": "https://www.vesselfinder.com/vessels?name=9296987", "mst_url": "https://www.marinetraffic.com/en/ais/search/all?keyword=9296987", "method": "v3_2pass_track3d_fromru10d", "ru_seen_in_lookback": true, "in_monitor_on_day": true}}]}