{"type": "FeatureCollection", "features": [{"type": "Feature", "geometry": {"type": "LineString", "coordinates": [[2.1028283333333335, 51.55913833333333], [1.983675, 51.480605], [1.9117933333333332, 51.407273333333336], [1.8479533333333333, 51.324994999999994], [1.7705133333333334, 51.24520666666667], [1.68042, 51.175693333333335], [1.6021283333333334, 51.114345], [1.5131383333333335, 51.05369333333333], [-0.32235, 50.418054999999995], [-0.36582333333333333, 50.41052166666667], [-0.39987833333333334, 50.40633833333333], [-0.40726333333333337, 50.40466], [-0.41342166666666663, 50.398345], [-0.42676499999999995, 50.391843333333334], [-0.44276333333333334, 50.38437666666667], [-0.49029833333333334, 50.37835], [-0.5554616666666666, 50.370374999999996], [-0.6447333333333333, 50.363683333333334], [-0.7229816666666667, 50.358608333333336], [-0.833575, 50.338206666666665], [-0.9202816666666667, 50.32169833333333]]}, "properties": {"label": "SIERRA", "mmsi": "613007200", "imo": "9522324", "name": "SIERRA", "shiptype": "", "first_seen_utc": "2025-12-31T06:03:20Z", "last_seen_utc": "2026-01-09T04:43:06Z", "destination": "SGSIN", "eta": "{'Day': 9, 'Hour': 12, 'Minute': 5, 'Month': 2}", "display": "", "links": "<a href=\"https://www.vesselfinder.com/vessels?name=9522324\" target=\"_blank\" rel=\"noopener\">VesselFinder</a> | <a href=\"https://www.marinetraffic.com/en/ais/search/all?keyword=9522324\" target=\"_blank\" rel=\"noopener\">MarineTraffic</a>", "vf_url": "https://www.vesselfinder.com/vessels?name=9522324", "mst_url": "https://www.marinetraffic.com/en/ais/search/all?keyword=9522324", "method": "v3_2pass_track3d_fromru10d", "ru_seen_in_lookback": true, "in_monitor_on_day": true}}, {"type": "Feature", "geometry": {"type": "Point", "coordinates": [-0.9202816666666667, 50.32169833333333]}, "properties": {"label": "SIERRA", "mmsi": "613007200", "imo": "9522324", "name": "SIERRA", "shiptype": "", "first_seen_utc": "2025-12-31T06:03:20Z", "last_seen_utc": "2026-01-09T04:43:06Z", "destination": "SGSIN", "eta": "{'Day': 9, 'Hour': 12, 'Minute': 5, 'Month': 2}", "display": "SIERRA (613007200)", "links": "<a href=\"https://www.vesselfinder.com/vessels?name=9522324\" target=\"_blank\" rel=\"noopener\">VesselFinder</a> | <a href=\"https://www.marinetraffic.com/en/ais/search/all?keyword=9522324\" target=\"_blank\" rel=\"noopener\">MarineTraffic</a>", "vf_url": "https://www.vesselfinder.com/vessels?name=9522324", "mst_url": "https://www.marinetraffic.com/en/ais/search/all?keyword=9522324", "method": "v3_2pass_track3d_fromru10d", "ru_seen_in_lookback": true, "in_monitor_on_day": true}}, {"type": "Feature", "geometry": {"type": "LineString", "coordinates": [[10.308203333333333, 57.839288333333336], [10.110708333333333, 57.83230666666667], [9.820246666666666, 57.82336333333333], [9.624478333333334, 57.817033333333335], [9.337925, 57.724383333333336], [9.17176, 57.66859], [9.009686666666665, 57.61434166666666], [8.847904999999999, 57.55671333333333], [8.660988333333334, 57.489243333333334], [7.753893333333334, 57.16367666666667], [2.5776683333333335, 51.88183166666667], [2.491068333333333, 51.799083333333336], [2.174485, 51.59415666666666], [2.0536016666666668, 51.51533333333334], [1.9361033333333333, 51.431645], [1.8516433333333333, 51.336705], [1.7834816666666666, 51.24431333333334], [1.691705, 51.172655], [1.5969933333333333, 51.11654333333333], [1.5149666666666666, 51.06879666666667], [1.3315433333333333, 50.92210166666667], [-0.38727999999999996, 50.40456666666667], [-0.47998999999999997, 50.38999], [-0.938695, 50.31710333333333]]}, "properties": {"label": "JEWEL", "mmsi": "374987000", "imo": "9419450", "name": "JEWEL", "shiptype": "", "first_seen_utc": "2025-12-31T06:04:24Z", "last_seen_utc": "2026-01-09T14:48:21Z", "destination": "EGPSD", "eta": "{'Day': 20, 'Hour': 19, 'Minute': 0, 'Month': 1}", "display": "", "links": "<a href=\"https://www.vesselfinder.com/vessels?name=9419450\" target=\"_blank\" rel=\"noopener\">VesselFinder</a> | <a href=\"https://www.marinetraffic.com/en/ais/search/all?keyword=9419450\" target=\"_blank\" rel=\"noopener\">MarineTraffic</a>", "vf_url": "https://www.vesselfinder.com/vessels?name=9419450", "mst_url": "https://www.marinetraffic.com/en/ais/search/all?keyword=9419450", "method": "v3_2pass_track3d_fromru10d", "ru_seen_in_lookback": true, "in_monitor_on_day": true}}, {"type": "Feature", "geometry": {"type": "Point", "coordinates": [-0.938695, 50.31710333333333]}, "properties": {"label": "JEWEL", "mmsi": "374987000", "imo": "9419450", "name": "JEWEL", "shiptype": "", "first_seen_utc": "2025-12-31T06:04:24Z", "last_seen_utc": "2026-01-09T14:48:21Z", "destination": "EGPSD", "eta": "{'Day': 20, 'Hour': 19, 'Minute': 0, 'Month': 1}", "display": "JEWEL (374987000)", "links": "<a href=\"https://www.vesselfinder.com/vessels?name=9419450\" target=\"_blank\" rel=\"noopener\">VesselFinder</a> | <a href=\"https://www.marinetraffic.com/en/ais/search/all?keyword=9419450\" target=\"_blank\" rel=\"noopener\">MarineTraffic</a>", "vf_url": "https://www.vesselfinder.com/vessels?name=9419450", "mst_url": "https://www.marinetraffic.com/en/ais/search/all?keyword=9419450", "method": "v3_2pass_track3d_fromru10d", "ru_seen_in_lookback": true, "in_monitor_on_day": true}}, {"type": "Feature", "geometry": {"type": "LineString", "coordinates": [[8.073101666666666, 57.287958333333336], [7.932011666666667, 57.24155333333333], [7.784225, 57.19175333333333], [7.63606, 57.14478666666666], [7.5137816666666675, 57.080155], [2.3488633333333335, 51.74759666666667], [2.1021033333333334, 51.584246666666665], [2.019875, 51.527008333333335], [1.9408233333333333, 51.468665], [1.8790216666666666, 51.40445166666667], [1.8287466666666667, 51.330555], [1.7773033333333332, 51.253571666666666], [1.696975, 51.18073666666667], [1.5928866666666666, 51.11320833333333], [1.4903799999999998, 51.04592666666667], [1.37772, 50.97331166666667], [1.2849516666666667, 50.89144833333333], [1.1796166666666668, 50.836879999999994], [-0.2705783333333333, 50.43653333333334], [-0.3801183333333333, 50.41516166666667], [-0.4870483333333333, 50.40005833333333], [-0.5840599999999999, 50.381805], [-0.6674100000000001, 50.36647], [-0.7456816666666667, 50.35522666666667], [-0.8141200000000001, 50.345728333333334], [-0.85576, 50.33743333333334], [-0.8839383333333333, 50.33022666666667], [-0.9155383333333333, 50.32598333333333], [-0.9715416666666666, 50.31557833333333], [-1.0490266666666668, 50.300806666666666]]}, "properties": {"label": "PIONER 1", "mmsi": "273271320", "imo": "9378618", "name": "PIONER 1", "shiptype": "", "first_seen_utc": "2025-12-31T07:24:10Z", "last_seen_utc": "2026-01-09T13:49:08Z", "destination": "SGSIN", "eta": "{'Day': 15, 'Hour': 18, 'Minute': 0, 'Month': 2}", "display": "", "links": "<a href=\"https://www.vesselfinder.com/vessels?name=9378618\" target=\"_blank\" rel=\"noopener\">VesselFinder</a> | <a href=\"https://www.marinetraffic.com/en/ais/search/all?keyword=9378618\" target=\"_blank\" rel=\"noopener\">MarineTraffic</a>", "vf_url": "https://www.vesselfinder.com/vessels?name=9378618", "mst_url": "https://www.marinetraffic.com/en/ais/search/all?keyword=9378618", "method": "v3_2pass_track3d_fromru10d", "ru_seen_in_lookback": true, "in_monitor_on_day": true}}, {"type": "Feature", "geometry": {"type": "Point", "coordinates": [-1.0490266666666668, 50.300806666666666]}, "properties": {"label": "PIONER 1", "mmsi": "273271320", "imo": "9378618", "name": "PIONER 1", "shiptype": "", "first_seen_utc": "2025-12-31T07:24:10Z", "last_seen_utc": "2026-01-09T13:49:08Z", "destination": "SGSIN", "eta": "{'Day': 15, 'Hour': 18, 'Minute': 0, 'Month': 2}", "display": "PIONER 1 (273271320)", "links": "<a href=\"https://www.vesselfinder.com/vessels?name=9378618\" target=\"_blank\" rel=\"noopener\">VesselFinder</a> | <a href=\"https://www.marinetraffic.com/en/ais/search/all?keyword=9378618\" target=\"_blank\" rel=\"noopener\">MarineTraffic</a>", "vf_url": "https://www.vesselfinder.com/vessels?name=9378618", "mst_url": "https://www.marinetraffic.com/en/ais/search/all?keyword=9378618", "method": "v3_2pass_track3d_fromru10d", "ru_seen_in_lookback": true, "in_monitor_on_day": true}}, {"type": "Feature", "geometry": {"type": "LineString", "coordinates": [[10.495833333333334, 57.852495], [10.244941666666668, 57.840244999999996], [10.023783333333334, 57.830875], [9.7464, 57.82559333333334], [9.566833333333333, 57.807120000000005], [9.403988333333333, 57.751373333333326], [9.099678333333333, 57.652231666666665], [8.949686666666667, 57.59936166666667], [8.782931666666666, 57.541001666666666], [8.626395, 57.486824999999996], [8.469990000000001, 57.43399333333333], [8.248045, 57.36753], [8.087023333333333, 57.31374166666667], [7.938113333333334, 57.26434166666666], [7.790806666666667, 57.20855666666667], [7.635646666666667, 57.155674999999995], [7.523105, 57.087288333333326], [2.6000050000000003, 52.044671666666666], [2.5732083333333335, 51.917901666666666], [2.4881249999999997, 51.830261666666665], [2.327185, 51.715651666666666], [2.2120366666666667, 51.63595], [2.0969366666666667, 51.55459333333333], [1.9860583333333333, 51.472521666666665], [1.8910433333333332, 51.38376166666667], [1.823765, 51.29882], [1.760405, 51.22262833333333], [1.6707733333333332, 51.16794166666667], [1.5928916666666666, 51.121338333333334], [1.529895, 51.084735], [1.4756833333333332, 51.044380000000004], [1.3560033333333334, 50.96222], [1.2888666666666666, 50.91789833333333], [-0.3076933333333333, 50.463168333333336], [-0.4054683333333333, 50.447093333333335], [-0.5019416666666666, 50.42998166666666], [-0.6123933333333333, 50.40707666666666], [-0.7264149999999999, 50.385380000000005], [-0.8798316666666667, 50.355875], [-1.0132366666666666, 50.33043833333333]]}, "properties": {"label": "ETHERA", "mmsi": "632001149", "imo": "9387279", "name": "ETHERA", "shiptype": "", "first_seen_utc": "2025-12-31T08:05:25Z", "last_seen_utc": "2026-01-09T15:56:41Z", "destination": "MOROCCO FOR ORDER", "eta": "{'Day': 14, 'Hour': 12, 'Minute': 0, 'Month': 1}", "display": "", "links": "<a href=\"https://www.vesselfinder.com/vessels?name=9387279\" target=\"_blank\" rel=\"noopener\">VesselFinder</a> | <a href=\"https://www.marinetraffic.com/en/ais/search/all?keyword=9387279\" target=\"_blank\" rel=\"noopener\">MarineTraffic</a>", "vf_url": "https://www.vesselfinder.com/vessels?name=9387279", "mst_url": "https://www.marinetraffic.com/en/ais/search/all?keyword=9387279", "method": "v3_2pass_track3d_fromru10d", "ru_seen_in_lookback": true, "in_monitor_on_day": true}}, {"type": "Feature", "geometry": {"type": "Point", "coordinates": [-1.0132366666666666, 50.33043833333333]}, "properties": {"label": "ETHERA", "mmsi": "632001149", "imo": "9387279", "name": "ETHERA", "shiptype": "", "first_seen_utc": "2025-12-31T08:05:25Z", "last_seen_utc": "2026-01-09T15:56:41Z", "destination": "MOROCCO FOR ORDER", "eta": "{'Day': 14, 'Hour': 12, 'Minute': 0, 'Month': 1}", "display": "ETHERA (632001149)", "links": "<a href=\"https://www.vesselfinder.com/vessels?name=9387279\" target=\"_blank\" rel=\"noopener\">VesselFinder</a> | <a href=\"https://www.marinetraffic.com/en/ais/search/all?keyword=9387279\" target=\"_blank\" rel=\"noopener\">MarineTraffic</a>", "vf_url": "https://www.vesselfinder.com/vessels?name=9387279", "mst_url": "https://www.marinetraffic.com/en/ais/search/all?keyword=9387279", "method": "v3_2pass_track3d_fromru10d", "ru_seen_in_lookback": true, "in_monitor_on_day": true}}, {"type": "Feature", "geometry": {"type": "LineString", "coordinates": [[10.495470000000001, 57.846345], [9.850165, 57.85220833333334], [9.665926666666667, 57.84214833333333], [9.481021666666667, 57.80670833333333], [9.318053333333333, 57.758556666666664], [9.159043333333333, 57.71085333333333], [9.003333333333334, 57.664765], [8.854486666666666, 57.61902666666666], [8.700343333333333, 57.572829999999996], [8.541416666666667, 57.52695666666667], [8.387363333333333, 57.48257], [8.22443, 57.433616666666666], [8.060318333333333, 57.394238333333334], [7.889036666666667, 57.36439666666667], [7.717163333333334, 57.32894666666667], [7.556536666666667, 57.29057666666667], [7.385133333333333, 57.24995166666667], [7.219245, 57.210035], [7.058400000000001, 57.16852666666667], [6.902243333333333, 57.12876333333334], [6.737615, 57.088861666666666], [5.88906, 56.62820333333333], [5.8915766666666665, 56.53208333333334], [5.89287, 56.242623333333334], [4.105611666666666, 53.90444], [3.7162, 53.73246666666667], [2.5759, 51.88951833333333], [2.4616933333333337, 51.807325], [2.1732933333333335, 51.59428333333334], [2.04332, 51.510405], [1.9146816666666666, 51.440418333333334], [1.836115, 51.343491666666665], [1.7680283333333333, 51.24372166666667], [1.6641249999999999, 51.176645], [1.5578283333333334, 51.12164833333333], [1.4509966666666665, 51.07556666666667]]}, "properties": {"label": "ELYTE", "mmsi": "667002017", "imo": "9345623", "name": "ELYTE", "shiptype": "", "first_seen_utc": "2026-01-01T13:00:52Z", "last_seen_utc": "2026-01-09T14:42:32Z", "destination": "SG SIN", "eta": "{'Day': 9, 'Hour': 12, 'Minute': 0, 'Month': 2}", "display": "", "links": "<a href=\"https://www.vesselfinder.com/vessels?name=9345623\" target=\"_blank\" rel=\"noopener\">VesselFinder</a> | <a href=\"https://www.marinetraffic.com/en/ais/search/all?keyword=9345623\" target=\"_blank\" rel=\"noopener\">MarineTraffic</a>", "vf_url": "https://www.vesselfinder.com/vessels?name=9345623", "mst_url": "https://www.marinetraffic.com/en/ais/search/all?keyword=9345623", "method": "v3_2pass_track3d_fromru10d", "ru_seen_in_lookback": true, "in_monitor_on_day": true}}, {"type": "Feature", "geometry": {"type": "Point", "coordinates": [1.4509966666666665, 51.07556666666667]}, "properties": {"label": "ELYTE", "mmsi": "667002017", "imo": "9345623", "name": "ELYTE", "shiptype": "", "first_seen_utc": "2026-01-01T13:00:52Z", "last_seen_utc": "2026-01-09T14:42:32Z", "destination": "SG SIN", "eta": "{'Day': 9, 'Hour': 12, 'Minute': 0, 'Month': 2}", "display": "ELYTE (667002017)", "links": "<a href=\"https://www.vesselfinder.com/vessels?name=9345623\" target=\"_blank\" rel=\"noopener\">VesselFinder</a> | <a href=\"https://www.marinetraffic.com/en/ais/search/all?keyword=9345623\" target=\"_blank\" rel=\"noopener\">MarineTraffic</a>", "vf_url": "https://www.vesselfinder.com/vessels?name=9345623", "mst_url": "https://www.marinetraffic.com/en/ais/search/all?keyword=9345623", "method": "v3_2pass_track3d_fromru10d", "ru_seen_in_lookback": true, "in_monitor_on_day": true}}, {"type": "Feature", "geometry": {"type": "LineString", "coordinates": [[10.494278333333334, 57.84290333333333], [10.279643333333333, 57.83441333333334], [10.076478333333334, 57.826933333333336], [9.880393333333334, 57.81888333333333], [9.689841666666666, 57.82188833333333], [9.482835, 57.78455333333333], [9.310633333333334, 57.731451666666665], [9.177526666666667, 57.68923666666667], [9.038068333333333, 57.645311666666665], [8.882931666666668, 57.59689], [8.710046666666667, 57.545425], [8.540595, 57.494546666666665], [8.377088333333333, 57.442035000000004], [8.199346666666667, 57.391724999999994], [8.027393333333332, 57.34368833333333], [7.856351666666667, 57.294648333333335], [7.694406666666667, 57.23978666666667], [7.5284683333333335, 57.19237833333333], [7.389188333333333, 57.13751833333333], [2.620436666666667, 52.02967666666667], [2.541471666666667, 51.90621], [2.4646483333333333, 51.81323833333333], [2.350468333333333, 51.730090000000004], [2.2324333333333333, 51.64511], [2.114225, 51.55853333333334], [1.9982166666666668, 51.474183333333336], [1.8991866666666666, 51.381613333333334], [1.8273983333333335, 51.28802333333333], [1.74663, 51.208308333333335], [1.6425283333333334, 51.152945], [1.5430833333333331, 51.101213333333334], [1.4691066666666666, 51.064705000000004], [1.388635, 51.03646166666667], [1.303535, 50.98911666666667], [-0.31583, 50.45544833333334], [-0.4034083333333333, 50.441781666666664], [-0.48611499999999996, 50.42800333333333], [-0.5672999999999999, 50.413595], [-0.68451, 50.39700166666667], [-0.7838033333333333, 50.388045000000005], [-0.9082933333333333, 50.36470833333333]]}, "properties": {"label": "UTAKI", "mmsi": "667002334", "imo": "9262924", "name": "UTAKI", "shiptype": "", "first_seen_utc": "2026-01-02T07:49:14Z", "last_seen_utc": "2026-01-09T14:52:52Z", "destination": "PORT SAID EGYPT", "eta": "{'Day': 20, 'Hour': 23, 'Minute': 0, 'Month': 1}", "display": "", "links": "<a href=\"https://www.vesselfinder.com/vessels?name=9262924\" target=\"_blank\" rel=\"noopener\">VesselFinder</a> | <a href=\"https://www.marinetraffic.com/en/ais/search/all?keyword=9262924\" target=\"_blank\" rel=\"noopener\">MarineTraffic</a>", "vf_url": "https://www.vesselfinder.com/vessels?name=9262924", "mst_url": "https://www.marinetraffic.com/en/ais/search/all?keyword=9262924", "method": "v3_2pass_track3d_fromru10d", "ru_seen_in_lookback": true, "in_monitor_on_day": true}}, {"type": "Feature", "geometry": {"type": "Point", "coordinates": [-0.9082933333333333, 50.36470833333333]}, "properties": {"label": "UTAKI", "mmsi": "667002334", "imo": "9262924", "name": "UTAKI", "shiptype": "", "first_seen_utc": "2026-01-02T07:49:14Z", "last_seen_utc": "2026-01-09T14:52:52Z", "destination": "PORT SAID EGYPT", "eta": "{'Day': 20, 'Hour': 23, 'Minute': 0, 'Month': 1}", "display": "UTAKI (667002334)", "links": "<a href=\"https://www.vesselfinder.com/vessels?name=9262924\" target=\"_blank\" rel=\"noopener\">VesselFinder</a> | <a href=\"https://www.marinetraffic.com/en/ais/search/all?keyword=9262924\" target=\"_blank\" rel=\"noopener\">MarineTraffic</a>", "vf_url": "https://www.vesselfinder.com/vessels?name=9262924", "mst_url": "https://www.marinetraffic.com/en/ais/search/all?keyword=9262924", "method": "v3_2pass_track3d_fromru10d", "ru_seen_in_lookback": true, "in_monitor_on_day": true}}, {"type": "Feature", "geometry": {"type": "LineString", "coordinates": [[15.367893333333335, 55.655633333333334], [15.194526666666667, 55.627399999999994], [14.984161666666667, 55.56496], [14.829113333333334, 55.516515], [14.676121666666667, 55.471070000000005], [14.535419999999998, 55.418335], [14.435711666666666, 55.347076666666666], [14.298098333333334, 55.23081], [14.199185, 55.15084], [12.283471666666665, 54.605884999999994], [12.240886666666666, 54.56831], [12.209125, 54.484545000000004], [12.080836666666666, 54.438356666666664], [11.896573333333333, 54.44019], [11.730158333333332, 54.455000000000005], [11.577208333333335, 54.48869333333334], [11.406901666666666, 54.53478500000001], [11.231213333333333, 54.58298333333333], [11.051218333333333, 54.59992666666667], [10.882728333333334, 54.642846666666664], [10.778988333333333, 54.72065666666666], [10.834178333333334, 54.81977666666667], [10.867223333333333, 54.912146666666665], [10.968250000000001, 54.97412166666666], [10.99731, 55.07226333333333], [11.022060000000002, 55.169783333333335], [11.091268333333334, 55.248905], [11.040706666666667, 55.35590333333334], [10.851756666666667, 55.54619666666667], [10.775936666666666, 55.63191833333334], [10.793468333333333, 55.71183833333334], [10.797433333333334, 55.815155], [10.875891666666666, 55.901401666666665], [9.861368333333333, 57.845776666666666], [9.659306666666668, 57.84448833333333], [9.47123, 57.82908833333333], [9.299321666666666, 57.773986666666666], [9.130978333333333, 57.71830333333333], [8.966185, 57.657376666666664], [8.793000000000001, 57.597433333333335], [8.624168333333333, 57.540575], [8.445203333333334, 57.48038333333333]]}, "properties": {"label": "MAINI", "mmsi": "613003573", "imo": "9319870", "name": "MAINI", "shiptype": "", "first_seen_utc": "2026-01-03T13:58:46Z", "last_seen_utc": "2026-01-09T15:54:00Z", "destination": "EG PSD", "eta": "{'Day': 21, 'Hour': 15, 'Minute': 0, 'Month': 1}", "display": "", "links": "<a href=\"https://www.vesselfinder.com/vessels?name=9319870\" target=\"_blank\" rel=\"noopener\">VesselFinder</a> | <a href=\"https://www.marinetraffic.com/en/ais/search/all?keyword=9319870\" target=\"_blank\" rel=\"noopener\">MarineTraffic</a>", "vf_url": "https://www.vesselfinder.com/vessels?name=9319870", "mst_url": "https://www.marinetraffic.com/en/ais/search/all?keyword=9319870", "method": "v3_2pass_track3d_fromru10d", "ru_seen_in_lookback": true, "in_monitor_on_day": true}}, {"type": "Feature", "geometry": {"type": "Point", "coordinates": [8.445203333333334, 57.48038333333333]}, "properties": {"label": "MAINI", "mmsi": "613003573", "imo": "9319870", "name": "MAINI", "shiptype": "", "first_seen_utc": "2026-01-03T13:58:46Z", "last_seen_utc": "2026-01-09T15:54:00Z", "destination": "EG PSD", "eta": "{'Day': 21, 'Hour': 15, 'Minute': 0, 'Month': 1}", "display": "MAINI (613003573)", "links": "<a href=\"https://www.vesselfinder.com/vessels?name=9319870\" target=\"_blank\" rel=\"noopener\">VesselFinder</a> | <a href=\"https://www.marinetraffic.com/en/ais/search/all?keyword=9319870\" target=\"_blank\" rel=\"noopener\">MarineTraffic</a>", "vf_url": "https://www.vesselfinder.com/vessels?name=9319870", "mst_url": "https://www.marinetraffic.com/en/ais/search/all?keyword=9319870", "method": "v3_2pass_track3d_fromru10d", "ru_seen_in_lookback": true, "in_monitor_on_day": true}}, {"type": "Feature", "geometry": {"type": "LineString", "coordinates": [[15.264299999999999, 55.598483333333334], [15.033816666666667, 55.552366666666664], [14.884816666666667, 55.50901666666667], [14.691383333333333, 55.4547], [14.4109, 55.30636666666667], [12.321766666666667, 54.6182], [12.24465, 54.54868333333333], [12.18875, 54.455850000000005], [12.02605, 54.44123333333334], [11.847816666666667, 54.43723333333333], [11.677366666666668, 54.45751666666667], [11.517033333333334, 54.501], [11.355733333333335, 54.548033333333336], [11.191416666666667, 54.59395], [11.020366666666666, 54.59791666666667], [10.86585, 54.649833333333326], [10.777133333333333, 54.72441666666667], [10.834333333333332, 54.82165], [10.862116666666667, 54.90946666666667], [10.950133333333333, 54.964733333333335], [10.993699999999999, 55.06131666666667], [11.004766666666665, 55.16336666666667], [11.099566666666668, 55.23283333333333], [11.038, 55.34271666666667], [10.865016666666666, 55.52373333333333], [10.8021, 55.614850000000004], [10.79915, 55.71015], [10.817583333333333, 55.807766666666666], [10.868416666666667, 55.899300000000004], [11.097066666666667, 56.146483333333336], [10.49325, 57.851216666666666], [10.284033333333333, 57.861133333333335], [10.044016666666666, 57.85348333333333], [9.839833333333333, 57.854283333333335], [9.646316666666667, 57.85328333333334], [9.464333333333334, 57.80958333333333], [9.3025, 57.75725], [9.153866666666666, 57.69795], [9.005533333333334, 57.63516666666667], [8.857433333333335, 57.575849999999996], [8.705900000000002, 57.514316666666666], [8.3339, 57.37611666666667], [8.177816666666667, 57.31088333333333], [8.046116666666666, 57.2308]]}, "properties": {"label": "PATE", "mmsi": "667002026", "imo": "9338905", "name": "PATE", "shiptype": "", "first_seen_utc": "2026-01-04T08:45:47Z", "last_seen_utc": "2026-01-09T13:50:23Z", "destination": "PORT SAID", "eta": "{'Day': 21, 'Hour': 23, 'Minute': 0, 'Month': 1}", "display": "", "links": "<a href=\"https://www.vesselfinder.com/vessels?name=9338905\" target=\"_blank\" rel=\"noopener\">VesselFinder</a> | <a href=\"https://www.marinetraffic.com/en/ais/search/all?keyword=9338905\" target=\"_blank\" rel=\"noopener\">MarineTraffic</a>", "vf_url": "https://www.vesselfinder.com/vessels?name=9338905", "mst_url": "https://www.marinetraffic.com/en/ais/search/all?keyword=9338905", "method": "v3_2pass_track3d_fromru10d", "ru_seen_in_lookback": true, "in_monitor_on_day": true}}, {"type": "Feature", "geometry": {"type": "Point", "coordinates": [8.046116666666666, 57.2308]}, "properties": {"label": "PATE", "mmsi": "667002026", "imo": "9338905", "name": "PATE", "shiptype": "", "first_seen_utc": "2026-01-04T08:45:47Z", "last_seen_utc": "2026-01-09T13:50:23Z", "destination": "PORT SAID", "eta": "{'Day': 21, 'Hour': 23, 'Minute': 0, 'Month': 1}", "display": "PATE (667002026)", "links": "<a href=\"https://www.vesselfinder.com/vessels?name=9338905\" target=\"_blank\" rel=\"noopener\">VesselFinder</a> | <a href=\"https://www.marinetraffic.com/en/ais/search/all?keyword=9338905\" target=\"_blank\" rel=\"noopener\">MarineTraffic</a>", "vf_url": "https://www.vesselfinder.com/vessels?name=9338905", "mst_url": "https://www.marinetraffic.com/en/ais/search/all?keyword=9338905", "method": "v3_2pass_track3d_fromru10d", "ru_seen_in_lookback": true, "in_monitor_on_day": true}}, {"type": "Feature", "geometry": {"type": "LineString", "coordinates": [[7.161666666666666, 56.970078333333326], [7.443121666666667, 57.07036666666667], [7.60782, 57.120149999999995], [7.804353333333333, 57.18283833333333], [8.20468, 57.29819], [8.564601666666666, 57.416270000000004], [8.85306, 57.52169833333333], [9.168895, 57.631385], [9.368445000000001, 57.696515], [9.635283333333332, 57.788855], [9.851130000000001, 57.79703333333334], [10.06176, 57.80325666666667], [10.305956666666667, 57.810015], [10.981475, 55.945555], [10.855756666666668, 55.86359], [10.79976, 55.77066166666667], [10.772393333333333, 55.64427166666667], [11.030898333333333, 55.356006666666666], [11.076766666666666, 55.25777], [11.048215, 55.16466166666667], [11.030165, 55.069381666666665], [11.007101666666667, 54.98399], [10.935103333333332, 54.94366333333333], [10.874836666666665, 54.894149999999996], [10.853795, 54.80356833333334], [10.871805, 54.697651666666665], [11.006094999999998, 54.639185], [11.146271666666667, 54.58608166666667], [11.294943333333332, 54.55054666666667], [11.435176666666667, 54.512193333333336], [11.577126666666667, 54.47060666666666], [11.722199999999999, 54.425795], [11.889846666666667, 54.41041666666667], [12.064251666666667, 54.40817833333333], [12.213478333333335, 54.46564333333333], [12.255533333333334, 54.568158333333336], [14.667768333333333, 55.41300833333333], [14.817906666666666, 55.44421666666666]]}, "properties": {"label": "PLUTON", "mmsi": "273271850", "imo": "9288746", "name": "PLUTON", "shiptype": "", "first_seen_utc": "2026-01-05T23:04:47Z", "last_seen_utc": "2026-01-09T10:29:12Z", "destination": "BALTICSEA FOR ORDERS", "eta": "{'Day': 11, 'Hour': 12, 'Minute': 0, 'Month': 1}", "display": "", "links": "<a href=\"https://www.vesselfinder.com/vessels?name=9288746\" target=\"_blank\" rel=\"noopener\">VesselFinder</a> | <a href=\"https://www.marinetraffic.com/en/ais/search/all?keyword=9288746\" target=\"_blank\" rel=\"noopener\">MarineTraffic</a>", "vf_url": "https://www.vesselfinder.com/vessels?name=9288746", "mst_url": "https://www.marinetraffic.com/en/ais/search/all?keyword=9288746", "method": "v3_2pass_track3d_fromru10d", "ru_seen_in_lookback": false, "in_monitor_on_day": true}}, {"type": "Feature", "geometry": {"type": "Point", "coordinates": [14.817906666666666, 55.44421666666666]}, "properties": {"label": "PLUTON", "mmsi": "273271850", "imo": "9288746", "name": "PLUTON", "shiptype": "", "first_seen_utc": "2026-01-05T23:04:47Z", "last_seen_utc": "2026-01-09T10:29:12Z", "destination": "BALTICSEA FOR ORDERS", "eta": "{'Day': 11, 'Hour': 12, 'Minute': 0, 'Month': 1}", "display": "PLUTON (273271850)", "links": "<a href=\"https://www.vesselfinder.com/vessels?name=9288746\" target=\"_blank\" rel=\"noopener\">VesselFinder</a> | <a href=\"https://www.marinetraffic.com/en/ais/search/all?keyword=9288746\" target=\"_blank\" rel=\"noopener\">MarineTraffic</a>", "vf_url": "https://www.vesselfinder.com/vessels?name=9288746", "mst_url": "https://www.marinetraffic.com/en/ais/search/all?keyword=9288746", "method": "v3_2pass_track3d_fromru10d", "ru_seen_in_lookback": false, "in_monitor_on_day": true}}, {"type": "Feature", "geometry": {"type": "LineString", "coordinates": [[8.94372, 57.69616166666666], [8.770638333333332, 57.651516666666666], [8.549623333333333, 57.595285], [8.359545, 57.54709666666667], [8.174696666666668, 57.49811833333333], [7.98628, 57.450783333333334], [7.835916666666666, 57.38970333333334], [7.724163333333333, 57.30116666666667], [1.9049366666666667, 51.43510166666667], [1.8443933333333333, 51.355175], [1.7947583333333335, 51.278909999999996], [1.7384633333333332, 51.212134999999996], [1.6607983333333334, 51.164065], [1.59193, 51.12554]]}, "properties": {"label": "CARMA", "mmsi": "461000252", "imo": "9341081", "name": "CARMA", "shiptype": "", "first_seen_utc": "2026-01-06T00:38:59Z", "last_seen_utc": "2026-01-09T02:55:19Z", "destination": "EGPSD", "eta": "{'Day': 19, 'Hour': 23, 'Minute': 0, 'Month': 1}", "display": "", "links": "<a href=\"https://www.vesselfinder.com/vessels?name=9341081\" target=\"_blank\" rel=\"noopener\">VesselFinder</a> | <a href=\"https://www.marinetraffic.com/en/ais/search/all?keyword=9341081\" target=\"_blank\" rel=\"noopener\">MarineTraffic</a>", "vf_url": "https://www.vesselfinder.com/vessels?name=9341081", "mst_url": "https://www.marinetraffic.com/en/ais/search/all?keyword=9341081", "method": "v3_2pass_track3d_fromru10d", "ru_seen_in_lookback": false, "in_monitor_on_day": true}}, {"type": "Feature", "geometry": {"type": "Point", "coordinates": [1.59193, 51.12554]}, "properties": {"label": "CARMA", "mmsi": "461000252", "imo": "9341081", "name": "CARMA", "shiptype": "", "first_seen_utc": "2026-01-06T00:38:59Z", "last_seen_utc": "2026-01-09T02:55:19Z", "destination": "EGPSD", "eta": "{'Day': 19, 'Hour': 23, 'Minute': 0, 'Month': 1}", "display": "CARMA (461000252)", "links": "<a href=\"https://www.vesselfinder.com/vessels?name=9341081\" target=\"_blank\" rel=\"noopener\">VesselFinder</a> | <a href=\"https://www.marinetraffic.com/en/ais/search/all?keyword=9341081\" target=\"_blank\" rel=\"noopener\">MarineTraffic</a>", "vf_url": "https://www.vesselfinder.com/vessels?name=9341081", "mst_url": "https://www.marinetraffic.com/en/ais/search/all?keyword=9341081", "method": "v3_2pass_track3d_fromru10d", "ru_seen_in_lookback": false, "in_monitor_on_day": true}}, {"type": "Feature", "geometry": {"type": "LineString", "coordinates": [[28.695813333333334, 60.33546], [28.696111666666663, 60.334696666666666], [28.698961666666666, 60.32786833333333], [28.69893, 60.32787], [28.698975, 60.327864999999996], [28.69939, 60.32781166666667], [28.699386666666665, 60.32781], [28.69947833333333, 60.327695], [28.704423333333335, 60.32], [28.764045, 60.278055], [28.771528333333332, 60.223724999999995], [15.282883333333332, 55.63200833333334], [15.106455, 55.580103333333334], [14.934206666666666, 55.52832166666667], [14.727458333333335, 55.470596666666665]]}, "properties": {"label": "ORYX", "mmsi": "314001139", "imo": "9250737", "name": "ORYX", "shiptype": "", "first_seen_utc": "2026-01-06T07:26:38Z", "last_seen_utc": "2026-01-09T12:32:56Z", "destination": "TR ALI", "eta": "{'Day': 23, 'Hour': 4, 'Minute': 0, 'Month': 1}", "display": "", "links": "<a href=\"https://www.vesselfinder.com/vessels?name=9250737\" target=\"_blank\" rel=\"noopener\">VesselFinder</a> | <a href=\"https://www.marinetraffic.com/en/ais/search/all?keyword=9250737\" target=\"_blank\" rel=\"noopener\">MarineTraffic</a>", "vf_url": "https://www.vesselfinder.com/vessels?name=9250737", "mst_url": "https://www.marinetraffic.com/en/ais/search/all?keyword=9250737", "method": "v3_2pass_track3d_fromru10d", "ru_seen_in_lookback": true, "in_monitor_on_day": true}}, {"type": "Feature", "geometry": {"type": "Point", "coordinates": [14.727458333333335, 55.470596666666665]}, "properties": {"label": "ORYX", "mmsi": "314001139", "imo": "9250737", "name": "ORYX", "shiptype": "", "first_seen_utc": "2026-01-06T07:26:38Z", "last_seen_utc": "2026-01-09T12:32:56Z", "destination": "TR ALI", "eta": "{'Day': 23, 'Hour': 4, 'Minute': 0, 'Month': 1}", "display": "ORYX (314001139)", "links": "<a href=\"https://www.vesselfinder.com/vessels?name=9250737\" target=\"_blank\" rel=\"noopener\">VesselFinder</a> | <a href=\"https://www.marinetraffic.com/en/ais/search/all?keyword=9250737\" target=\"_blank\" rel=\"noopener\">MarineTraffic</a>", "vf_url": "https://www.vesselfinder.com/vessels?name=9250737", "mst_url": "https://www.marinetraffic.com/en/ais/search/all?keyword=9250737", "method": "v3_2pass_track3d_fromru10d", "ru_seen_in_lookback": true, "in_monitor_on_day": true}}, {"type": "Feature", "geometry": {"type": "LineString", "coordinates": [[-0.7289549999999999, 50.20128833333333], [-0.5446500000000001, 50.23378], [-0.405355, 50.25994166666667], [-0.2747866666666667, 50.283678333333334], [-0.13710666666666665, 50.30699666666667], [0.0017033333333333334, 50.32952833333333], [1.241745, 50.637645], [1.34977, 50.701168333333335], [1.4026649999999998, 50.78527166666667], [1.4393799999999999, 50.874521666666666], [1.5109416666666666, 50.95617333333333], [1.6188716666666667, 51.031688333333335], [1.7330066666666668, 51.10858333333333], [1.87746, 51.166555], [2.0432533333333334, 51.21347333333333], [2.133755, 51.30547166666667], [2.1447316666666665, 51.40719833333333], [2.4128866666666666, 51.634706666666666], [2.5293916666666667, 51.72083666666666], [2.6081066666666666, 51.819266666666664], [2.677208333333333, 51.93224166666666], [7.4015683333333335, 56.688541666666666], [8.191691666666667, 57.218738333333334], [8.423476666666666, 57.37], [8.535145, 57.42227666666667], [8.648241666666667, 57.457928333333335], [8.772938333333334, 57.49835333333333], [8.896326666666665, 57.539165000000004], [9.02341, 57.581693333333334], [9.142583333333333, 57.624469999999995], [9.322876666666668, 57.68811], [9.506566666666666, 57.753098333333334], [9.63148, 57.78800666666667], [9.770858333333333, 57.79596], [9.902385, 57.79555166666667], [10.036598333333334, 57.800111666666666], [10.173823333333333, 57.80328333333333], [10.31539, 57.80602333333333], [10.446796666666668, 57.81004666666667]]}, "properties": {"label": "RORA", "mmsi": "613469620", "imo": "9288722", "name": "RORA", "shiptype": "", "first_seen_utc": "2026-01-07T01:40:19Z", "last_seen_utc": "2026-01-09T14:14:21Z", "destination": "GULF OF FINLAND", "eta": "{'Day': 12, 'Hour': 10, 'Minute': 0, 'Month': 1}", "display": "", "links": "<a href=\"https://www.vesselfinder.com/vessels?name=9288722\" target=\"_blank\" rel=\"noopener\">VesselFinder</a> | <a href=\"https://www.marinetraffic.com/en/ais/search/all?keyword=9288722\" target=\"_blank\" rel=\"noopener\">MarineTraffic</a>", "vf_url": "https://www.vesselfinder.com/vessels?name=9288722", "mst_url": "https://www.marinetraffic.com/en/ais/search/all?keyword=9288722", "method": "v3_2pass_track3d_fromru10d", "ru_seen_in_lookback": false, "in_monitor_on_day": true}}, {"type": "Feature", "geometry": {"type": "Point", "coordinates": [10.446796666666668, 57.81004666666667]}, "properties": {"label": "RORA", "mmsi": "613469620", "imo": "9288722", "name": "RORA", "shiptype": "", "first_seen_utc": "2026-01-07T01:40:19Z", "last_seen_utc": "2026-01-09T14:14:21Z", "destination": "GULF OF FINLAND", "eta": "{'Day': 12, 'Hour': 10, 'Minute': 0, 'Month': 1}", "display": "RORA (613469620)", "links": "<a href=\"https://www.vesselfinder.com/vessels?name=9288722\" target=\"_blank\" rel=\"noopener\">VesselFinder</a> | <a href=\"https://www.marinetraffic.com/en/ais/search/all?keyword=9288722\" target=\"_blank\" rel=\"noopener\">MarineTraffic</a>", "vf_url": "https://www.vesselfinder.com/vessels?name=9288722", "mst_url": "https://www.marinetraffic.com/en/ais/search/all?keyword=9288722", "method": "v3_2pass_track3d_fromru10d", "ru_seen_in_lookback": false, "in_monitor_on_day": true}}, {"type": "Feature", "geometry": {"type": "LineString", "coordinates": [[-0.8478, 50.172533333333334], [-0.7097, 50.19965], [-0.5608666666666667, 50.225833333333334], [-0.40505, 50.25263333333333], [-0.23146666666666665, 50.2839], [1.2662833333333334, 50.654916666666665], [1.3833166666666665, 50.741683333333334], [1.44905, 50.8516], [1.55305, 50.95911666666667], [1.6890333333333334, 51.05136666666667], [1.8330333333333333, 51.132], [1.9934666666666667, 51.195883333333335], [2.110866666666667, 51.268116666666664], [2.1752, 51.374316666666665], [2.2309, 51.48506666666666], [2.4012333333333333, 51.6526], [2.5180000000000002, 51.73928333333333], [2.631466666666667, 51.848683333333334]]}, "properties": {"label": "CENTURION", "mmsi": "667001255", "imo": "9380673", "name": "CENTURION", "shiptype": "", "first_seen_utc": "2026-01-08T18:39:20Z", "last_seen_utc": "2026-01-09T07:53:42Z", "destination": "BALTIC FOR ORDER", "eta": "{'Day': 13, 'Hour': 9, 'Minute': 0, 'Month': 1}", "display": "", "links": "<a href=\"https://www.vesselfinder.com/vessels?name=9380673\" target=\"_blank\" rel=\"noopener\">VesselFinder</a> | <a href=\"https://www.marinetraffic.com/en/ais/search/all?keyword=9380673\" target=\"_blank\" rel=\"noopener\">MarineTraffic</a>", "vf_url": "https://www.vesselfinder.com/vessels?name=9380673", "mst_url": "https://www.marinetraffic.com/en/ais/search/all?keyword=9380673", "method": "v3_2pass_track3d_fromru10d", "ru_seen_in_lookback": false, "in_monitor_on_day": true}}, {"type": "Feature", "geometry": {"type": "Point", "coordinates": [2.631466666666667, 51.848683333333334]}, "properties": {"label": "CENTURION", "mmsi": "667001255", "imo": "9380673", "name": "CENTURION", "shiptype": "", "first_seen_utc": "2026-01-08T18:39:20Z", "last_seen_utc": "2026-01-09T07:53:42Z", "destination": "BALTIC FOR ORDER", "eta": "{'Day': 13, 'Hour': 9, 'Minute': 0, 'Month': 1}", "display": "CENTURION (667001255)", "links": "<a href=\"https://www.vesselfinder.com/vessels?name=9380673\" target=\"_blank\" rel=\"noopener\">VesselFinder</a> | <a href=\"https://www.marinetraffic.com/en/ais/search/all?keyword=9380673\" target=\"_blank\" rel=\"noopener\">MarineTraffic</a>", "vf_url": "https://www.vesselfinder.com/vessels?name=9380673", "mst_url": "https://www.marinetraffic.com/en/ais/search/all?keyword=9380673", "method": "v3_2pass_track3d_fromru10d", "ru_seen_in_lookback": false, "in_monitor_on_day": true}}, {"type": "Feature", "geometry": {"type": "LineString", "coordinates": [[1.3593350000000002, 50.71351333333334], [1.4300866666666667, 50.80054500000001], [1.6232666666666666, 51.016153333333335], [1.7320966666666666, 51.09467166666666], [1.8608066666666665, 51.15425333333334], [1.9985766666666664, 51.203125], [2.1009366666666667, 51.27177166666667], [2.1592, 51.361061666666664], [2.2385733333333335, 51.46171666666667], [4.077005, 52.707874999999994]]}, "properties": {"label": "AVIOR", "mmsi": "273415140", "imo": "9164512", "name": "AVIOR", "shiptype": "", "first_seen_utc": "2026-01-09T00:38:29Z", "last_seen_utc": "2026-01-09T15:58:39Z", "destination": "RU LED", "eta": "{'Day': 16, 'Hour': 15, 'Minute': 0, 'Month': 1}", "display": "", "links": "<a href=\"https://www.vesselfinder.com/vessels?name=9164512\" target=\"_blank\" rel=\"noopener\">VesselFinder</a> | <a href=\"https://www.marinetraffic.com/en/ais/search/all?keyword=9164512\" target=\"_blank\" rel=\"noopener\">MarineTraffic</a>", "vf_url": "https://www.vesselfinder.com/vessels?name=9164512", "mst_url": "https://www.marinetraffic.com/en/ais/search/all?keyword=9164512", "method": "v3_2pass_track3d_fromru10d", "ru_seen_in_lookback": false, "in_monitor_on_day": true}}, {"type": "Feature", "geometry": {"type": "Point", "coordinates": [4.077005, 52.707874999999994]}, "properties": {"label": "AVIOR", "mmsi": "273415140", "imo": "9164512", "name": "AVIOR", "shiptype": "", "first_seen_utc": "2026-01-09T00:38:29Z", "last_seen_utc": "2026-01-09T15:58:39Z", "destination": "RU LED", "eta": "{'Day': 16, 'Hour': 15, 'Minute': 0, 'Month': 1}", "display": "AVIOR (273415140)", "links": "<a href=\"https://www.vesselfinder.com/vessels?name=9164512\" target=\"_blank\" rel=\"noopener\">VesselFinder</a> | <a href=\"https://www.marinetraffic.com/en/ais/search/all?keyword=9164512\" target=\"_blank\" rel=\"noopener\">MarineTraffic</a>", "vf_url": "https://www.vesselfinder.com/vessels?name=9164512", "mst_url": "https://www.marinetraffic.com/en/ais/search/all?keyword=9164512", "method": "v3_2pass_track3d_fromru10d", "ru_seen_in_lookback": false, "in_monitor_on_day": true}}, {"type": "Feature", "geometry": {"type": "LineString", "coordinates": [[1.3343266666666667, 50.684099999999994], [1.3764616666666667, 50.74534333333334], [1.4094783333333334, 50.80819333333333], [1.4615633333333333, 50.90127333333333], [1.5646416666666667, 50.97611333333334], [1.6463, 51.03454333333333], [1.7286566666666665, 51.093621666666664], [1.8734383333333333, 51.15511333333333], [1.9998233333333333, 51.20006333333333], [2.1047233333333333, 51.255253333333336], [2.13178, 51.32259], [2.1356200000000003, 51.387053333333334]]}, "properties": {"label": "ARIA", "mmsi": "273267690", "imo": "9397559", "name": "ARIA", "shiptype": "", "first_seen_utc": "2026-01-09T09:41:29Z", "last_seen_utc": "2026-01-09T15:50:16Z", "destination": "RUULU", "eta": "{'Day': 15, 'Hour': 9, 'Minute': 0, 'Month': 1}", "display": "", "links": "<a href=\"https://www.vesselfinder.com/vessels?name=9397559\" target=\"_blank\" rel=\"noopener\">VesselFinder</a> | <a href=\"https://www.marinetraffic.com/en/ais/search/all?keyword=9397559\" target=\"_blank\" rel=\"noopener\">MarineTraffic</a>", "vf_url": "https://www.vesselfinder.com/vessels?name=9397559", "mst_url": "https://www.marinetraffic.com/en/ais/search/all?keyword=9397559", "method": "v3_2pass_track3d_fromru10d", "ru_seen_in_lookback": false, "in_monitor_on_day": true}}, {"type": "Feature", "geometry": {"type": "Point", "coordinates": [2.1356200000000003, 51.387053333333334]}, "properties": {"label": "ARIA", "mmsi": "273267690", "imo": "9397559", "name": "ARIA", "shiptype": "", "first_seen_utc": "2026-01-09T09:41:29Z", "last_seen_utc": "2026-01-09T15:50:16Z", "destination": "RUULU", "eta": "{'Day': 15, 'Hour': 9, 'Minute': 0, 'Month': 1}", "display": "ARIA (273267690)", "links": "<a href=\"https://www.vesselfinder.com/vessels?name=9397559\" target=\"_blank\" rel=\"noopener\">VesselFinder</a> | <a href=\"https://www.marinetraffic.com/en/ais/search/all?keyword=9397559\" target=\"_blank\" rel=\"noopener\">MarineTraffic</a>", "vf_url": "https://www.vesselfinder.com/vessels?name=9397559", "mst_url": "https://www.marinetraffic.com/en/ais/search/all?keyword=9397559", "method": "v3_2pass_track3d_fromru10d", "ru_seen_in_lookback": false, "in_monitor_on_day": true}}]}