{"type": "FeatureCollection", "features": [{"type": "Feature", "geometry": {"type": "LineString", "coordinates": [[9.909093333333335, 57.85798], [9.71552, 57.85966666666666], [9.523928333333334, 57.85550333333333], [9.364303333333334, 57.81723833333333], [9.192723333333333, 57.767714999999995], [9.02667, 57.72267], [8.868533333333334, 57.678315], [8.704095, 57.632556666666666], [8.546896666666667, 57.589373333333334], [8.387798333333333, 57.54246166666667], [8.232243333333333, 57.49691], [8.080408333333333, 57.4519], [7.927765, 57.408519999999996], [7.78291, 57.36644833333333], [7.64104, 57.326098333333334], [7.4963283333333335, 57.284715], [7.353210000000001, 57.242264999999996], [7.221628333333333, 57.19507], [7.082426666666667, 57.15363], [6.960028333333333, 57.108140000000006], [6.82449, 57.03113], [2.6287749999999996, 52.14351], [2.606238333333333, 52.03817333333333]]}, "properties": {"label": "CAVALIER", "mmsi": "461000235", "imo": "9306794", "name": "CAVALIER", "shiptype": "", "first_seen_utc": "2026-01-05T00:40:10Z", "last_seen_utc": "2026-01-14T03:41:04Z", "destination": "RUPRI>EGPSD", "eta": "{'Day': 25, 'Hour': 15, 'Minute': 0, 'Month': 1}", "display": "", "links": "<a href=\"https://www.vesselfinder.com/vessels?name=9306794\" target=\"_blank\" rel=\"noopener\">VesselFinder</a> | <a href=\"https://www.marinetraffic.com/en/ais/search/all?keyword=9306794\" target=\"_blank\" rel=\"noopener\">MarineTraffic</a>", "vf_url": "https://www.vesselfinder.com/vessels?name=9306794", "mst_url": "https://www.marinetraffic.com/en/ais/search/all?keyword=9306794", "method": "v3_2pass_track3d_fromru10d", "ru_seen_in_lookback": true, "in_monitor_on_day": true}}, {"type": "Feature", "geometry": {"type": "Point", "coordinates": [2.606238333333333, 52.03817333333333]}, "properties": {"label": "CAVALIER", "mmsi": "461000235", "imo": "9306794", "name": "CAVALIER", "shiptype": "", "first_seen_utc": "2026-01-05T00:40:10Z", "last_seen_utc": "2026-01-14T03:41:04Z", "destination": "RUPRI>EGPSD", "eta": "{'Day': 25, 'Hour': 15, 'Minute': 0, 'Month': 1}", "display": "CAVALIER (461000235)", "links": "<a href=\"https://www.vesselfinder.com/vessels?name=9306794\" target=\"_blank\" rel=\"noopener\">VesselFinder</a> | <a href=\"https://www.marinetraffic.com/en/ais/search/all?keyword=9306794\" target=\"_blank\" rel=\"noopener\">MarineTraffic</a>", "vf_url": "https://www.vesselfinder.com/vessels?name=9306794", "mst_url": "https://www.marinetraffic.com/en/ais/search/all?keyword=9306794", "method": "v3_2pass_track3d_fromru10d", "ru_seen_in_lookback": true, "in_monitor_on_day": true}}, {"type": "Feature", "geometry": {"type": "LineString", "coordinates": [[15.306181666666667, 55.64754333333334], [15.138135, 55.61201666666667], [14.947741666666667, 55.55900166666667], [14.753065, 55.50307333333333], [14.534823333333332, 55.42216], [14.41891, 55.33913166666667], [12.229316666666668, 54.53069333333334], [12.164375, 54.44369166666667], [11.998970000000002, 54.44096833333333], [11.829488333333334, 54.44292333333333], [11.661253333333333, 54.46558166666667], [11.503623333333334, 54.510173333333334], [11.344593333333334, 54.55622833333334], [11.17706, 54.60072666666667], [10.999476666666668, 54.60520333333333], [10.841669999999999, 54.65221], [10.779795, 54.731975000000006], [10.835465, 54.82246833333333], [10.867563333333333, 54.916626666666666], [10.974525, 54.987485], [10.98962, 55.07904], [11.03051, 55.170055000000005], [11.087259999999999, 55.24832333333333], [10.860386666666667, 55.53178833333333], [10.79104, 55.63205], [10.805038333333332, 55.73720166666667], [10.813621666666668, 55.860528333333335], [11.010611666666668, 55.95703666666667]]}, "properties": {"label": "ARCADIA", "mmsi": "461000247", "imo": "9413573", "name": "ARCADIA", "shiptype": "", "first_seen_utc": "2026-01-05T11:54:31Z", "last_seen_utc": "2026-01-14T03:39:14Z", "destination": "SINGAPORE", "eta": "{'Day': 15, 'Hour': 10, 'Minute': 0, 'Month': 2}", "display": "", "links": "<a href=\"https://www.vesselfinder.com/vessels?name=9413573\" target=\"_blank\" rel=\"noopener\">VesselFinder</a> | <a href=\"https://www.marinetraffic.com/en/ais/search/all?keyword=9413573\" target=\"_blank\" rel=\"noopener\">MarineTraffic</a>", "vf_url": "https://www.vesselfinder.com/vessels?name=9413573", "mst_url": "https://www.marinetraffic.com/en/ais/search/all?keyword=9413573", "method": "v3_2pass_track3d_fromru10d", "ru_seen_in_lookback": true, "in_monitor_on_day": true}}, {"type": "Feature", "geometry": {"type": "Point", "coordinates": [11.010611666666668, 55.95703666666667]}, "properties": {"label": "ARCADIA", "mmsi": "461000247", "imo": "9413573", "name": "ARCADIA", "shiptype": "", "first_seen_utc": "2026-01-05T11:54:31Z", "last_seen_utc": "2026-01-14T03:39:14Z", "destination": "SINGAPORE", "eta": "{'Day': 15, 'Hour': 10, 'Minute': 0, 'Month': 2}", "display": "ARCADIA (461000247)", "links": "<a href=\"https://www.vesselfinder.com/vessels?name=9413573\" target=\"_blank\" rel=\"noopener\">VesselFinder</a> | <a href=\"https://www.marinetraffic.com/en/ais/search/all?keyword=9413573\" target=\"_blank\" rel=\"noopener\">MarineTraffic</a>", "vf_url": "https://www.vesselfinder.com/vessels?name=9413573", "mst_url": "https://www.marinetraffic.com/en/ais/search/all?keyword=9413573", "method": "v3_2pass_track3d_fromru10d", "ru_seen_in_lookback": true, "in_monitor_on_day": true}}, {"type": "Feature", "geometry": {"type": "LineString", "coordinates": [[3.9958233333333335, 61.99801333333333], [3.9995366666666663, 61.92610166666667], [3.9992933333333336, 61.84779833333334], [3.9939883333333333, 61.76985], [4.001966666666666, 61.69076166666667], [3.99849, 61.61534833333334], [4.004733333333333, 61.535833333333336], [4.006991666666667, 61.44923166666667], [4.00285, 61.361531666666664], [3.997875, 61.277015], [4.003613333333333, 61.19405666666667], [4.006776666666666, 61.10514666666666], [4.005728333333334, 61.019528333333334], [4.00134, 60.93283333333333], [3.9914316666666663, 60.84961333333333], [3.9979783333333336, 60.772618333333334], [3.997453333333333, 60.69900833333334], [3.993173333333333, 60.62974333333333], [4.00575, 60.56715166666667], [4.013631666666667, 60.50054166666666], [4.015098333333333, 60.424420000000005], [4.019166666666667, 60.34424666666666], [4.021913333333333, 60.262445], [4.016945, 60.17981666666667], [4.0093266666666665, 60.093775]]}, "properties": {"label": "CELT", "mmsi": "461000233", "imo": "9299692", "name": "CELT", "shiptype": "", "first_seen_utc": "2026-01-08T20:45:04Z", "last_seen_utc": "2026-01-14T03:43:49Z", "destination": "EGPSD", "eta": "{'Day': 26, 'Hour': 21, 'Minute': 0, 'Month': 1}", "display": "", "links": "<a href=\"https://www.vesselfinder.com/vessels?name=9299692\" target=\"_blank\" rel=\"noopener\">VesselFinder</a> | <a href=\"https://www.marinetraffic.com/en/ais/search/all?keyword=9299692\" target=\"_blank\" rel=\"noopener\">MarineTraffic</a>", "vf_url": "https://www.vesselfinder.com/vessels?name=9299692", "mst_url": "https://www.marinetraffic.com/en/ais/search/all?keyword=9299692", "method": "v3_2pass_track3d_fromru10d", "ru_seen_in_lookback": true, "in_monitor_on_day": true}}, {"type": "Feature", "geometry": {"type": "Point", "coordinates": [4.0093266666666665, 60.093775]}, "properties": {"label": "CELT", "mmsi": "461000233", "imo": "9299692", "name": "CELT", "shiptype": "", "first_seen_utc": "2026-01-08T20:45:04Z", "last_seen_utc": "2026-01-14T03:43:49Z", "destination": "EGPSD", "eta": "{'Day': 26, 'Hour': 21, 'Minute': 0, 'Month': 1}", "display": "CELT (461000233)", "links": "<a href=\"https://www.vesselfinder.com/vessels?name=9299692\" target=\"_blank\" rel=\"noopener\">VesselFinder</a> | <a href=\"https://www.marinetraffic.com/en/ais/search/all?keyword=9299692\" target=\"_blank\" rel=\"noopener\">MarineTraffic</a>", "vf_url": "https://www.vesselfinder.com/vessels?name=9299692", "mst_url": "https://www.marinetraffic.com/en/ais/search/all?keyword=9299692", "method": "v3_2pass_track3d_fromru10d", "ru_seen_in_lookback": true, "in_monitor_on_day": true}}, {"type": "Feature", "geometry": {"type": "LineString", "coordinates": [[7.234458333333333, 56.92029166666667], [7.37691, 57.007083333333334], [7.558401666666667, 57.07506], [7.7405083333333335, 57.13136], [7.924383333333334, 57.195391666666666], [8.10574, 57.26009333333333], [8.295268333333333, 57.326845000000006], [8.484111666666667, 57.39196666666667], [8.668391666666668, 57.45628], [8.848099999999999, 57.52084], [9.028743333333333, 57.584498333333336], [9.205263333333333, 57.64393833333334], [9.388825, 57.70833833333334], [9.568946666666667, 57.76703166666667], [9.769556666666666, 57.79862833333333], [9.961496666666667, 57.804811666666666], [10.148521666666666, 57.802416666666666], [10.337433333333333, 57.80761333333333], [12.354091666666667, 56.19983], [12.432721666666668, 56.15660333333334], [12.511055, 56.118878333333335], [12.600863333333333, 56.07763666666666], [12.630718333333334, 56.01363], [12.635473333333334, 55.919464999999995], [12.696204999999999, 55.827220000000004], [12.68026, 55.72694833333333], [12.694183333333333, 55.631660000000004], [12.704559999999999, 55.56328166666666], [12.698341666666666, 55.49893], [12.645526666666665, 55.39923833333333], [12.645785, 55.294554999999995], [12.830411666666667, 55.255340000000004], [13.031586666666668, 55.22191333333333], [14.244634999999999, 55.150774999999996], [14.443338333333333, 55.248403333333336], [14.565026666666666, 55.33769333333333], [14.705493333333333, 55.41643833333333], [14.924761666666665, 55.46798166666667], [15.133875, 55.532068333333335], [15.331793333333334, 55.583976666666665]]}, "properties": {"label": "AQUA TITAN", "mmsi": "613961020", "imo": "9332781", "name": "AQUA TITAN", "shiptype": "", "first_seen_utc": "2026-01-10T23:00:19Z", "last_seen_utc": "2026-01-14T00:18:45Z", "destination": "UST LUGA", "eta": "{'Day': 15, 'Hour': 23, 'Minute': 0, 'Month': 1}", "display": "", "links": "<a href=\"https://www.vesselfinder.com/vessels?name=9332781\" target=\"_blank\" rel=\"noopener\">VesselFinder</a> | <a href=\"https://www.marinetraffic.com/en/ais/search/all?keyword=9332781\" target=\"_blank\" rel=\"noopener\">MarineTraffic</a>", "vf_url": "https://www.vesselfinder.com/vessels?name=9332781", "mst_url": "https://www.marinetraffic.com/en/ais/search/all?keyword=9332781", "method": "v3_2pass_track3d_fromru10d", "ru_seen_in_lookback": false, "in_monitor_on_day": true}}, {"type": "Feature", "geometry": {"type": "Point", "coordinates": [15.331793333333334, 55.583976666666665]}, "properties": {"label": "AQUA TITAN", "mmsi": "613961020", "imo": "9332781", "name": "AQUA TITAN", "shiptype": "", "first_seen_utc": "2026-01-10T23:00:19Z", "last_seen_utc": "2026-01-14T00:18:45Z", "destination": "UST LUGA", "eta": "{'Day': 15, 'Hour': 23, 'Minute': 0, 'Month': 1}", "display": "AQUA TITAN (613961020)", "links": "<a href=\"https://www.vesselfinder.com/vessels?name=9332781\" target=\"_blank\" rel=\"noopener\">VesselFinder</a> | <a href=\"https://www.marinetraffic.com/en/ais/search/all?keyword=9332781\" target=\"_blank\" rel=\"noopener\">MarineTraffic</a>", "vf_url": "https://www.vesselfinder.com/vessels?name=9332781", "mst_url": "https://www.marinetraffic.com/en/ais/search/all?keyword=9332781", "method": "v3_2pass_track3d_fromru10d", "ru_seen_in_lookback": false, "in_monitor_on_day": true}}, {"type": "Feature", "geometry": {"type": "LineString", "coordinates": [[7.817371666666667, 57.193153333333335], [8.001385, 57.256049999999995], [8.203156666666667, 57.321751666666664], [8.633208333333332, 57.46028833333333], [8.877323333333333, 57.54389666666667], [8.991366666666666, 57.587775], [9.134271666666667, 57.633445], [9.860945, 57.80593], [12.36562, 56.19932666666667], [12.470830000000001, 56.138299999999994], [12.582068333333332, 56.08528333333334], [12.663553333333335, 56.01629666666667], [12.726528333333333, 55.92659166666667], [12.78036, 55.807363333333335], [12.871006666666666, 55.724799999999995], [12.931886666666665, 55.64359], [12.826325, 55.575865], [12.725433333333333, 55.50813333333333], [12.670493333333333, 55.427191666666666], [12.64194, 55.34034666666666], [12.727125000000001, 55.276650000000004], [13.037738333333333, 55.229625000000006], [14.334596666666666, 55.18047166666667], [14.481666666666666, 55.283363333333334], [14.586698333333334, 55.361916666666666], [14.70616, 55.414406666666665], [14.884208333333333, 55.46864666666667]]}, "properties": {"label": "SOFOS", "mmsi": "667002413", "imo": "9278064", "name": "SOFOS", "shiptype": "", "first_seen_utc": "2026-01-11T05:10:47Z", "last_seen_utc": "2026-01-14T03:45:45Z", "destination": "GULF OF FINLAND", "eta": "{'Day': 16, 'Hour': 10, 'Minute': 0, 'Month': 1}", "display": "", "links": "<a href=\"https://www.vesselfinder.com/vessels?name=9278064\" target=\"_blank\" rel=\"noopener\">VesselFinder</a> | <a href=\"https://www.marinetraffic.com/en/ais/search/all?keyword=9278064\" target=\"_blank\" rel=\"noopener\">MarineTraffic</a>", "vf_url": "https://www.vesselfinder.com/vessels?name=9278064", "mst_url": "https://www.marinetraffic.com/en/ais/search/all?keyword=9278064", "method": "v3_2pass_track3d_fromru10d", "ru_seen_in_lookback": false, "in_monitor_on_day": true}}, {"type": "Feature", "geometry": {"type": "Point", "coordinates": [14.884208333333333, 55.46864666666667]}, "properties": {"label": "SOFOS", "mmsi": "667002413", "imo": "9278064", "name": "SOFOS", "shiptype": "", "first_seen_utc": "2026-01-11T05:10:47Z", "last_seen_utc": "2026-01-14T03:45:45Z", "destination": "GULF OF FINLAND", "eta": "{'Day': 16, 'Hour': 10, 'Minute': 0, 'Month': 1}", "display": "SOFOS (667002413)", "links": "<a href=\"https://www.vesselfinder.com/vessels?name=9278064\" target=\"_blank\" rel=\"noopener\">VesselFinder</a> | <a href=\"https://www.marinetraffic.com/en/ais/search/all?keyword=9278064\" target=\"_blank\" rel=\"noopener\">MarineTraffic</a>", "vf_url": "https://www.vesselfinder.com/vessels?name=9278064", "mst_url": "https://www.marinetraffic.com/en/ais/search/all?keyword=9278064", "method": "v3_2pass_track3d_fromru10d", "ru_seen_in_lookback": false, "in_monitor_on_day": true}}, {"type": "Feature", "geometry": {"type": "LineString", "coordinates": [[7.489850000000001, 56.98158333333333], [7.623966666666666, 57.08721666666667], [7.7747166666666665, 57.154133333333334], [7.944983333333334, 57.20823333333333], [8.12095, 57.269416666666665], [8.326166666666667, 57.34325], [8.489133333333333, 57.40273333333334], [8.675533333333334, 57.46671666666667], [8.83965, 57.52001666666667], [9.001633333333332, 57.584966666666666], [9.2567, 57.6708], [9.450366666666667, 57.73268333333333], [9.652866666666666, 57.78855], [9.850816666666667, 57.79901666666667], [10.055516666666668, 57.8033], [10.382216666666666, 57.80001666666667], [10.994433333333335, 55.95493333333333], [10.859683333333333, 55.86173333333333], [10.80265, 55.76525], [10.766166666666667, 55.65016666666667], [10.839699999999999, 55.54905], [11.0308, 55.35576666666667], [11.089316666666667, 55.24661666666667], [11.042033333333334, 55.14833333333333], [11.023433333333333, 55.03388333333333], [10.9648, 54.951350000000005], [10.877216666666667, 54.89753333333333], [10.8586, 54.780433333333335], [10.91995, 54.67973333333334], [11.085566666666667, 54.615300000000005], [11.253866666666665, 54.55591666666667], [11.438266666666667, 54.50026666666667]]}, "properties": {"label": "DISCOVERY", "mmsi": "461000239", "imo": "9316127", "name": "DISCOVERY", "shiptype": "", "first_seen_utc": "2026-01-11T07:03:15Z", "last_seen_utc": "2026-01-14T03:44:54Z", "destination": "FOR ORDER", "eta": "{'Day': 17, 'Hour': 6, 'Minute': 0, 'Month': 1}", "display": "", "links": "<a href=\"https://www.vesselfinder.com/vessels?name=9316127\" target=\"_blank\" rel=\"noopener\">VesselFinder</a> | <a href=\"https://www.marinetraffic.com/en/ais/search/all?keyword=9316127\" target=\"_blank\" rel=\"noopener\">MarineTraffic</a>", "vf_url": "https://www.vesselfinder.com/vessels?name=9316127", "mst_url": "https://www.marinetraffic.com/en/ais/search/all?keyword=9316127", "method": "v3_2pass_track3d_fromru10d", "ru_seen_in_lookback": false, "in_monitor_on_day": true}}, {"type": "Feature", "geometry": {"type": "Point", "coordinates": [11.438266666666667, 54.50026666666667]}, "properties": {"label": "DISCOVERY", "mmsi": "461000239", "imo": "9316127", "name": "DISCOVERY", "shiptype": "", "first_seen_utc": "2026-01-11T07:03:15Z", "last_seen_utc": "2026-01-14T03:44:54Z", "destination": "FOR ORDER", "eta": "{'Day': 17, 'Hour': 6, 'Minute': 0, 'Month': 1}", "display": "DISCOVERY (461000239)", "links": "<a href=\"https://www.vesselfinder.com/vessels?name=9316127\" target=\"_blank\" rel=\"noopener\">VesselFinder</a> | <a href=\"https://www.marinetraffic.com/en/ais/search/all?keyword=9316127\" target=\"_blank\" rel=\"noopener\">MarineTraffic</a>", "vf_url": "https://www.vesselfinder.com/vessels?name=9316127", "mst_url": "https://www.marinetraffic.com/en/ais/search/all?keyword=9316127", "method": "v3_2pass_track3d_fromru10d", "ru_seen_in_lookback": false, "in_monitor_on_day": true}}, {"type": "Feature", "geometry": {"type": "LineString", "coordinates": [[-0.9637266666666666, 50.16714666666667], [-0.52567, 50.24598666666667], [-0.36088333333333333, 50.27465666666667], [-0.20134833333333332, 50.30256333333333], [-0.008705, 50.33349666666666], [1.2919550000000002, 50.677213333333334], [1.369875, 50.7653], [1.4210916666666666, 50.86652], [1.4999116666666665, 50.960613333333335], [1.6201316666666665, 51.04040666666666], [1.7423616666666668, 51.11635666666667], [1.8792900000000001, 51.171640000000004], [2.021395, 51.21722666666667], [2.110475, 51.290926666666664], [2.1675, 51.37999], [2.22357, 51.46540666666667], [2.4029833333333332, 51.61928], [2.483058333333333, 51.690690000000004], [2.556545, 51.76569666666667], [2.6007733333333336, 51.84841333333333], [2.62305, 51.95220666666667], [2.6492383333333334, 52.040486666666666], [2.6805433333333335, 52.13304], [3.1447783333333335, 52.699306666666665], [3.227411666666667, 52.78749333333334], [3.4426116666666666, 53.07769333333333], [3.7189833333333335, 53.452733333333335], [4.221293333333334, 53.71044], [7.458600000000001, 56.99244], [7.990716666666667, 57.224513333333334], [8.153321666666667, 57.283120000000004], [8.534495, 57.41943333333334], [8.871231666666667, 57.52724666666666]]}, "properties": {"label": "CETUS", "mmsi": "667002291", "imo": "9418482", "name": "CETUS", "shiptype": "", "first_seen_utc": "2026-01-12T00:41:55Z", "last_seen_utc": "2026-01-14T03:45:45Z", "destination": "SKAGEN FOR ORDER", "eta": "{'Day': 13, 'Hour': 18, 'Minute': 0, 'Month': 1}", "display": "", "links": "<a href=\"https://www.vesselfinder.com/vessels?name=9418482\" target=\"_blank\" rel=\"noopener\">VesselFinder</a> | <a href=\"https://www.marinetraffic.com/en/ais/search/all?keyword=9418482\" target=\"_blank\" rel=\"noopener\">MarineTraffic</a>", "vf_url": "https://www.vesselfinder.com/vessels?name=9418482", "mst_url": "https://www.marinetraffic.com/en/ais/search/all?keyword=9418482", "method": "v3_2pass_track3d_fromru10d", "ru_seen_in_lookback": false, "in_monitor_on_day": true}}, {"type": "Feature", "geometry": {"type": "Point", "coordinates": [8.871231666666667, 57.52724666666666]}, "properties": {"label": "CETUS", "mmsi": "667002291", "imo": "9418482", "name": "CETUS", "shiptype": "", "first_seen_utc": "2026-01-12T00:41:55Z", "last_seen_utc": "2026-01-14T03:45:45Z", "destination": "SKAGEN FOR ORDER", "eta": "{'Day': 13, 'Hour': 18, 'Minute': 0, 'Month': 1}", "display": "CETUS (667002291)", "links": "<a href=\"https://www.vesselfinder.com/vessels?name=9418482\" target=\"_blank\" rel=\"noopener\">VesselFinder</a> | <a href=\"https://www.marinetraffic.com/en/ais/search/all?keyword=9418482\" target=\"_blank\" rel=\"noopener\">MarineTraffic</a>", "vf_url": "https://www.vesselfinder.com/vessels?name=9418482", "mst_url": "https://www.marinetraffic.com/en/ais/search/all?keyword=9418482", "method": "v3_2pass_track3d_fromru10d", "ru_seen_in_lookback": false, "in_monitor_on_day": true}}, {"type": "Feature", "geometry": {"type": "LineString", "coordinates": [[-0.9214683333333333, 50.11673833333334], [-0.7352916666666667, 50.14408], [-0.5575466666666667, 50.182339999999996], [-0.37946833333333335, 50.221243333333334], [-0.206445, 50.25936333333333], [0.06759, 50.319401666666664], [1.3011083333333333, 50.66230333333333], [1.3839216666666667, 50.75425166666666], [1.4343533333333334, 50.86620166666667], [1.5245116666666665, 50.96839], [1.6316166666666667, 51.06599833333333], [1.7355966666666667, 51.15148666666666], [1.8484466666666668, 51.232265], [1.976175, 51.297165], [2.0933366666666666, 51.366994999999996], [2.183803333333333, 51.45240666666667], [2.3361216666666667, 51.56757], [2.4488933333333334, 51.65115], [2.552835, 51.737395], [2.6185899999999998, 51.83267333333333], [2.6576483333333334, 51.95216666666667], [3.55722, 53.21121333333333], [3.6625966666666665, 53.35663], [3.7380833333333334, 53.45610666666666], [3.94525, 53.58197500000001], [4.396626666666666, 53.79506666666667], [7.352543333333333, 56.982825000000005], [7.505598333333333, 57.062689999999996], [7.672081666666667, 57.13073833333333], [7.842785, 57.19546666666667], [8.018643333333333, 57.256965], [8.196023333333333, 57.31906333333333], [8.373728333333334, 57.379765], [8.78386, 57.50818], [8.972641666666668, 57.565913333333334]]}, "properties": {"label": "ODUNE", "mmsi": "667002337", "imo": "9229374", "name": "ODUNE", "shiptype": "", "first_seen_utc": "2026-01-12T04:51:51Z", "last_seen_utc": "2026-01-14T03:59:15Z", "destination": "GULF OF FINLAND", "eta": "{'Day': 17, 'Hour': 17, 'Minute': 0, 'Month': 1}", "display": "", "links": "<a href=\"https://www.vesselfinder.com/vessels?name=9229374\" target=\"_blank\" rel=\"noopener\">VesselFinder</a> | <a href=\"https://www.marinetraffic.com/en/ais/search/all?keyword=9229374\" target=\"_blank\" rel=\"noopener\">MarineTraffic</a>", "vf_url": "https://www.vesselfinder.com/vessels?name=9229374", "mst_url": "https://www.marinetraffic.com/en/ais/search/all?keyword=9229374", "method": "v3_2pass_track3d_fromru10d", "ru_seen_in_lookback": false, "in_monitor_on_day": true}}, {"type": "Feature", "geometry": {"type": "Point", "coordinates": [8.972641666666668, 57.565913333333334]}, "properties": {"label": "ODUNE", "mmsi": "667002337", "imo": "9229374", "name": "ODUNE", "shiptype": "", "first_seen_utc": "2026-01-12T04:51:51Z", "last_seen_utc": "2026-01-14T03:59:15Z", "destination": "GULF OF FINLAND", "eta": "{'Day': 17, 'Hour': 17, 'Minute': 0, 'Month': 1}", "display": "ODUNE (667002337)", "links": "<a href=\"https://www.vesselfinder.com/vessels?name=9229374\" target=\"_blank\" rel=\"noopener\">VesselFinder</a> | <a href=\"https://www.marinetraffic.com/en/ais/search/all?keyword=9229374\" target=\"_blank\" rel=\"noopener\">MarineTraffic</a>", "vf_url": "https://www.vesselfinder.com/vessels?name=9229374", "mst_url": "https://www.marinetraffic.com/en/ais/search/all?keyword=9229374", "method": "v3_2pass_track3d_fromru10d", "ru_seen_in_lookback": false, "in_monitor_on_day": true}}, {"type": "Feature", "geometry": {"type": "LineString", "coordinates": [[-0.974135, 50.12135333333333], [-0.790875, 50.14676833333333], [-0.642145, 50.172775], [-0.49308833333333335, 50.20046833333333], [-0.34030166666666667, 50.22906166666667], [-0.179245, 50.25951166666667], [-0.015121666666666667, 50.290911666666666], [0.14647500000000002, 50.32194333333334], [1.2615966666666667, 50.63415833333333], [1.3691133333333334, 50.72729666666667], [1.4249066666666665, 50.845018333333336], [1.4978416666666667, 50.95912], [1.6450833333333332, 51.03729], [1.7977716666666665, 51.117], [1.95848, 51.19177333333334], [2.115441666666667, 51.261026666666666], [2.1013883333333334, 51.37060833333333], [2.1726433333333333, 51.47408166666666], [2.3049749999999998, 51.567035000000004], [2.430365, 51.65764166666667], [2.5456783333333335, 51.751545], [2.6486050000000003, 51.853856666666665], [2.6723733333333333, 51.97011833333333], [2.8252866666666665, 52.320281666666666], [3.2647233333333334, 52.79225833333333], [3.3423683333333334, 52.904495], [3.403286666666667, 53.007595], [3.473675, 53.12462333333334], [3.5480033333333334, 53.22159333333333], [3.6202716666666666, 53.315508333333334], [3.70458, 53.41787166666666], [3.7911833333333336, 53.50880666666667], [3.933806666666667, 53.574315], [4.125615, 53.663025], [4.7408866666666665, 54.243446666666664], [7.2449699999999995, 56.91115166666667], [7.419855, 56.99627833333333], [7.57655, 57.08414666666667], [7.729493333333334, 57.17457], [7.869995, 57.25844], [8.006783333333333, 57.35113666666667], [8.115531666666666, 57.453493333333334], [8.28271, 57.51759833333333]]}, "properties": {"label": "GEFEST", "mmsi": "273272850", "imo": "9319882", "name": "GEFEST", "shiptype": "", "first_seen_utc": "2026-01-12T07:11:50Z", "last_seen_utc": "2026-01-14T03:38:12Z", "destination": "DK AUU", "eta": "{'Day': 15, 'Hour': 8, 'Minute': 0, 'Month': 1}", "display": "", "links": "<a href=\"https://www.vesselfinder.com/vessels?name=9319882\" target=\"_blank\" rel=\"noopener\">VesselFinder</a> | <a href=\"https://www.marinetraffic.com/en/ais/search/all?keyword=9319882\" target=\"_blank\" rel=\"noopener\">MarineTraffic</a>", "vf_url": "https://www.vesselfinder.com/vessels?name=9319882", "mst_url": "https://www.marinetraffic.com/en/ais/search/all?keyword=9319882", "method": "v3_2pass_track3d_fromru10d", "ru_seen_in_lookback": false, "in_monitor_on_day": true}}, {"type": "Feature", "geometry": {"type": "Point", "coordinates": [8.28271, 57.51759833333333]}, "properties": {"label": "GEFEST", "mmsi": "273272850", "imo": "9319882", "name": "GEFEST", "shiptype": "", "first_seen_utc": "2026-01-12T07:11:50Z", "last_seen_utc": "2026-01-14T03:38:12Z", "destination": "DK AUU", "eta": "{'Day': 15, 'Hour': 8, 'Minute': 0, 'Month': 1}", "display": "GEFEST (273272850)", "links": "<a href=\"https://www.vesselfinder.com/vessels?name=9319882\" target=\"_blank\" rel=\"noopener\">VesselFinder</a> | <a href=\"https://www.marinetraffic.com/en/ais/search/all?keyword=9319882\" target=\"_blank\" rel=\"noopener\">MarineTraffic</a>", "vf_url": "https://www.vesselfinder.com/vessels?name=9319882", "mst_url": "https://www.marinetraffic.com/en/ais/search/all?keyword=9319882", "method": "v3_2pass_track3d_fromru10d", "ru_seen_in_lookback": false, "in_monitor_on_day": true}}, {"type": "Feature", "geometry": {"type": "LineString", "coordinates": [[-0.22114333333333333, 50.2823], [1.3576216666666667, 50.707481666666666], [1.4203683333333332, 50.813113333333334], [1.5034133333333335, 50.95056666666667], [1.6178833333333331, 51.048705000000005], [1.729585, 51.14697833333333], [1.8452366666666669, 51.24546833333333], [1.9765666666666666, 51.326535], [2.1291716666666667, 51.42815666666667], [2.46933, 51.66982666666667], [2.60458, 51.761936666666664], [7.496575000000001, 57.16603], [7.546255, 57.260151666666665], [7.654991666666667, 57.332973333333335], [7.8194316666666674, 57.37437166666667], [7.979513333333333, 57.41427], [8.16032, 57.453023333333334], [8.324376666666668, 57.49407166666666]]}, "properties": {"label": "BERRA", "mmsi": "667001451", "imo": "9308821", "name": "BERRA", "shiptype": "", "first_seen_utc": "2026-01-12T08:21:51Z", "last_seen_utc": "2026-01-14T03:38:42Z", "destination": "GULF OF FINLAND", "eta": "{'Day': 16, 'Hour': 12, 'Minute': 0, 'Month': 1}", "display": "", "links": "<a href=\"https://www.vesselfinder.com/vessels?name=9308821\" target=\"_blank\" rel=\"noopener\">VesselFinder</a> | <a href=\"https://www.marinetraffic.com/en/ais/search/all?keyword=9308821\" target=\"_blank\" rel=\"noopener\">MarineTraffic</a>", "vf_url": "https://www.vesselfinder.com/vessels?name=9308821", "mst_url": "https://www.marinetraffic.com/en/ais/search/all?keyword=9308821", "method": "v3_2pass_track3d_fromru10d", "ru_seen_in_lookback": false, "in_monitor_on_day": true}}, {"type": "Feature", "geometry": {"type": "Point", "coordinates": [8.324376666666668, 57.49407166666666]}, "properties": {"label": "BERRA", "mmsi": "667001451", "imo": "9308821", "name": "BERRA", "shiptype": "", "first_seen_utc": "2026-01-12T08:21:51Z", "last_seen_utc": "2026-01-14T03:38:42Z", "destination": "GULF OF FINLAND", "eta": "{'Day': 16, 'Hour': 12, 'Minute': 0, 'Month': 1}", "display": "BERRA (667001451)", "links": "<a href=\"https://www.vesselfinder.com/vessels?name=9308821\" target=\"_blank\" rel=\"noopener\">VesselFinder</a> | <a href=\"https://www.marinetraffic.com/en/ais/search/all?keyword=9308821\" target=\"_blank\" rel=\"noopener\">MarineTraffic</a>", "vf_url": "https://www.vesselfinder.com/vessels?name=9308821", "mst_url": "https://www.marinetraffic.com/en/ais/search/all?keyword=9308821", "method": "v3_2pass_track3d_fromru10d", "ru_seen_in_lookback": false, "in_monitor_on_day": true}}, {"type": "Feature", "geometry": {"type": "LineString", "coordinates": [[-0.7309066666666666, 50.22735333333333], [-0.5237516666666667, 50.26329333333333], [-0.31437000000000004, 50.29264666666666], [-0.101825, 50.32372833333333], [0.18789666666666666, 50.373630000000006], [1.295655, 50.68334], [1.3961166666666667, 50.79951166666667], [1.4666283333333332, 50.93613166666667], [1.5919199999999998, 51.05462333333333], [1.7347350000000001, 51.162535000000005], [1.8720299999999999, 51.26688], [2.0073733333333332, 51.367515000000004], [2.4012366666666667, 51.64073333333333], [2.5594233333333336, 51.743538333333326], [2.6031199999999997, 51.88416666666667], [3.0118366666666665, 52.54380166666667], [3.0988949999999997, 52.64434333333334], [3.191656666666667, 52.743993333333336], [3.461768333333333, 53.099360000000004], [3.6503183333333333, 53.35942333333333], [7.252846666666667, 56.916311666666665], [7.378715, 57.02035], [7.505773333333334, 57.12418], [7.638636666666667, 57.229955000000004], [7.776831666666666, 57.33374666666667], [7.9294150000000005, 57.43235333333334]]}, "properties": {"label": "LISTIGA", "mmsi": "667002323", "imo": "9292838", "name": "LISTIGA", "shiptype": "", "first_seen_utc": "2026-01-12T13:34:28Z", "last_seen_utc": "2026-01-14T04:02:24Z", "destination": "GOF", "eta": "{'Day': 17, 'Hour': 8, 'Minute': 0, 'Month': 1}", "display": "", "links": "<a href=\"https://www.vesselfinder.com/vessels?name=9292838\" target=\"_blank\" rel=\"noopener\">VesselFinder</a> | <a href=\"https://www.marinetraffic.com/en/ais/search/all?keyword=9292838\" target=\"_blank\" rel=\"noopener\">MarineTraffic</a>", "vf_url": "https://www.vesselfinder.com/vessels?name=9292838", "mst_url": "https://www.marinetraffic.com/en/ais/search/all?keyword=9292838", "method": "v3_2pass_track3d_fromru10d", "ru_seen_in_lookback": false, "in_monitor_on_day": true}}, {"type": "Feature", "geometry": {"type": "Point", "coordinates": [7.9294150000000005, 57.43235333333334]}, "properties": {"label": "LISTIGA", "mmsi": "667002323", "imo": "9292838", "name": "LISTIGA", "shiptype": "", "first_seen_utc": "2026-01-12T13:34:28Z", "last_seen_utc": "2026-01-14T04:02:24Z", "destination": "GOF", "eta": "{'Day': 17, 'Hour': 8, 'Minute': 0, 'Month': 1}", "display": "LISTIGA (667002323)", "links": "<a href=\"https://www.vesselfinder.com/vessels?name=9292838\" target=\"_blank\" rel=\"noopener\">VesselFinder</a> | <a href=\"https://www.marinetraffic.com/en/ais/search/all?keyword=9292838\" target=\"_blank\" rel=\"noopener\">MarineTraffic</a>", "vf_url": "https://www.vesselfinder.com/vessels?name=9292838", "mst_url": "https://www.marinetraffic.com/en/ais/search/all?keyword=9292838", "method": "v3_2pass_track3d_fromru10d", "ru_seen_in_lookback": false, "in_monitor_on_day": true}}, {"type": "Feature", "geometry": {"type": "LineString", "coordinates": [[1.35596, 50.687758333333335], [1.4160433333333333, 50.80629], [1.5067683333333333, 50.948845], [1.6430433333333334, 51.04713166666667], [1.794735, 51.13301833333333], [1.968515, 51.19393], [2.127873333333333, 51.267745], [2.1232716666666667, 51.38370333333333], [2.4881433333333334, 51.702553333333334], [7.547056666666666, 57.09574333333333], [7.753561666666667, 57.165595], [8.142086666666666, 57.29936166666666], [8.363183333333334, 57.372393333333335], [8.563493333333334, 57.43904666666666], [8.812366666666666, 57.519016666666666], [9.00606, 57.58998666666666]]}, "properties": {"label": "MAYLO", "mmsi": "667001249", "imo": "9331153", "name": "MAYLO", "shiptype": "", "first_seen_utc": "2026-01-12T14:13:54Z", "last_seen_utc": "2026-01-14T03:17:38Z", "destination": "GULF OF FINLAND", "eta": "{'Day': 17, 'Hour': 19, 'Minute': 0, 'Month': 1}", "display": "", "links": "<a href=\"https://www.vesselfinder.com/vessels?name=9331153\" target=\"_blank\" rel=\"noopener\">VesselFinder</a> | <a href=\"https://www.marinetraffic.com/en/ais/search/all?keyword=9331153\" target=\"_blank\" rel=\"noopener\">MarineTraffic</a>", "vf_url": "https://www.vesselfinder.com/vessels?name=9331153", "mst_url": "https://www.marinetraffic.com/en/ais/search/all?keyword=9331153", "method": "v3_2pass_track3d_fromru10d", "ru_seen_in_lookback": false, "in_monitor_on_day": true}}, {"type": "Feature", "geometry": {"type": "Point", "coordinates": [9.00606, 57.58998666666666]}, "properties": {"label": "MAYLO", "mmsi": "667001249", "imo": "9331153", "name": "MAYLO", "shiptype": "", "first_seen_utc": "2026-01-12T14:13:54Z", "last_seen_utc": "2026-01-14T03:17:38Z", "destination": "GULF OF FINLAND", "eta": "{'Day': 17, 'Hour': 19, 'Minute': 0, 'Month': 1}", "display": "MAYLO (667001249)", "links": "<a href=\"https://www.vesselfinder.com/vessels?name=9331153\" target=\"_blank\" rel=\"noopener\">VesselFinder</a> | <a href=\"https://www.marinetraffic.com/en/ais/search/all?keyword=9331153\" target=\"_blank\" rel=\"noopener\">MarineTraffic</a>", "vf_url": "https://www.vesselfinder.com/vessels?name=9331153", "mst_url": "https://www.marinetraffic.com/en/ais/search/all?keyword=9331153", "method": "v3_2pass_track3d_fromru10d", "ru_seen_in_lookback": false, "in_monitor_on_day": true}}]}