{"type": "FeatureCollection", "features": [{"type": "Feature", "geometry": {"type": "LineString", "coordinates": [[14.793518333333333, 55.494836666666664], [14.627436666666666, 55.439418333333336], [14.487656666666668, 55.37657333333333], [14.372508333333334, 55.294628333333335], [14.148563333333334, 55.13907], [14.001505, 55.05748833333334], [13.168994999999999, 54.88243666666666], [12.854180000000001, 54.815023333333336], [12.600311666666666, 54.730583333333335], [12.418335, 54.65857666666667], [12.251746666666666, 54.57046833333333], [12.21016, 54.480111666666666], [12.077748333333334, 54.434958333333334], [11.895635, 54.43129666666667], [11.717448333333333, 54.44728166666666], [11.548855, 54.49282], [11.378919999999999, 54.5434], [11.204791666666667, 54.59675], [11.014423333333333, 54.602516666666666], [10.858509999999999, 54.650526666666664], [10.780695, 54.721790000000006], [10.832678333333332, 54.80867833333333], [10.845863333333334, 54.882173333333334], [10.903043333333333, 54.94852166666667], [10.996428333333334, 55.038221666666665], [10.994371666666666, 55.143080000000005], [11.098706666666667, 55.229108333333336], [10.828669999999999, 55.58109666666667], [10.794981666666667, 55.68931166666667]]}, "properties": {"label": "UNIVERSAL", "mmsi": "273271630", "imo": "9384306", "name": "UNIVERSAL", "shiptype": "", "first_seen_utc": "2026-01-12T00:25:58Z", "last_seen_utc": "2026-01-21T03:47:23Z", "destination": "MEDITERRANEAN FO", "eta": "{'Day': 3, 'Hour': 14, 'Minute': 0, 'Month': 2}", "display": "", "links": "<a href=\"https://www.vesselfinder.com/vessels?name=9384306\" target=\"_blank\" rel=\"noopener\">VesselFinder</a> | <a href=\"https://www.marinetraffic.com/en/ais/search/all?keyword=9384306\" target=\"_blank\" rel=\"noopener\">MarineTraffic</a>", "vf_url": "https://www.vesselfinder.com/vessels?name=9384306", "mst_url": "https://www.marinetraffic.com/en/ais/search/all?keyword=9384306", "method": "v3_2pass_track3d_fromru10d", "ru_seen_in_lookback": true, "in_monitor_on_day": true}}, {"type": "Feature", "geometry": {"type": "Point", "coordinates": [10.794981666666667, 55.68931166666667]}, "properties": {"label": "UNIVERSAL", "mmsi": "273271630", "imo": "9384306", "name": "UNIVERSAL", "shiptype": "", "first_seen_utc": "2026-01-12T00:25:58Z", "last_seen_utc": "2026-01-21T03:47:23Z", "destination": "MEDITERRANEAN FO", "eta": "{'Day': 3, 'Hour': 14, 'Minute': 0, 'Month': 2}", "display": "UNIVERSAL (273271630)", "links": "<a href=\"https://www.vesselfinder.com/vessels?name=9384306\" target=\"_blank\" rel=\"noopener\">VesselFinder</a> | <a href=\"https://www.marinetraffic.com/en/ais/search/all?keyword=9384306\" target=\"_blank\" rel=\"noopener\">MarineTraffic</a>", "vf_url": "https://www.vesselfinder.com/vessels?name=9384306", "mst_url": "https://www.marinetraffic.com/en/ais/search/all?keyword=9384306", "method": "v3_2pass_track3d_fromru10d", "ru_seen_in_lookback": true, "in_monitor_on_day": true}}, {"type": "Feature", "geometry": {"type": "LineString", "coordinates": [[10.48313, 57.85348666666666], [10.303321666666667, 57.85125], [10.001248333333333, 57.849511666666665], [9.780275, 57.84731333333333], [9.314003333333334, 57.732283333333335], [9.152843333333333, 57.679775], [9.002933333333335, 57.62383], [8.853583333333335, 57.56114], [8.696921666666666, 57.507079999999995], [7.854213333333333, 57.07076666666667]]}, "properties": {"label": "TRIUMF", "mmsi": "273277840", "imo": "9389095", "name": "TRIUMF", "shiptype": "", "first_seen_utc": "2026-01-14T07:36:12Z", "last_seen_utc": "2026-01-21T03:50:30Z", "destination": "SINGAPORE", "eta": "{'Day': 19, 'Hour': 12, 'Minute': 0, 'Month': 2}", "display": "", "links": "<a href=\"https://www.vesselfinder.com/vessels?name=9389095\" target=\"_blank\" rel=\"noopener\">VesselFinder</a> | <a href=\"https://www.marinetraffic.com/en/ais/search/all?keyword=9389095\" target=\"_blank\" rel=\"noopener\">MarineTraffic</a>", "vf_url": "https://www.vesselfinder.com/vessels?name=9389095", "mst_url": "https://www.marinetraffic.com/en/ais/search/all?keyword=9389095", "method": "v3_2pass_track3d_fromru10d", "ru_seen_in_lookback": true, "in_monitor_on_day": true}}, {"type": "Feature", "geometry": {"type": "Point", "coordinates": [7.854213333333333, 57.07076666666667]}, "properties": {"label": "TRIUMF", "mmsi": "273277840", "imo": "9389095", "name": "TRIUMF", "shiptype": "", "first_seen_utc": "2026-01-14T07:36:12Z", "last_seen_utc": "2026-01-21T03:50:30Z", "destination": "SINGAPORE", "eta": "{'Day': 19, 'Hour': 12, 'Minute': 0, 'Month': 2}", "display": "TRIUMF (273277840)", "links": "<a href=\"https://www.vesselfinder.com/vessels?name=9389095\" target=\"_blank\" rel=\"noopener\">VesselFinder</a> | <a href=\"https://www.marinetraffic.com/en/ais/search/all?keyword=9389095\" target=\"_blank\" rel=\"noopener\">MarineTraffic</a>", "vf_url": "https://www.vesselfinder.com/vessels?name=9389095", "mst_url": "https://www.marinetraffic.com/en/ais/search/all?keyword=9389095", "method": "v3_2pass_track3d_fromru10d", "ru_seen_in_lookback": true, "in_monitor_on_day": true}}, {"type": "Feature", "geometry": {"type": "LineString", "coordinates": [[10.49925, 57.859], [10.217899999999998, 57.85471666666667], [9.99335, 57.85291666666667], [9.789216666666666, 57.8491], [9.581616666666667, 57.843516666666666], [9.40965, 57.79323333333333], [9.230883333333333, 57.738733333333336], [9.050749999999999, 57.68351666666667], [8.880083333333333, 57.62381666666667], [8.684333333333333, 57.58763333333333], [8.492533333333334, 57.54853333333333], [8.302200000000001, 57.50938333333333], [8.107183333333333, 57.48513333333334], [7.902516666666667, 57.481366666666666], [7.698266666666667, 57.476800000000004], [7.486283333333334, 57.47311666666667], [7.274166666666667, 57.470666666666666], [7.0640833333333335, 57.465900000000005], [6.8528, 57.45806666666667], [6.646633333333333, 57.453966666666666], [6.467733333333333, 57.50983333333333], [6.29535, 57.577083333333334], [6.128166666666667, 57.64458333333334], [5.958683333333334, 57.706716666666665], [5.790416666666667, 57.773583333333335], [5.620033333333334, 57.83695], [5.452716666666666, 57.899499999999996], [5.2969, 57.972049999999996], [5.123033333333334, 58.03255], [4.949533333333333, 58.09435]]}, "properties": {"label": "SUN", "mmsi": "550750132", "imo": "9293117", "name": "SUN", "shiptype": "", "first_seen_utc": "2026-01-15T12:10:32Z", "last_seen_utc": "2026-01-21T03:24:52Z", "destination": "EG PSD", "eta": "{'Day': 3, 'Hour': 5, 'Minute': 0, 'Month': 2}", "display": "", "links": "<a href=\"https://www.vesselfinder.com/vessels?name=9293117\" target=\"_blank\" rel=\"noopener\">VesselFinder</a> | <a href=\"https://www.marinetraffic.com/en/ais/search/all?keyword=9293117\" target=\"_blank\" rel=\"noopener\">MarineTraffic</a>", "vf_url": "https://www.vesselfinder.com/vessels?name=9293117", "mst_url": "https://www.marinetraffic.com/en/ais/search/all?keyword=9293117", "method": "v3_2pass_track3d_fromru10d", "ru_seen_in_lookback": true, "in_monitor_on_day": true}}, {"type": "Feature", "geometry": {"type": "Point", "coordinates": [4.949533333333333, 58.09435]}, "properties": {"label": "SUN", "mmsi": "550750132", "imo": "9293117", "name": "SUN", "shiptype": "", "first_seen_utc": "2026-01-15T12:10:32Z", "last_seen_utc": "2026-01-21T03:24:52Z", "destination": "EG PSD", "eta": "{'Day': 3, 'Hour': 5, 'Minute': 0, 'Month': 2}", "display": "SUN (550750132)", "links": "<a href=\"https://www.vesselfinder.com/vessels?name=9293117\" target=\"_blank\" rel=\"noopener\">VesselFinder</a> | <a href=\"https://www.marinetraffic.com/en/ais/search/all?keyword=9293117\" target=\"_blank\" rel=\"noopener\">MarineTraffic</a>", "vf_url": "https://www.vesselfinder.com/vessels?name=9293117", "mst_url": "https://www.marinetraffic.com/en/ais/search/all?keyword=9293117", "method": "v3_2pass_track3d_fromru10d", "ru_seen_in_lookback": true, "in_monitor_on_day": true}}, {"type": "Feature", "geometry": {"type": "LineString", "coordinates": [[10.498431666666667, 57.882468333333335], [10.319838333333333, 57.875276666666664], [10.193995, 57.86278333333333], [10.072186666666665, 57.84827], [9.952656666666666, 57.8406], [9.83803, 57.83575333333333], [9.721798333333334, 57.828046666666665], [9.616451666666668, 57.81359166666667], [9.517401666666666, 57.78642166666667], [9.393698333333333, 57.75004833333333], [9.295418333333334, 57.72087], [9.193355, 57.69198166666667], [9.077116666666665, 57.65954333333333], [8.974151666666668, 57.6292], [8.79076, 57.57503], [8.679483333333334, 57.54074333333333], [8.574641666666668, 57.50913], [8.447483333333333, 57.47635666666667], [8.339566666666666, 57.44864333333333], [8.183681666666667, 57.39972], [8.073506666666667, 57.36738666666667], [7.965793333333334, 57.33593666666666], [7.855928333333334, 57.30380666666667], [7.740318333333334, 57.270745000000005], [7.6236516666666665, 57.23578]]}, "properties": {"label": "NILANGA", "mmsi": "667001290", "imo": "9412452", "name": "NILANGA", "shiptype": "", "first_seen_utc": "2026-01-15T15:09:00Z", "last_seen_utc": "2026-01-21T03:30:31Z", "destination": "EG PSD", "eta": "{'Day': 2, 'Hour': 18, 'Minute': 0, 'Month': 2}", "display": "", "links": "<a href=\"https://www.vesselfinder.com/vessels?name=9412452\" target=\"_blank\" rel=\"noopener\">VesselFinder</a> | <a href=\"https://www.marinetraffic.com/en/ais/search/all?keyword=9412452\" target=\"_blank\" rel=\"noopener\">MarineTraffic</a>", "vf_url": "https://www.vesselfinder.com/vessels?name=9412452", "mst_url": "https://www.marinetraffic.com/en/ais/search/all?keyword=9412452", "method": "v3_2pass_track3d_fromru10d", "ru_seen_in_lookback": true, "in_monitor_on_day": true}}, {"type": "Feature", "geometry": {"type": "Point", "coordinates": [7.6236516666666665, 57.23578]}, "properties": {"label": "NILANGA", "mmsi": "667001290", "imo": "9412452", "name": "NILANGA", "shiptype": "", "first_seen_utc": "2026-01-15T15:09:00Z", "last_seen_utc": "2026-01-21T03:30:31Z", "destination": "EG PSD", "eta": "{'Day': 2, 'Hour': 18, 'Minute': 0, 'Month': 2}", "display": "NILANGA (667001290)", "links": "<a href=\"https://www.vesselfinder.com/vessels?name=9412452\" target=\"_blank\" rel=\"noopener\">VesselFinder</a> | <a href=\"https://www.marinetraffic.com/en/ais/search/all?keyword=9412452\" target=\"_blank\" rel=\"noopener\">MarineTraffic</a>", "vf_url": "https://www.vesselfinder.com/vessels?name=9412452", "mst_url": "https://www.marinetraffic.com/en/ais/search/all?keyword=9412452", "method": "v3_2pass_track3d_fromru10d", "ru_seen_in_lookback": true, "in_monitor_on_day": true}}, {"type": "Feature", "geometry": {"type": "LineString", "coordinates": [[16.682656666666666, 55.84171666666667], [16.336313333333333, 55.78501333333334]]}, "properties": {"label": "STARLIT", "mmsi": "667002071", "imo": "9257022", "name": "STARLIT", "shiptype": "", "first_seen_utc": "2026-01-16T13:00:39Z", "last_seen_utc": "2026-01-21T03:25:12Z", "destination": "SINGAPORE", "eta": "{'Day': 22, 'Hour': 12, 'Minute': 0, 'Month': 2}", "display": "", "links": "<a href=\"https://www.vesselfinder.com/vessels?name=9257022\" target=\"_blank\" rel=\"noopener\">VesselFinder</a> | <a href=\"https://www.marinetraffic.com/en/ais/search/all?keyword=9257022\" target=\"_blank\" rel=\"noopener\">MarineTraffic</a>", "vf_url": "https://www.vesselfinder.com/vessels?name=9257022", "mst_url": "https://www.marinetraffic.com/en/ais/search/all?keyword=9257022", "method": "v3_2pass_track3d_fromru10d", "ru_seen_in_lookback": true, "in_monitor_on_day": true}}, {"type": "Feature", "geometry": {"type": "Point", "coordinates": [16.336313333333333, 55.78501333333334]}, "properties": {"label": "STARLIT", "mmsi": "667002071", "imo": "9257022", "name": "STARLIT", "shiptype": "", "first_seen_utc": "2026-01-16T13:00:39Z", "last_seen_utc": "2026-01-21T03:25:12Z", "destination": "SINGAPORE", "eta": "{'Day': 22, 'Hour': 12, 'Minute': 0, 'Month': 2}", "display": "STARLIT (667002071)", "links": "<a href=\"https://www.vesselfinder.com/vessels?name=9257022\" target=\"_blank\" rel=\"noopener\">VesselFinder</a> | <a href=\"https://www.marinetraffic.com/en/ais/search/all?keyword=9257022\" target=\"_blank\" rel=\"noopener\">MarineTraffic</a>", "vf_url": "https://www.vesselfinder.com/vessels?name=9257022", "mst_url": "https://www.marinetraffic.com/en/ais/search/all?keyword=9257022", "method": "v3_2pass_track3d_fromru10d", "ru_seen_in_lookback": true, "in_monitor_on_day": true}}, {"type": "Feature", "geometry": {"type": "LineString", "coordinates": [[-0.9257283333333334, 50.17361166666667], [-0.7042750000000001, 50.21514166666667], [-0.54213, 50.23638666666667], [-0.351265, 50.26409666666667], [-0.20237166666666667, 50.28904333333333], [0.00014833333333333332, 50.320568333333334], [1.4459283333333335, 50.86675666666667], [1.5013116666666666, 50.95466], [1.5877616666666665, 51.029215], [1.6731166666666666, 51.10410666666667], [1.7693733333333335, 51.181358333333336], [1.8868516666666666, 51.25628166666667], [1.9904633333333335, 51.344125], [2.1135800000000002, 51.42452166666667], [2.275106666666667, 51.535918333333335], [2.43871, 51.645113333333335], [2.5838883333333333, 51.742216666666664], [2.62371, 51.86230666666667], [2.653356666666667, 51.993066666666664]]}, "properties": {"label": "MATARI", "mmsi": "667001281", "imo": "9253313", "name": "MATARI", "shiptype": "", "first_seen_utc": "2026-01-20T11:29:00Z", "last_seen_utc": "2026-01-21T02:57:22Z", "destination": "GOF FOR ORDER", "eta": "{'Day': 26, 'Hour': 12, 'Minute': 0, 'Month': 1}", "display": "", "links": "<a href=\"https://www.vesselfinder.com/vessels?name=9253313\" target=\"_blank\" rel=\"noopener\">VesselFinder</a> | <a href=\"https://www.marinetraffic.com/en/ais/search/all?keyword=9253313\" target=\"_blank\" rel=\"noopener\">MarineTraffic</a>", "vf_url": "https://www.vesselfinder.com/vessels?name=9253313", "mst_url": "https://www.marinetraffic.com/en/ais/search/all?keyword=9253313", "method": "v3_2pass_track3d_fromru10d", "ru_seen_in_lookback": false, "in_monitor_on_day": true}}, {"type": "Feature", "geometry": {"type": "Point", "coordinates": [2.653356666666667, 51.993066666666664]}, "properties": {"label": "MATARI", "mmsi": "667001281", "imo": "9253313", "name": "MATARI", "shiptype": "", "first_seen_utc": "2026-01-20T11:29:00Z", "last_seen_utc": "2026-01-21T02:57:22Z", "destination": "GOF FOR ORDER", "eta": "{'Day': 26, 'Hour': 12, 'Minute': 0, 'Month': 1}", "display": "MATARI (667001281)", "links": "<a href=\"https://www.vesselfinder.com/vessels?name=9253313\" target=\"_blank\" rel=\"noopener\">VesselFinder</a> | <a href=\"https://www.marinetraffic.com/en/ais/search/all?keyword=9253313\" target=\"_blank\" rel=\"noopener\">MarineTraffic</a>", "vf_url": "https://www.vesselfinder.com/vessels?name=9253313", "mst_url": "https://www.marinetraffic.com/en/ais/search/all?keyword=9253313", "method": "v3_2pass_track3d_fromru10d", "ru_seen_in_lookback": false, "in_monitor_on_day": true}}, {"type": "Feature", "geometry": {"type": "LineString", "coordinates": [[1.4972999999999999, 61.998349999999995], [1.6350333333333333, 61.943416666666664], [1.7784833333333334, 61.884766666666664], [1.9179666666666668, 61.82468333333334], [2.0473333333333334, 61.772466666666666], [2.1952833333333337, 61.71498333333333], [2.349283333333333, 61.64951666666666], [2.4929, 61.58285], [2.6351166666666668, 61.51765], [2.716066666666667, 61.432066666666664], [2.7921166666666664, 61.34053333333333], [2.8590500000000003, 61.24653333333333], [2.92415, 61.15506666666667], [2.9890666666666665, 61.064933333333336], [3.0567166666666665, 60.97186666666666], [3.1132166666666667, 60.880833333333335], [3.1872666666666665, 60.79158333333333], [3.2706833333333334, 60.708200000000005], [3.315366666666667, 60.621116666666666], [3.3356833333333333, 60.52486666666667], [3.378333333333333, 60.42843333333334], [3.4316, 60.327416666666664], [3.4915666666666665, 60.22338333333333], [3.5389666666666666, 60.123083333333334], [3.59355, 60.025416666666665], [3.61495, 59.92348333333334]]}, "properties": {"label": "PEACE", "mmsi": "550750123", "imo": "9249130", "name": "PEACE", "shiptype": "", "first_seen_utc": "2026-01-20T14:30:30Z", "last_seen_utc": "2026-01-21T03:28:58Z", "destination": "FOR ORDERS", "eta": "{'Day': 25, 'Hour': 8, 'Minute': 0, 'Month': 1}", "display": "", "links": "<a href=\"https://www.vesselfinder.com/vessels?name=9249130\" target=\"_blank\" rel=\"noopener\">VesselFinder</a> | <a href=\"https://www.marinetraffic.com/en/ais/search/all?keyword=9249130\" target=\"_blank\" rel=\"noopener\">MarineTraffic</a>", "vf_url": "https://www.vesselfinder.com/vessels?name=9249130", "mst_url": "https://www.marinetraffic.com/en/ais/search/all?keyword=9249130", "method": "v3_2pass_track3d_fromru10d", "ru_seen_in_lookback": false, "in_monitor_on_day": true}}, {"type": "Feature", "geometry": {"type": "Point", "coordinates": [3.61495, 59.92348333333334]}, "properties": {"label": "PEACE", "mmsi": "550750123", "imo": "9249130", "name": "PEACE", "shiptype": "", "first_seen_utc": "2026-01-20T14:30:30Z", "last_seen_utc": "2026-01-21T03:28:58Z", "destination": "FOR ORDERS", "eta": "{'Day': 25, 'Hour': 8, 'Minute': 0, 'Month': 1}", "display": "PEACE (550750123)", "links": "<a href=\"https://www.vesselfinder.com/vessels?name=9249130\" target=\"_blank\" rel=\"noopener\">VesselFinder</a> | <a href=\"https://www.marinetraffic.com/en/ais/search/all?keyword=9249130\" target=\"_blank\" rel=\"noopener\">MarineTraffic</a>", "vf_url": "https://www.vesselfinder.com/vessels?name=9249130", "mst_url": "https://www.marinetraffic.com/en/ais/search/all?keyword=9249130", "method": "v3_2pass_track3d_fromru10d", "ru_seen_in_lookback": false, "in_monitor_on_day": true}}, {"type": "Feature", "geometry": {"type": "LineString", "coordinates": [[6.913733333333334, 56.09054166666667], [7.1000250000000005, 56.20789833333333], [7.239338333333333, 56.29700666666667], [7.383431666666667, 56.48891166666667], [7.523305, 56.67259], [7.674668333333333, 56.879095], [7.843509999999999, 56.99699666666667], [7.969055, 57.077565], [8.092346666666666, 57.16573666666667], [8.185298333333334, 57.2548], [8.34435, 57.33363], [8.618456666666667, 57.43717], [8.79765, 57.499289999999995], [8.96257, 57.557565], [9.12832, 57.61599833333333], [9.289486666666667, 57.67168166666667], [9.46216, 57.70896666666667], [9.625608333333334, 57.76018], [9.809848333333333, 57.79103166666666], [10.005474999999999, 57.797135000000004], [10.197101666666667, 57.801024999999996]]}, "properties": {"label": "URSUS ARCTOS", "mmsi": "636022405", "imo": "9297369", "name": "URSUS ARCTOS", "shiptype": "", "first_seen_utc": "2026-01-20T14:53:19Z", "last_seen_utc": "2026-01-21T03:31:22Z", "destination": "EGPSD-DKSKA", "eta": "{'Day': 21, 'Hour': 5, 'Minute': 0, 'Month': 1}", "display": "", "links": "<a href=\"https://www.vesselfinder.com/vessels?name=9297369\" target=\"_blank\" rel=\"noopener\">VesselFinder</a> | <a href=\"https://www.marinetraffic.com/en/ais/search/all?keyword=9297369\" target=\"_blank\" rel=\"noopener\">MarineTraffic</a>", "vf_url": "https://www.vesselfinder.com/vessels?name=9297369", "mst_url": "https://www.marinetraffic.com/en/ais/search/all?keyword=9297369", "method": "v3_2pass_track3d_fromru10d", "ru_seen_in_lookback": false, "in_monitor_on_day": true}}, {"type": "Feature", "geometry": {"type": "Point", "coordinates": [10.197101666666667, 57.801024999999996]}, "properties": {"label": "URSUS ARCTOS", "mmsi": "636022405", "imo": "9297369", "name": "URSUS ARCTOS", "shiptype": "", "first_seen_utc": "2026-01-20T14:53:19Z", "last_seen_utc": "2026-01-21T03:31:22Z", "destination": "EGPSD-DKSKA", "eta": "{'Day': 21, 'Hour': 5, 'Minute': 0, 'Month': 1}", "display": "URSUS ARCTOS (636022405)", "links": "<a href=\"https://www.vesselfinder.com/vessels?name=9297369\" target=\"_blank\" rel=\"noopener\">VesselFinder</a> | <a href=\"https://www.marinetraffic.com/en/ais/search/all?keyword=9297369\" target=\"_blank\" rel=\"noopener\">MarineTraffic</a>", "vf_url": "https://www.vesselfinder.com/vessels?name=9297369", "mst_url": "https://www.marinetraffic.com/en/ais/search/all?keyword=9297369", "method": "v3_2pass_track3d_fromru10d", "ru_seen_in_lookback": false, "in_monitor_on_day": true}}, {"type": "Feature", "geometry": {"type": "LineString", "coordinates": [[6.538033333333333, 56.25566666666667], [6.644923333333334, 56.35200666666666], [6.728798333333333, 56.45913666666667], [6.828176666666667, 56.564843333333336], [7.050223333333333, 56.78201], [7.194486666666666, 56.88366166666666], [7.2740100000000005, 56.985141666666664], [7.370876666666666, 57.096201666666666], [7.479823333333333, 57.189435], [7.636871666666667, 57.251866666666665], [7.795491666666666, 57.31095833333333], [7.9530183333333335, 57.37027666666667], [8.106686666666667, 57.42744666666667], [8.264698333333333, 57.48627333333333], [8.419005, 57.543975], [8.573155000000002, 57.60164333333333], [8.739873333333332, 57.65043], [8.91827, 57.67876833333333], [9.094618333333333, 57.70831]]}, "properties": {"label": "MONTE 1", "mmsi": "613661400", "imo": "9297553", "name": "MONTE 1", "shiptype": "", "first_seen_utc": "2026-01-20T17:38:44Z", "last_seen_utc": "2026-01-21T03:50:13Z", "destination": "SKAW", "eta": "{'Day': 21, 'Hour': 20, 'Minute': 0, 'Month': 1}", "display": "", "links": "<a href=\"https://www.vesselfinder.com/vessels?name=9297553\" target=\"_blank\" rel=\"noopener\">VesselFinder</a> | <a href=\"https://www.marinetraffic.com/en/ais/search/all?keyword=9297553\" target=\"_blank\" rel=\"noopener\">MarineTraffic</a>", "vf_url": "https://www.vesselfinder.com/vessels?name=9297553", "mst_url": "https://www.marinetraffic.com/en/ais/search/all?keyword=9297553", "method": "v3_2pass_track3d_fromru10d", "ru_seen_in_lookback": false, "in_monitor_on_day": true}}, {"type": "Feature", "geometry": {"type": "Point", "coordinates": [9.094618333333333, 57.70831]}, "properties": {"label": "MONTE 1", "mmsi": "613661400", "imo": "9297553", "name": "MONTE 1", "shiptype": "", "first_seen_utc": "2026-01-20T17:38:44Z", "last_seen_utc": "2026-01-21T03:50:13Z", "destination": "SKAW", "eta": "{'Day': 21, 'Hour': 20, 'Minute': 0, 'Month': 1}", "display": "MONTE 1 (613661400)", "links": "<a href=\"https://www.vesselfinder.com/vessels?name=9297553\" target=\"_blank\" rel=\"noopener\">VesselFinder</a> | <a href=\"https://www.marinetraffic.com/en/ais/search/all?keyword=9297553\" target=\"_blank\" rel=\"noopener\">MarineTraffic</a>", "vf_url": "https://www.vesselfinder.com/vessels?name=9297553", "mst_url": "https://www.marinetraffic.com/en/ais/search/all?keyword=9297553", "method": "v3_2pass_track3d_fromru10d", "ru_seen_in_lookback": false, "in_monitor_on_day": true}}]}