{"type": "FeatureCollection", "features": [{"type": "Feature", "geometry": {"type": "LineString", "coordinates": [[12.688053333333333, 55.32029166666667], [12.695575, 55.41457333333334], [12.701513333333333, 55.59368166666666], [12.689156666666666, 55.701350000000005], [12.721578333333333, 55.807633333333335], [12.745049999999999, 55.90575], [12.684945, 56.00521166666667], [12.586343333333334, 56.09473666666667], [12.442368333333333, 56.184738333333335]]}, "properties": {"label": "ASCALON", "mmsi": "273219650", "imo": "", "name": "ASCALON", "shiptype": "", "first_seen_utc": "2025-12-30T07:18:29Z", "last_seen_utc": "2026-01-08T06:19:19Z", "destination": "TO ORDER", "eta": "{'Day': 11, 'Hour': 11, 'Minute': 11, 'Month': 11}", "display": "", "links": "<a href=\"https://www.vesselfinder.com/vessels?name=273219650\" target=\"_blank\" rel=\"noopener\">VesselFinder</a> | <a href=\"https://www.marinetraffic.com/en/ais/search/all?keyword=273219650\" target=\"_blank\" rel=\"noopener\">MarineTraffic</a>", "vf_url": "https://www.vesselfinder.com/vessels?name=273219650", "mst_url": "https://www.marinetraffic.com/en/ais/search/all?keyword=273219650", "method": "v3_2pass_track3d_fromru10d", "ru_seen_in_lookback": false, "in_monitor_on_day": true}}, {"type": "Feature", "geometry": {"type": "Point", "coordinates": [12.442368333333333, 56.184738333333335]}, "properties": {"label": "ASCALON", "mmsi": "273219650", "imo": "", "name": "ASCALON", "shiptype": "", "first_seen_utc": "2025-12-30T07:18:29Z", "last_seen_utc": "2026-01-08T06:19:19Z", "destination": "TO ORDER", "eta": "{'Day': 11, 'Hour': 11, 'Minute': 11, 'Month': 11}", "display": "ASCALON (273219650)", "links": "<a href=\"https://www.vesselfinder.com/vessels?name=273219650\" target=\"_blank\" rel=\"noopener\">VesselFinder</a> | <a href=\"https://www.marinetraffic.com/en/ais/search/all?keyword=273219650\" target=\"_blank\" rel=\"noopener\">MarineTraffic</a>", "vf_url": "https://www.vesselfinder.com/vessels?name=273219650", "mst_url": "https://www.marinetraffic.com/en/ais/search/all?keyword=273219650", "method": "v3_2pass_track3d_fromru10d", "ru_seen_in_lookback": false, "in_monitor_on_day": true}}, {"type": "Feature", "geometry": {"type": "LineString", "coordinates": [[28.409531666666666, 59.67651333333333], [28.409531666666666, 59.67657], [28.40955166666667, 59.67659833333333], [28.397241666666666, 59.70519], [28.303798333333337, 59.70834333333333], [28.433609999999998, 59.734519999999996], [18.954675, 55.203430000000004], [19.015161666666664, 55.10485666666667], [19.10131833333333, 55.01482], [19.221175000000002, 54.901563333333335], [19.37748, 54.813901666666666], [19.946888333333334, 54.83123], [20.070255, 54.875461666666666], [19.903641666666665, 54.43392333333334], [19.683955, 54.70704666666666], [20.024401666666666, 54.904981666666664]]}, "properties": {"label": "MARSHAL ROKOSSOVSKY", "mmsi": "273214860", "imo": "9872341", "name": "MARSHAL ROKOSSOVSKY", "shiptype": "", "first_seen_utc": "2026-01-04T07:20:46Z", "last_seen_utc": "2026-01-08T05:37:12Z", "destination": "RU ULU=RU KGD=RU ULU", "eta": "{'Day': 8, 'Hour': 3, 'Minute': 0, 'Month': 1}", "display": "", "links": "<a href=\"https://www.vesselfinder.com/vessels?name=9872341\" target=\"_blank\" rel=\"noopener\">VesselFinder</a> | <a href=\"https://www.marinetraffic.com/en/ais/search/all?keyword=9872341\" target=\"_blank\" rel=\"noopener\">MarineTraffic</a>", "vf_url": "https://www.vesselfinder.com/vessels?name=9872341", "mst_url": "https://www.marinetraffic.com/en/ais/search/all?keyword=9872341", "method": "v3_2pass_track3d_fromru10d", "ru_seen_in_lookback": true, "in_monitor_on_day": true}}, {"type": "Feature", "geometry": {"type": "Point", "coordinates": [20.024401666666666, 54.904981666666664]}, "properties": {"label": "MARSHAL ROKOSSOVSKY", "mmsi": "273214860", "imo": "9872341", "name": "MARSHAL ROKOSSOVSKY", "shiptype": "", "first_seen_utc": "2026-01-04T07:20:46Z", "last_seen_utc": "2026-01-08T05:37:12Z", "destination": "RU ULU=RU KGD=RU ULU", "eta": "{'Day': 8, 'Hour': 3, 'Minute': 0, 'Month': 1}", "display": "MARSHAL ROKOSSOVSKY (273214860)", "links": "<a href=\"https://www.vesselfinder.com/vessels?name=9872341\" target=\"_blank\" rel=\"noopener\">VesselFinder</a> | <a href=\"https://www.marinetraffic.com/en/ais/search/all?keyword=9872341\" target=\"_blank\" rel=\"noopener\">MarineTraffic</a>", "vf_url": "https://www.vesselfinder.com/vessels?name=9872341", "mst_url": "https://www.marinetraffic.com/en/ais/search/all?keyword=9872341", "method": "v3_2pass_track3d_fromru10d", "ru_seen_in_lookback": true, "in_monitor_on_day": true}}, {"type": "Feature", "geometry": {"type": "LineString", "coordinates": [[9.309956666666666, 57.496224999999995], [9.42122, 57.53611333333333], [9.536098333333333, 57.576751666666674], [9.659951666666666, 57.61778666666667], [9.815941666666667, 57.66934666666667], [9.968358333333333, 57.69773166666666], [10.095706666666667, 57.72456666666667], [10.231266666666667, 57.74839833333333], [10.436905, 57.783635], [12.353119999999999, 56.19969833333334], [12.451216666666665, 56.14703333333333], [12.540731666666666, 56.105955], [12.61308, 56.069224999999996], [12.660428333333334, 56.01956666666667], [12.660273333333333, 55.95364], [12.650376666666666, 55.889289999999995], [12.67, 55.824960000000004], [12.680801666666667, 55.76212833333333], [12.680843333333334, 55.69381333333333], [12.694451666666668, 55.62656333333334], [12.705023333333333, 55.560673333333334], [12.679515, 55.491843333333335], [12.643171666666666, 55.419985], [12.627146666666667, 55.346525], [12.660015, 55.28935833333333], [12.786488333333333, 55.26070166666667], [13.000105, 55.23730166666667], [14.380318333333333, 55.22125166666667], [14.494511666666666, 55.288265], [14.60313, 55.354328333333335], [14.837218333333334, 55.444131666666664], [14.984335, 55.489855], [15.187918333333332, 55.554625]]}, "properties": {"label": "LADY MARIIA", "mmsi": "273292160", "imo": "9220641", "name": "LADY MARIIA", "shiptype": "", "first_seen_utc": "2026-01-04T10:50:30Z", "last_seen_utc": "2026-01-08T13:36:38Z", "destination": "TO ORDER", "eta": "{'Day': 0, 'Hour': 24, 'Minute': 60, 'Month': 0}", "display": "", "links": "<a href=\"https://www.vesselfinder.com/vessels?name=9220641\" target=\"_blank\" rel=\"noopener\">VesselFinder</a> | <a href=\"https://www.marinetraffic.com/en/ais/search/all?keyword=9220641\" target=\"_blank\" rel=\"noopener\">MarineTraffic</a>", "vf_url": "https://www.vesselfinder.com/vessels?name=9220641", "mst_url": "https://www.marinetraffic.com/en/ais/search/all?keyword=9220641", "method": "v3_2pass_track3d_fromru10d", "ru_seen_in_lookback": false, "in_monitor_on_day": true}}, {"type": "Feature", "geometry": {"type": "Point", "coordinates": [15.187918333333332, 55.554625]}, "properties": {"label": "LADY MARIIA", "mmsi": "273292160", "imo": "9220641", "name": "LADY MARIIA", "shiptype": "", "first_seen_utc": "2026-01-04T10:50:30Z", "last_seen_utc": "2026-01-08T13:36:38Z", "destination": "TO ORDER", "eta": "{'Day': 0, 'Hour': 24, 'Minute': 60, 'Month': 0}", "display": "LADY MARIIA (273292160)", "links": "<a href=\"https://www.vesselfinder.com/vessels?name=9220641\" target=\"_blank\" rel=\"noopener\">VesselFinder</a> | <a href=\"https://www.marinetraffic.com/en/ais/search/all?keyword=9220641\" target=\"_blank\" rel=\"noopener\">MarineTraffic</a>", "vf_url": "https://www.vesselfinder.com/vessels?name=9220641", "mst_url": "https://www.marinetraffic.com/en/ais/search/all?keyword=9220641", "method": "v3_2pass_track3d_fromru10d", "ru_seen_in_lookback": false, "in_monitor_on_day": true}}, {"type": "Feature", "geometry": {"type": "LineString", "coordinates": [[8.32846, 57.33565], [8.518675, 57.40772166666667], [8.874106666666668, 57.533051666666665], [8.998748333333333, 57.578208333333336], [9.118661666666666, 57.622175], [9.408886666666666, 57.707526666666666], [9.611208333333334, 57.789588333333334], [9.813186666666667, 57.799591666666664], [9.957311666666667, 57.80193166666666], [10.108131666666667, 57.804055], [10.263483333333333, 57.805746666666664], [11.129131666666666, 56.094658333333335], [11.06651, 56.026375], [10.992531666666668, 55.94865333333333], [10.896708333333333, 55.89213666666667], [10.810733333333333, 55.831030000000005], [10.803376666666667, 55.75928666666667], [10.783501666666666, 55.683545], [11.030251666666667, 55.359341666666666], [11.050756666666667, 55.28626833333333], [11.099476666666668, 55.21335666666666], [11.044028333333333, 55.14616], [11.033161666666667, 55.071241666666666], [11.014246666666667, 54.99712666666667], [10.929051666666668, 54.937538333333336], [10.876571666666667, 54.87300333333334], [10.864793333333333, 54.800375], [10.870306666666666, 54.72385]]}, "properties": {"label": "KAPITAN DANILKIN", "mmsi": "273131200", "imo": "8406729", "name": "KAPITAN DANILKIN", "shiptype": "", "first_seen_utc": "2026-01-04T21:09:03Z", "last_seen_utc": "2026-01-08T15:36:22Z", "destination": "FOR ORDER", "eta": "{'Day': 0, 'Hour': 12, 'Minute': 0, 'Month': 0}", "display": "", "links": "<a href=\"https://www.vesselfinder.com/vessels?name=8406729\" target=\"_blank\" rel=\"noopener\">VesselFinder</a> | <a href=\"https://www.marinetraffic.com/en/ais/search/all?keyword=8406729\" target=\"_blank\" rel=\"noopener\">MarineTraffic</a>", "vf_url": "https://www.vesselfinder.com/vessels?name=8406729", "mst_url": "https://www.marinetraffic.com/en/ais/search/all?keyword=8406729", "method": "v3_2pass_track3d_fromru10d", "ru_seen_in_lookback": false, "in_monitor_on_day": true}}, {"type": "Feature", "geometry": {"type": "Point", "coordinates": [10.870306666666666, 54.72385]}, "properties": {"label": "KAPITAN DANILKIN", "mmsi": "273131200", "imo": "8406729", "name": "KAPITAN DANILKIN", "shiptype": "", "first_seen_utc": "2026-01-04T21:09:03Z", "last_seen_utc": "2026-01-08T15:36:22Z", "destination": "FOR ORDER", "eta": "{'Day': 0, 'Hour': 12, 'Minute': 0, 'Month': 0}", "display": "KAPITAN DANILKIN (273131200)", "links": "<a href=\"https://www.vesselfinder.com/vessels?name=8406729\" target=\"_blank\" rel=\"noopener\">VesselFinder</a> | <a href=\"https://www.marinetraffic.com/en/ais/search/all?keyword=8406729\" target=\"_blank\" rel=\"noopener\">MarineTraffic</a>", "vf_url": "https://www.vesselfinder.com/vessels?name=8406729", "mst_url": "https://www.marinetraffic.com/en/ais/search/all?keyword=8406729", "method": "v3_2pass_track3d_fromru10d", "ru_seen_in_lookback": false, "in_monitor_on_day": true}}, {"type": "Feature", "geometry": {"type": "LineString", "coordinates": [[19.953636666666668, 54.79855666666666], [19.955541666666665, 54.79862666666667], [19.95341, 54.833155000000005], [19.95995, 54.82316]]}, "properties": {"label": "BALTIYSK", "mmsi": "273317640", "imo": "8318130", "name": "BALTIYSK", "shiptype": "", "first_seen_utc": "2026-01-05T14:40:12Z", "last_seen_utc": "2026-01-08T01:55:07Z", "destination": "RUULU<=>KGD<=>RUULU", "eta": "{'Day': 9, 'Hour': 15, 'Minute': 0, 'Month': 1}", "display": "", "links": "<a href=\"https://www.vesselfinder.com/vessels?name=8318130\" target=\"_blank\" rel=\"noopener\">VesselFinder</a> | <a href=\"https://www.marinetraffic.com/en/ais/search/all?keyword=8318130\" target=\"_blank\" rel=\"noopener\">MarineTraffic</a>", "vf_url": "https://www.vesselfinder.com/vessels?name=8318130", "mst_url": "https://www.marinetraffic.com/en/ais/search/all?keyword=8318130", "method": "v3_2pass_track3d_fromru10d", "ru_seen_in_lookback": true, "in_monitor_on_day": true}}, {"type": "Feature", "geometry": {"type": "Point", "coordinates": [19.95995, 54.82316]}, "properties": {"label": "BALTIYSK", "mmsi": "273317640", "imo": "8318130", "name": "BALTIYSK", "shiptype": "", "first_seen_utc": "2026-01-05T14:40:12Z", "last_seen_utc": "2026-01-08T01:55:07Z", "destination": "RUULU<=>KGD<=>RUULU", "eta": "{'Day': 9, 'Hour': 15, 'Minute': 0, 'Month': 1}", "display": "BALTIYSK (273317640)", "links": "<a href=\"https://www.vesselfinder.com/vessels?name=8318130\" target=\"_blank\" rel=\"noopener\">VesselFinder</a> | <a href=\"https://www.marinetraffic.com/en/ais/search/all?keyword=8318130\" target=\"_blank\" rel=\"noopener\">MarineTraffic</a>", "vf_url": "https://www.vesselfinder.com/vessels?name=8318130", "mst_url": "https://www.marinetraffic.com/en/ais/search/all?keyword=8318130", "method": "v3_2pass_track3d_fromru10d", "ru_seen_in_lookback": true, "in_monitor_on_day": true}}, {"type": "Feature", "geometry": {"type": "LineString", "coordinates": [[1.2608716666666666, 50.648705], [1.393055, 50.71857833333333], [1.42309, 50.82274833333334], [1.4804016666666666, 50.925125], [1.5870199999999999, 51.00958333333333], [1.71973, 51.07521], [1.84703, 51.13887], [1.9838133333333334, 51.19123666666667], [2.098996666666667, 51.254958333333335], [2.150205, 51.346601666666665], [2.19923, 51.43711833333334], [2.476, 51.681898333333336], [2.5836266666666665, 51.77782166666667], [7.161666666666666, 56.970078333333326], [7.443121666666667, 57.07036666666667], [7.60782, 57.120149999999995], [7.804353333333333, 57.18283833333333], [8.20468, 57.29819], [8.564601666666666, 57.416270000000004], [8.85306, 57.52169833333333], [9.168895, 57.631385], [9.368445000000001, 57.696515], [9.635283333333332, 57.788855], [9.851130000000001, 57.79703333333334], [10.06176, 57.80325666666667], [10.305956666666667, 57.810015], [10.981475, 55.945555], [10.855756666666668, 55.86359], [10.79976, 55.77066166666667], [10.772393333333333, 55.64427166666667]]}, "properties": {"label": "PLUTON", "mmsi": "273271850", "imo": "9288746", "name": "PLUTON", "shiptype": "", "first_seen_utc": "2026-01-05T23:04:47Z", "last_seen_utc": "2026-01-08T14:29:32Z", "destination": "BALTICSEA FOR ORDERS", "eta": "{'Day': 11, 'Hour': 6, 'Minute': 0, 'Month': 1}", "display": "", "links": "<a href=\"https://www.vesselfinder.com/vessels?name=9288746\" target=\"_blank\" rel=\"noopener\">VesselFinder</a> | <a href=\"https://www.marinetraffic.com/en/ais/search/all?keyword=9288746\" target=\"_blank\" rel=\"noopener\">MarineTraffic</a>", "vf_url": "https://www.vesselfinder.com/vessels?name=9288746", "mst_url": "https://www.marinetraffic.com/en/ais/search/all?keyword=9288746", "method": "v3_2pass_track3d_fromru10d", "ru_seen_in_lookback": false, "in_monitor_on_day": true}}, {"type": "Feature", "geometry": {"type": "Point", "coordinates": [10.772393333333333, 55.64427166666667]}, "properties": {"label": "PLUTON", "mmsi": "273271850", "imo": "9288746", "name": "PLUTON", "shiptype": "", "first_seen_utc": "2026-01-05T23:04:47Z", "last_seen_utc": "2026-01-08T14:29:32Z", "destination": "BALTICSEA FOR ORDERS", "eta": "{'Day': 11, 'Hour': 6, 'Minute': 0, 'Month': 1}", "display": "PLUTON (273271850)", "links": "<a href=\"https://www.vesselfinder.com/vessels?name=9288746\" target=\"_blank\" rel=\"noopener\">VesselFinder</a> | <a href=\"https://www.marinetraffic.com/en/ais/search/all?keyword=9288746\" target=\"_blank\" rel=\"noopener\">MarineTraffic</a>", "vf_url": "https://www.vesselfinder.com/vessels?name=9288746", "mst_url": "https://www.marinetraffic.com/en/ais/search/all?keyword=9288746", "method": "v3_2pass_track3d_fromru10d", "ru_seen_in_lookback": false, "in_monitor_on_day": true}}, {"type": "Feature", "geometry": {"type": "LineString", "coordinates": [[28.774596666666664, 60.325215], [28.759695, 60.313356666666664], [28.764743333333335, 60.322210000000005], [28.77578, 60.31422], [28.759265000000003, 60.32102666666666], [28.772448333333333, 60.322285], [15.417845, 55.668928333333334], [13.143351666666666, 55.25762666666667], [13.023958333333333, 55.26123], [12.871121666666665, 55.26841666666667], [12.751489999999999, 55.29310833333333], [12.671993333333335, 55.33576166666667], [12.690845, 55.408765], [12.715651666666668, 55.48187666666667], [12.784085000000001, 55.54594833333333], [12.86489, 55.599810000000005], [12.951386666666668, 55.63809666666667], [12.905051666666667, 55.69466833333333], [12.841463333333333, 55.754378333333335]]}, "properties": {"label": "ANASTASIIA", "mmsi": "273298160", "imo": "9349291", "name": "ANASTASIIA", "shiptype": "", "first_seen_utc": "2026-01-06T00:13:56Z", "last_seen_utc": "2026-01-08T15:31:45Z", "destination": "TO ORDER", "eta": "{'Day': 0, 'Hour': 24, 'Minute': 60, 'Month': 0}", "display": "", "links": "<a href=\"https://www.vesselfinder.com/vessels?name=9349291\" target=\"_blank\" rel=\"noopener\">VesselFinder</a> | <a href=\"https://www.marinetraffic.com/en/ais/search/all?keyword=9349291\" target=\"_blank\" rel=\"noopener\">MarineTraffic</a>", "vf_url": "https://www.vesselfinder.com/vessels?name=9349291", "mst_url": "https://www.marinetraffic.com/en/ais/search/all?keyword=9349291", "method": "v3_2pass_track3d_fromru10d", "ru_seen_in_lookback": true, "in_monitor_on_day": true}}, {"type": "Feature", "geometry": {"type": "Point", "coordinates": [12.841463333333333, 55.754378333333335]}, "properties": {"label": "ANASTASIIA", "mmsi": "273298160", "imo": "9349291", "name": "ANASTASIIA", "shiptype": "", "first_seen_utc": "2026-01-06T00:13:56Z", "last_seen_utc": "2026-01-08T15:31:45Z", "destination": "TO ORDER", "eta": "{'Day': 0, 'Hour': 24, 'Minute': 60, 'Month': 0}", "display": "ANASTASIIA (273298160)", "links": "<a href=\"https://www.vesselfinder.com/vessels?name=9349291\" target=\"_blank\" rel=\"noopener\">VesselFinder</a> | <a href=\"https://www.marinetraffic.com/en/ais/search/all?keyword=9349291\" target=\"_blank\" rel=\"noopener\">MarineTraffic</a>", "vf_url": "https://www.vesselfinder.com/vessels?name=9349291", "mst_url": "https://www.marinetraffic.com/en/ais/search/all?keyword=9349291", "method": "v3_2pass_track3d_fromru10d", "ru_seen_in_lookback": true, "in_monitor_on_day": true}}, {"type": "Feature", "geometry": {"type": "LineString", "coordinates": [[19.51474, 54.739869999999996], [19.511498333333336, 54.67194833333333], [19.978963333333336, 54.82292833333334]]}, "properties": {"label": "MARLIN", "mmsi": "273355510", "imo": "", "name": "MARLIN", "shiptype": "", "first_seen_utc": "2026-01-06T07:48:31Z", "last_seen_utc": "2026-01-08T00:24:17Z", "destination": "BALTIC SEA", "eta": "{'Day': 12, 'Hour': 23, 'Minute': 0, 'Month': 4}", "display": "", "links": "<a href=\"https://www.vesselfinder.com/vessels?name=273355510\" target=\"_blank\" rel=\"noopener\">VesselFinder</a> | <a href=\"https://www.marinetraffic.com/en/ais/search/all?keyword=273355510\" target=\"_blank\" rel=\"noopener\">MarineTraffic</a>", "vf_url": "https://www.vesselfinder.com/vessels?name=273355510", "mst_url": "https://www.marinetraffic.com/en/ais/search/all?keyword=273355510", "method": "v3_2pass_track3d_fromru10d", "ru_seen_in_lookback": true, "in_monitor_on_day": true}}, {"type": "Feature", "geometry": {"type": "Point", "coordinates": [19.978963333333336, 54.82292833333334]}, "properties": {"label": "MARLIN", "mmsi": "273355510", "imo": "", "name": "MARLIN", "shiptype": "", "first_seen_utc": "2026-01-06T07:48:31Z", "last_seen_utc": "2026-01-08T00:24:17Z", "destination": "BALTIC SEA", "eta": "{'Day': 12, 'Hour': 23, 'Minute': 0, 'Month': 4}", "display": "MARLIN (273355510)", "links": "<a href=\"https://www.vesselfinder.com/vessels?name=273355510\" target=\"_blank\" rel=\"noopener\">VesselFinder</a> | <a href=\"https://www.marinetraffic.com/en/ais/search/all?keyword=273355510\" target=\"_blank\" rel=\"noopener\">MarineTraffic</a>", "vf_url": "https://www.vesselfinder.com/vessels?name=273355510", "mst_url": "https://www.marinetraffic.com/en/ais/search/all?keyword=273355510", "method": "v3_2pass_track3d_fromru10d", "ru_seen_in_lookback": true, "in_monitor_on_day": true}}, {"type": "Feature", "geometry": {"type": "LineString", "coordinates": [[19.56964333333333, 54.758313333333334], [19.54467833333333, 54.70964333333333], [19.54630166666667, 54.68308666666667], [19.520925, 54.69829333333333], [19.467406666666665, 54.921974999999996]]}, "properties": {"label": "273445340", "mmsi": "273445340", "imo": "", "name": "", "shiptype": "", "first_seen_utc": "2026-01-06T07:49:13Z", "last_seen_utc": "2026-01-08T03:55:14Z", "destination": "", "eta": "", "display": "", "links": "<a href=\"https://www.vesselfinder.com/vessels?name=273445340\" target=\"_blank\" rel=\"noopener\">VesselFinder</a> | <a href=\"https://www.marinetraffic.com/en/ais/search/all?keyword=273445340\" target=\"_blank\" rel=\"noopener\">MarineTraffic</a>", "vf_url": "https://www.vesselfinder.com/vessels?name=273445340", "mst_url": "https://www.marinetraffic.com/en/ais/search/all?keyword=273445340", "method": "v3_2pass_track3d_fromru10d", "ru_seen_in_lookback": true, "in_monitor_on_day": true}}, {"type": "Feature", "geometry": {"type": "Point", "coordinates": [19.467406666666665, 54.921974999999996]}, "properties": {"label": "273445340", "mmsi": "273445340", "imo": "", "name": "", "shiptype": "", "first_seen_utc": "2026-01-06T07:49:13Z", "last_seen_utc": "2026-01-08T03:55:14Z", "destination": "", "eta": "", "display": "273445340 (273445340)", "links": "<a href=\"https://www.vesselfinder.com/vessels?name=273445340\" target=\"_blank\" rel=\"noopener\">VesselFinder</a> | <a href=\"https://www.marinetraffic.com/en/ais/search/all?keyword=273445340\" target=\"_blank\" rel=\"noopener\">MarineTraffic</a>", "vf_url": "https://www.vesselfinder.com/vessels?name=273445340", "mst_url": "https://www.marinetraffic.com/en/ais/search/all?keyword=273445340", "method": "v3_2pass_track3d_fromru10d", "ru_seen_in_lookback": true, "in_monitor_on_day": true}}, {"type": "Feature", "geometry": {"type": "LineString", "coordinates": [[19.452841666666664, 54.63293], [19.423643333333334, 54.61725], [19.441108333333332, 54.60805166666667], [19.176401666666667, 54.902615]]}, "properties": {"label": "MRTK-1118", "mmsi": "273248400", "imo": "8722202", "name": "MRTK-1118", "shiptype": "", "first_seen_utc": "2026-01-06T09:51:27Z", "last_seen_utc": "2026-01-08T03:21:46Z", "destination": "KALININGRAD", "eta": "{'Day': 10, 'Hour': 22, 'Minute': 0, 'Month': 3}", "display": "", "links": "<a href=\"https://www.vesselfinder.com/vessels?name=8722202\" target=\"_blank\" rel=\"noopener\">VesselFinder</a> | <a href=\"https://www.marinetraffic.com/en/ais/search/all?keyword=8722202\" target=\"_blank\" rel=\"noopener\">MarineTraffic</a>", "vf_url": "https://www.vesselfinder.com/vessels?name=8722202", "mst_url": "https://www.marinetraffic.com/en/ais/search/all?keyword=8722202", "method": "v3_2pass_track3d_fromru10d", "ru_seen_in_lookback": true, "in_monitor_on_day": true}}, {"type": "Feature", "geometry": {"type": "Point", "coordinates": [19.176401666666667, 54.902615]}, "properties": {"label": "MRTK-1118", "mmsi": "273248400", "imo": "8722202", "name": "MRTK-1118", "shiptype": "", "first_seen_utc": "2026-01-06T09:51:27Z", "last_seen_utc": "2026-01-08T03:21:46Z", "destination": "KALININGRAD", "eta": "{'Day': 10, 'Hour': 22, 'Minute': 0, 'Month': 3}", "display": "MRTK-1118 (273248400)", "links": "<a href=\"https://www.vesselfinder.com/vessels?name=8722202\" target=\"_blank\" rel=\"noopener\">VesselFinder</a> | <a href=\"https://www.marinetraffic.com/en/ais/search/all?keyword=8722202\" target=\"_blank\" rel=\"noopener\">MarineTraffic</a>", "vf_url": "https://www.vesselfinder.com/vessels?name=8722202", "mst_url": "https://www.marinetraffic.com/en/ais/search/all?keyword=8722202", "method": "v3_2pass_track3d_fromru10d", "ru_seen_in_lookback": true, "in_monitor_on_day": true}}, {"type": "Feature", "geometry": {"type": "LineString", "coordinates": [[15.167863333333335, 55.484500000000004], [14.910673333333333, 55.480378333333334], [14.451763333333334, 55.32810333333334], [13.309571666666667, 55.246203333333334], [13.062891666666667, 55.254389999999994], [12.858046666666667, 55.26368], [12.685043333333335, 55.30263], [12.69191, 55.405811666666665], [12.704771666666666, 55.518015], [12.696336666666667, 55.630559999999996], [12.696176666666666, 55.74851666666667], [12.731, 55.86020333333333], [12.705363333333334, 55.97174166666667], [12.619026666666667, 56.07861833333333], [12.452210000000001, 56.162643333333335], [9.690721666666667, 57.831291666666665], [9.481304999999999, 57.824335], [9.284515, 57.81620833333333], [9.084413333333334, 57.812443333333334], [8.885351666666667, 57.80415333333334], [8.687983333333333, 57.790591666666664], [8.490223333333335, 57.77894], [8.285148333333334, 57.77216833333333], [8.074325, 57.763165], [7.870156666666667, 57.753193333333336], [7.651883333333333, 57.747058333333335], [7.426813333333333, 57.744415000000004], [7.207776666666667, 57.745585], [6.99801, 57.75273833333333], [6.80162, 57.78595166666666], [6.603001666666667, 57.82221666666667], [6.416293333333333, 57.87488666666666], [6.253469999999999, 57.95067166666667], [6.0905016666666665, 58.026741666666666], [5.929293333333334, 58.103831666666665], [5.76915, 58.17630666666666], [5.60468, 58.25242166666667], [5.4345783333333335, 58.32704833333333], [5.270151666666666, 58.400945], [5.15353, 58.493476666666666], [5.051536666666666, 58.58746], [4.942616666666667, 58.67552833333333], [4.8351733333333335, 58.761465], [4.731921666666667, 58.849630000000005], [4.631833333333334, 58.94076666666667], [4.523438333333333, 59.033694999999994], [4.42406, 59.125845], [4.351401666666666, 59.22519833333333], [4.33658, 59.334471666666666], [4.316323333333333, 59.445703333333334], [4.297858333333334, 59.55861], [4.280398333333333, 59.67104500000001], [4.260761666666666, 59.766396666666665], [4.244606666666667, 59.87043166666667], [4.228761666666666, 59.97397333333333], [4.211026666666666, 60.08257666666667], [4.194213333333334, 60.186746666666664], [4.174603333333334, 60.29297999999999], [4.153648333333333, 60.40023], [4.135618333333333, 60.506933333333336], [4.112091666666667, 60.61664], [4.096895, 60.723780000000005], [4.077431666666667, 60.833455], [4.06588, 60.94240833333333], [4.048761666666667, 61.050466666666665], [4.044296666666667, 61.15867], [4.055876666666666, 61.26714666666667]]}, "properties": {"label": "KEM", "mmsi": "273439910", "imo": "8413370", "name": "KEM", "shiptype": "", "first_seen_utc": "2026-01-06T14:37:56Z", "last_seen_utc": "2026-01-08T15:51:25Z", "destination": "MURMANSK", "eta": "{'Day': 0, 'Hour': 24, 'Minute': 60, 'Month': 0}", "display": "", "links": "<a href=\"https://www.vesselfinder.com/vessels?name=8413370\" target=\"_blank\" rel=\"noopener\">VesselFinder</a> | <a href=\"https://www.marinetraffic.com/en/ais/search/all?keyword=8413370\" target=\"_blank\" rel=\"noopener\">MarineTraffic</a>", "vf_url": "https://www.vesselfinder.com/vessels?name=8413370", "mst_url": "https://www.marinetraffic.com/en/ais/search/all?keyword=8413370", "method": "v3_2pass_track3d_fromru10d", "ru_seen_in_lookback": false, "in_monitor_on_day": true}}, {"type": "Feature", "geometry": {"type": "Point", "coordinates": [4.055876666666666, 61.26714666666667]}, "properties": {"label": "KEM", "mmsi": "273439910", "imo": "8413370", "name": "KEM", "shiptype": "", "first_seen_utc": "2026-01-06T14:37:56Z", "last_seen_utc": "2026-01-08T15:51:25Z", "destination": "MURMANSK", "eta": "{'Day': 0, 'Hour': 24, 'Minute': 60, 'Month': 0}", "display": "KEM (273439910)", "links": "<a href=\"https://www.vesselfinder.com/vessels?name=8413370\" target=\"_blank\" rel=\"noopener\">VesselFinder</a> | <a href=\"https://www.marinetraffic.com/en/ais/search/all?keyword=8413370\" target=\"_blank\" rel=\"noopener\">MarineTraffic</a>", "vf_url": "https://www.vesselfinder.com/vessels?name=8413370", "mst_url": "https://www.marinetraffic.com/en/ais/search/all?keyword=8413370", "method": "v3_2pass_track3d_fromru10d", "ru_seen_in_lookback": false, "in_monitor_on_day": true}}, {"type": "Feature", "geometry": {"type": "LineString", "coordinates": [[19.29892166666667, 54.822298333333336], [20.039976666666668, 54.88145333333333], [19.678481666666666, 54.70289666666667], [20.04036166666667, 54.88348], [19.974186666666665, 54.838393333333336], [19.899163333333334, 54.433985], [19.676538333333333, 54.70272833333333], [20.045918333333336, 54.872265], [20.071305, 54.87896666666666], [19.896465, 54.43405666666667], [19.955785, 54.798561666666664]]}, "properties": {"label": "FESCO NOVIK", "mmsi": "273329660", "imo": "9296987", "name": "FESCO NOVIK", "shiptype": "", "first_seen_utc": "2026-01-07T07:28:31Z", "last_seen_utc": "2026-01-08T06:32:22Z", "destination": "RU LED-RU BLT", "eta": "{'Day': 7, 'Hour': 11, 'Minute': 0, 'Month': 1}", "display": "", "links": "<a href=\"https://www.vesselfinder.com/vessels?name=9296987\" target=\"_blank\" rel=\"noopener\">VesselFinder</a> | <a href=\"https://www.marinetraffic.com/en/ais/search/all?keyword=9296987\" target=\"_blank\" rel=\"noopener\">MarineTraffic</a>", "vf_url": "https://www.vesselfinder.com/vessels?name=9296987", "mst_url": "https://www.marinetraffic.com/en/ais/search/all?keyword=9296987", "method": "v3_2pass_track3d_fromru10d", "ru_seen_in_lookback": true, "in_monitor_on_day": true}}, {"type": "Feature", "geometry": {"type": "Point", "coordinates": [19.955785, 54.798561666666664]}, "properties": {"label": "FESCO NOVIK", "mmsi": "273329660", "imo": "9296987", "name": "FESCO NOVIK", "shiptype": "", "first_seen_utc": "2026-01-07T07:28:31Z", "last_seen_utc": "2026-01-08T06:32:22Z", "destination": "RU LED-RU BLT", "eta": "{'Day': 7, 'Hour': 11, 'Minute': 0, 'Month': 1}", "display": "FESCO NOVIK (273329660)", "links": "<a href=\"https://www.vesselfinder.com/vessels?name=9296987\" target=\"_blank\" rel=\"noopener\">VesselFinder</a> | <a href=\"https://www.marinetraffic.com/en/ais/search/all?keyword=9296987\" target=\"_blank\" rel=\"noopener\">MarineTraffic</a>", "vf_url": "https://www.vesselfinder.com/vessels?name=9296987", "mst_url": "https://www.marinetraffic.com/en/ais/search/all?keyword=9296987", "method": "v3_2pass_track3d_fromru10d", "ru_seen_in_lookback": true, "in_monitor_on_day": true}}, {"type": "Feature", "geometry": {"type": "LineString", "coordinates": [[19.659745, 54.75167333333333], [19.392148333333335, 54.83904]]}, "properties": {"label": "273454540", "mmsi": "273454540", "imo": "", "name": "", "shiptype": "", "first_seen_utc": "2026-01-08T04:20:06Z", "last_seen_utc": "2026-01-08T05:29:40Z", "destination": "", "eta": "", "display": "", "links": "<a href=\"https://www.vesselfinder.com/vessels?name=273454540\" target=\"_blank\" rel=\"noopener\">VesselFinder</a> | <a href=\"https://www.marinetraffic.com/en/ais/search/all?keyword=273454540\" target=\"_blank\" rel=\"noopener\">MarineTraffic</a>", "vf_url": "https://www.vesselfinder.com/vessels?name=273454540", "mst_url": "https://www.marinetraffic.com/en/ais/search/all?keyword=273454540", "method": "v3_2pass_track3d_fromru10d", "ru_seen_in_lookback": true, "in_monitor_on_day": true}}, {"type": "Feature", "geometry": {"type": "Point", "coordinates": [19.392148333333335, 54.83904]}, "properties": {"label": "273454540", "mmsi": "273454540", "imo": "", "name": "", "shiptype": "", "first_seen_utc": "2026-01-08T04:20:06Z", "last_seen_utc": "2026-01-08T05:29:40Z", "destination": "", "eta": "", "display": "273454540 (273454540)", "links": "<a href=\"https://www.vesselfinder.com/vessels?name=273454540\" target=\"_blank\" rel=\"noopener\">VesselFinder</a> | <a href=\"https://www.marinetraffic.com/en/ais/search/all?keyword=273454540\" target=\"_blank\" rel=\"noopener\">MarineTraffic</a>", "vf_url": "https://www.vesselfinder.com/vessels?name=273454540", "mst_url": "https://www.marinetraffic.com/en/ais/search/all?keyword=273454540", "method": "v3_2pass_track3d_fromru10d", "ru_seen_in_lookback": true, "in_monitor_on_day": true}}, {"type": "Feature", "geometry": {"type": "LineString", "coordinates": [[19.21792333333333, 54.963004999999995], [19.320133333333334, 54.782075], [19.393103333333332, 54.77951666666667]]}, "properties": {"label": "273343170", "mmsi": "273343170", "imo": "", "name": "", "shiptype": "", "first_seen_utc": "2026-01-08T09:46:40Z", "last_seen_utc": "2026-01-08T11:23:50Z", "destination": "", "eta": "", "display": "", "links": "<a href=\"https://www.vesselfinder.com/vessels?name=273343170\" target=\"_blank\" rel=\"noopener\">VesselFinder</a> | <a href=\"https://www.marinetraffic.com/en/ais/search/all?keyword=273343170\" target=\"_blank\" rel=\"noopener\">MarineTraffic</a>", "vf_url": "https://www.vesselfinder.com/vessels?name=273343170", "mst_url": "https://www.marinetraffic.com/en/ais/search/all?keyword=273343170", "method": "v3_2pass_track3d_fromru10d", "ru_seen_in_lookback": true, "in_monitor_on_day": true}}, {"type": "Feature", "geometry": {"type": "Point", "coordinates": [19.393103333333332, 54.77951666666667]}, "properties": {"label": "273343170", "mmsi": "273343170", "imo": "", "name": "", "shiptype": "", "first_seen_utc": "2026-01-08T09:46:40Z", "last_seen_utc": "2026-01-08T11:23:50Z", "destination": "", "eta": "", "display": "273343170 (273343170)", "links": "<a href=\"https://www.vesselfinder.com/vessels?name=273343170\" target=\"_blank\" rel=\"noopener\">VesselFinder</a> | <a href=\"https://www.marinetraffic.com/en/ais/search/all?keyword=273343170\" target=\"_blank\" rel=\"noopener\">MarineTraffic</a>", "vf_url": "https://www.vesselfinder.com/vessels?name=273343170", "mst_url": "https://www.marinetraffic.com/en/ais/search/all?keyword=273343170", "method": "v3_2pass_track3d_fromru10d", "ru_seen_in_lookback": true, "in_monitor_on_day": true}}]}