{"type": "FeatureCollection", "features": [{"type": "Feature", "geometry": {"type": "LineString", "coordinates": [[15.276818333333333, 55.619479999999996], [15.100906666666667, 55.58986166666667], [14.935105, 55.549185], [14.768241666666666, 55.50406666666667], [14.609246666666667, 55.451895], [14.487488333333333, 55.367875000000005], [14.372853333333333, 55.28731666666667], [14.256998333333334, 55.206745], [14.141258333333333, 55.12014666666666], [14.008963333333332, 55.05387333333333]]}, "properties": {"label": "PRIMORYE", "mmsi": "273210220", "imo": "9236743", "name": "PRIMORYE", "shiptype": "", "first_seen_utc": "2026-01-07T11:31:17Z", "last_seen_utc": "2026-01-16T01:37:40Z", "destination": "FOR ORDER", "eta": "{'Day': 0, 'Hour': 24, 'Minute': 60, 'Month': 0}", "display": "", "links": "<a href=\"https://www.vesselfinder.com/vessels?name=9236743\" target=\"_blank\" rel=\"noopener\">VesselFinder</a> | <a href=\"https://www.marinetraffic.com/en/ais/search/all?keyword=9236743\" target=\"_blank\" rel=\"noopener\">MarineTraffic</a>", "vf_url": "https://www.vesselfinder.com/vessels?name=9236743", "mst_url": "https://www.marinetraffic.com/en/ais/search/all?keyword=9236743", "method": "v3_2pass_track3d_fromru10d", "ru_seen_in_lookback": true, "in_monitor_on_day": true}}, {"type": "Feature", "geometry": {"type": "Point", "coordinates": [14.008963333333332, 55.05387333333333]}, "properties": {"label": "PRIMORYE", "mmsi": "273210220", "imo": "9236743", "name": "PRIMORYE", "shiptype": "", "first_seen_utc": "2026-01-07T11:31:17Z", "last_seen_utc": "2026-01-16T01:37:40Z", "destination": "FOR ORDER", "eta": "{'Day': 0, 'Hour': 24, 'Minute': 60, 'Month': 0}", "display": "PRIMORYE (273210220)", "links": "<a href=\"https://www.vesselfinder.com/vessels?name=9236743\" target=\"_blank\" rel=\"noopener\">VesselFinder</a> | <a href=\"https://www.marinetraffic.com/en/ais/search/all?keyword=9236743\" target=\"_blank\" rel=\"noopener\">MarineTraffic</a>", "vf_url": "https://www.vesselfinder.com/vessels?name=9236743", "mst_url": "https://www.marinetraffic.com/en/ais/search/all?keyword=9236743", "method": "v3_2pass_track3d_fromru10d", "ru_seen_in_lookback": true, "in_monitor_on_day": true}}, {"type": "Feature", "geometry": {"type": "LineString", "coordinates": [[16.736666666666668, 55.83611666666666], [16.36795, 55.782583333333335], [15.380116666666668, 55.64233333333333], [15.218033333333333, 55.613483333333335], [15.065966666666666, 55.57465], [14.913316666666667, 55.5363], [14.7605, 55.49166666666667], [14.6078, 55.442800000000005], [14.500683333333335, 55.37173333333333], [14.397583333333333, 55.29638333333333], [14.296333333333333, 55.22248333333334], [14.186083333333332, 55.14501666666667], [14.080216666666667, 55.07131666666667], [13.916233333333334, 55.034666666666666], [13.755083333333333, 55.001], [13.5646, 54.964416666666665], [13.4121, 54.93301666666667]]}, "properties": {"label": "ASTRAL", "mmsi": "667001270", "imo": "9274800", "name": "ASTRAL", "shiptype": "", "first_seen_utc": "2026-01-07T11:41:46Z", "last_seen_utc": "2026-01-16T02:10:30Z", "destination": "EGPSD", "eta": "{'Day': 30, 'Hour': 8, 'Minute': 0, 'Month': 1}", "display": "", "links": "<a href=\"https://www.vesselfinder.com/vessels?name=9274800\" target=\"_blank\" rel=\"noopener\">VesselFinder</a> | <a href=\"https://www.marinetraffic.com/en/ais/search/all?keyword=9274800\" target=\"_blank\" rel=\"noopener\">MarineTraffic</a>", "vf_url": "https://www.vesselfinder.com/vessels?name=9274800", "mst_url": "https://www.marinetraffic.com/en/ais/search/all?keyword=9274800", "method": "v3_2pass_track3d_fromru10d", "ru_seen_in_lookback": true, "in_monitor_on_day": true}}, {"type": "Feature", "geometry": {"type": "Point", "coordinates": [13.4121, 54.93301666666667]}, "properties": {"label": "ASTRAL", "mmsi": "667001270", "imo": "9274800", "name": "ASTRAL", "shiptype": "", "first_seen_utc": "2026-01-07T11:41:46Z", "last_seen_utc": "2026-01-16T02:10:30Z", "destination": "EGPSD", "eta": "{'Day': 30, 'Hour': 8, 'Minute': 0, 'Month': 1}", "display": "ASTRAL (667001270)", "links": "<a href=\"https://www.vesselfinder.com/vessels?name=9274800\" target=\"_blank\" rel=\"noopener\">VesselFinder</a> | <a href=\"https://www.marinetraffic.com/en/ais/search/all?keyword=9274800\" target=\"_blank\" rel=\"noopener\">MarineTraffic</a>", "vf_url": "https://www.vesselfinder.com/vessels?name=9274800", "mst_url": "https://www.marinetraffic.com/en/ais/search/all?keyword=9274800", "method": "v3_2pass_track3d_fromru10d", "ru_seen_in_lookback": true, "in_monitor_on_day": true}}, {"type": "Feature", "geometry": {"type": "LineString", "coordinates": [[15.615621666666668, 55.67979666666667], [15.431735, 55.65388], [15.263475, 55.627568333333336], [15.057661666666666, 55.573526666666666], [14.88241, 55.52717], [14.702233333333334, 55.474668333333334], [14.52352, 55.39422833333333], [14.416563333333333, 55.31951166666667], [14.303533333333332, 55.237586666666665], [14.202956666666667, 55.16543333333333], [13.729535, 54.99930833333334], [13.574553333333334, 54.97053666666667], [12.266033333333333, 54.591561666666664], [12.223026666666668, 54.511853333333335], [12.151625, 54.44741333333333], [12.002621666666666, 54.442204999999994], [11.8556, 54.439045], [11.712909999999999, 54.45124166666667], [11.578576666666667, 54.489285], [11.43006, 54.52853], [11.284258333333334, 54.57208], [11.134418333333334, 54.602650000000004], [10.979256666666666, 54.610365], [10.841728333333332, 54.651645], [10.774428333333333, 54.71556833333333], [10.834361666666666, 54.79981833333333], [10.84329, 54.88229666666667], [10.919348333333334, 54.95395833333334], [10.994061666666665, 55.028055], [10.990783333333333, 55.115739999999995], [11.065916666666668, 55.18642666666666], [11.07493, 55.26804], [11.03888, 55.35731166666667], [10.833633333333333, 55.57167333333334], [10.78703, 55.66363833333333]]}, "properties": {"label": "GARASAN", "mmsi": "667002004", "imo": "9323986", "name": "GARASAN", "shiptype": "", "first_seen_utc": "2026-01-07T20:25:55Z", "last_seen_utc": "2026-01-16T03:52:53Z", "destination": "FOR ORDER", "eta": "{'Day': 31, 'Hour': 0, 'Minute': 1, 'Month': 1}", "display": "", "links": "<a href=\"https://www.vesselfinder.com/vessels?name=9323986\" target=\"_blank\" rel=\"noopener\">VesselFinder</a> | <a href=\"https://www.marinetraffic.com/en/ais/search/all?keyword=9323986\" target=\"_blank\" rel=\"noopener\">MarineTraffic</a>", "vf_url": "https://www.vesselfinder.com/vessels?name=9323986", "mst_url": "https://www.marinetraffic.com/en/ais/search/all?keyword=9323986", "method": "v3_2pass_track3d_fromru10d", "ru_seen_in_lookback": true, "in_monitor_on_day": true}}, {"type": "Feature", "geometry": {"type": "Point", "coordinates": [10.78703, 55.66363833333333]}, "properties": {"label": "GARASAN", "mmsi": "667002004", "imo": "9323986", "name": "GARASAN", "shiptype": "", "first_seen_utc": "2026-01-07T20:25:55Z", "last_seen_utc": "2026-01-16T03:52:53Z", "destination": "FOR ORDER", "eta": "{'Day': 31, 'Hour': 0, 'Minute': 1, 'Month': 1}", "display": "GARASAN (667002004)", "links": "<a href=\"https://www.vesselfinder.com/vessels?name=9323986\" target=\"_blank\" rel=\"noopener\">VesselFinder</a> | <a href=\"https://www.marinetraffic.com/en/ais/search/all?keyword=9323986\" target=\"_blank\" rel=\"noopener\">MarineTraffic</a>", "vf_url": "https://www.vesselfinder.com/vessels?name=9323986", "mst_url": "https://www.marinetraffic.com/en/ais/search/all?keyword=9323986", "method": "v3_2pass_track3d_fromru10d", "ru_seen_in_lookback": true, "in_monitor_on_day": true}}, {"type": "Feature", "geometry": {"type": "LineString", "coordinates": [[15.644811666666667, 55.67919833333334], [15.453681666666666, 55.658588333333334], [15.287128333333333, 55.62582], [15.130648333333333, 55.58547], [14.972048333333333, 55.549171666666666], [14.813435, 55.51249666666667], [14.656558333333333, 55.46514166666667], [14.516645, 55.39273166666667], [14.398881666666666, 55.31408], [14.21604, 55.18616333333333], [13.211248333333334, 54.88972666666667], [12.265048333333334, 54.60133166666667], [12.224063333333334, 54.52765333333333], [12.175738333333333, 54.44680666666667], [12.027653333333335, 54.44873166666666], [11.872878333333334, 54.452684999999995], [11.72668, 54.464931666666665], [11.5816, 54.490565], [11.434546666666668, 54.52437333333333], [11.293524999999999, 54.565666666666665], [11.146075, 54.591125000000005], [10.991146666666667, 54.60807333333333], [10.853855000000001, 54.653011666666664], [10.779648333333334, 54.72030333333333], [10.832991666666667, 54.805465000000005], [10.842338333333334, 54.881615000000004], [10.885221666666666, 54.93790333333333], [10.979091666666667, 54.99523833333333], [10.989483333333334, 55.077843333333334], [11.007421666666666, 55.16341333333333], [11.102813333333334, 55.22694833333333], [11.040413333333333, 55.314591666666665], [10.836948333333334, 55.564658333333334], [10.786025, 55.657668333333326], [10.807346666666666, 55.759096666666665], [10.812306666666666, 55.865028333333335], [10.940225, 55.915996666666665], [11.095893333333333, 56.05327333333333], [11.096738333333333, 56.147155]]}, "properties": {"label": "MYSTERY", "mmsi": "667001245", "imo": "9332834", "name": "MYSTERY", "shiptype": "", "first_seen_utc": "2026-01-08T05:18:04Z", "last_seen_utc": "2026-01-16T03:57:28Z", "destination": "FOR ORDER", "eta": "{'Day': 29, 'Hour': 15, 'Minute': 0, 'Month': 1}", "display": "", "links": "<a href=\"https://www.vesselfinder.com/vessels?name=9332834\" target=\"_blank\" rel=\"noopener\">VesselFinder</a> | <a href=\"https://www.marinetraffic.com/en/ais/search/all?keyword=9332834\" target=\"_blank\" rel=\"noopener\">MarineTraffic</a>", "vf_url": "https://www.vesselfinder.com/vessels?name=9332834", "mst_url": "https://www.marinetraffic.com/en/ais/search/all?keyword=9332834", "method": "v3_2pass_track3d_fromru10d", "ru_seen_in_lookback": true, "in_monitor_on_day": true}}, {"type": "Feature", "geometry": {"type": "Point", "coordinates": [11.096738333333333, 56.147155]}, "properties": {"label": "MYSTERY", "mmsi": "667001245", "imo": "9332834", "name": "MYSTERY", "shiptype": "", "first_seen_utc": "2026-01-08T05:18:04Z", "last_seen_utc": "2026-01-16T03:57:28Z", "destination": "FOR ORDER", "eta": "{'Day': 29, 'Hour': 15, 'Minute': 0, 'Month': 1}", "display": "MYSTERY (667001245)", "links": "<a href=\"https://www.vesselfinder.com/vessels?name=9332834\" target=\"_blank\" rel=\"noopener\">VesselFinder</a> | <a href=\"https://www.marinetraffic.com/en/ais/search/all?keyword=9332834\" target=\"_blank\" rel=\"noopener\">MarineTraffic</a>", "vf_url": "https://www.vesselfinder.com/vessels?name=9332834", "mst_url": "https://www.marinetraffic.com/en/ais/search/all?keyword=9332834", "method": "v3_2pass_track3d_fromru10d", "ru_seen_in_lookback": true, "in_monitor_on_day": true}}, {"type": "Feature", "geometry": {"type": "LineString", "coordinates": [[7.995903333333334, 57.135236666666664], [8.089220000000001, 57.233365000000006], [8.176631666666667, 57.309713333333335], [8.340085, 57.35079666666666], [8.482708333333333, 57.39858666666667], [8.611261666666667, 57.45032833333333], [8.750181666666666, 57.49682], [8.884968333333335, 57.54548666666667], [9.054825, 57.610765], [9.256203333333334, 57.680701666666664], [9.403220000000001, 57.73052], [9.549168333333334, 57.779331666666664], [9.729144999999999, 57.804343333333335], [9.897783333333333, 57.805978333333336], [10.05476, 57.80953], [10.21489, 57.81010666666667], [10.373568333333333, 57.810465], [12.391543333333335, 56.1999], [12.466501666666666, 56.138758333333335], [12.540608333333333, 56.104391666666665], [12.651784999999999, 56.041871666666665], [12.648636666666667, 55.93724833333333], [12.69661, 55.83021], [12.680209999999999, 55.724180000000004], [12.694273333333333, 55.62782166666667], [12.706715, 55.54654166666667], [12.684140000000001, 55.477695000000004], [12.654993333333334, 55.39588333333334], [12.629326666666666, 55.31567], [12.757038333333332, 55.27154666666667], [12.901556666666666, 55.23744], [13.050198333333332, 55.22443333333333], [13.697385, 55.185669999999995], [13.855793333333335, 55.176678333333335]]}, "properties": {"label": "ARIADNE", "mmsi": "273268690", "imo": "9397547", "name": "ARIADNE", "shiptype": "", "first_seen_utc": "2026-01-12T11:50:42Z", "last_seen_utc": "2026-01-16T03:17:32Z", "destination": "EGPSD>RUULU", "eta": "{'Day': 18, 'Hour': 15, 'Minute': 0, 'Month': 1}", "display": "", "links": "<a href=\"https://www.vesselfinder.com/vessels?name=9397547\" target=\"_blank\" rel=\"noopener\">VesselFinder</a> | <a href=\"https://www.marinetraffic.com/en/ais/search/all?keyword=9397547\" target=\"_blank\" rel=\"noopener\">MarineTraffic</a>", "vf_url": "https://www.vesselfinder.com/vessels?name=9397547", "mst_url": "https://www.marinetraffic.com/en/ais/search/all?keyword=9397547", "method": "v3_2pass_track3d_fromru10d", "ru_seen_in_lookback": false, "in_monitor_on_day": true}}, {"type": "Feature", "geometry": {"type": "Point", "coordinates": [13.855793333333335, 55.176678333333335]}, "properties": {"label": "ARIADNE", "mmsi": "273268690", "imo": "9397547", "name": "ARIADNE", "shiptype": "", "first_seen_utc": "2026-01-12T11:50:42Z", "last_seen_utc": "2026-01-16T03:17:32Z", "destination": "EGPSD>RUULU", "eta": "{'Day': 18, 'Hour': 15, 'Minute': 0, 'Month': 1}", "display": "ARIADNE (273268690)", "links": "<a href=\"https://www.vesselfinder.com/vessels?name=9397547\" target=\"_blank\" rel=\"noopener\">VesselFinder</a> | <a href=\"https://www.marinetraffic.com/en/ais/search/all?keyword=9397547\" target=\"_blank\" rel=\"noopener\">MarineTraffic</a>", "vf_url": "https://www.vesselfinder.com/vessels?name=9397547", "mst_url": "https://www.marinetraffic.com/en/ais/search/all?keyword=9397547", "method": "v3_2pass_track3d_fromru10d", "ru_seen_in_lookback": false, "in_monitor_on_day": true}}, {"type": "Feature", "geometry": {"type": "LineString", "coordinates": [[2.13429, 61.709555], [2.34602, 61.65182166666667], [2.5562850000000004, 61.59590166666667], [2.7652133333333335, 61.54210666666667], [2.974223333333333, 61.48703166666667], [3.1810933333333336, 61.430955000000004], [3.384895, 61.374831666666665], [3.5659183333333333, 61.308141666666664], [3.73158, 61.237674999999996], [3.8939533333333336, 61.16174], [3.988653333333333, 61.07115666666667], [4.006233333333333, 60.969305], [4.02175, 60.86679], [4.031226666666667, 60.764858333333336], [4.044171666666666, 60.663415], [4.03658, 60.56395666666666], [4.033605, 60.46232333333333], [4.035988333333333, 60.36007333333334], [4.033040000000001, 60.25919666666667], [4.018551666666666, 60.15754666666667], [4.000776666666667, 60.052236666666666], [4.0009483333333336, 59.94338833333334], [4.01118, 59.833165], [4.016451666666667, 59.72576166666667], [4.026091666666667, 59.61832833333334], [4.03041, 59.512388333333334], [4.035115, 59.40618833333333], [4.035263333333334, 59.30164833333333], [4.026165, 59.197433333333336], [4.009331666666666, 59.093055], [4.015148333333333, 58.98559], [4.106001666666667, 58.888065], [4.27106, 58.818920000000006], [4.434061666666667, 58.7519], [4.580821666666667, 58.68695666666667], [4.732346666666667, 58.615741666666665], [4.876838333333334, 58.53959666666666], [5.014031666666667, 58.45783666666667], [5.155468333333333, 58.378638333333335], [5.297821666666667, 58.31279], [5.432435, 58.246048333333334], [5.5687549999999995, 58.18606333333333], [5.705086666666667, 58.125075], [5.864698333333333, 58.060950000000005], [6.017921666666667, 57.99211833333333], [6.160405, 57.92299833333333], [6.302603333333334, 57.85546166666666], [6.441275, 57.77970333333334], [6.600621666666667, 57.71695666666667], [6.808396666666667, 57.71673333333333], [7.01526, 57.70547166666667], [7.212575, 57.68503166666667], [7.416941666666667, 57.67447166666667], [7.62466, 57.668165], [7.830088333333333, 57.664865], [8.035775, 57.679885], [8.2448, 57.697865], [8.457576666666666, 57.707925], [8.66636, 57.72115333333333], [8.895338333333333, 57.73659], [9.12994, 57.75627833333333], [9.373571666666667, 57.778535000000005], [9.604403333333332, 57.777759999999994], [9.83132, 57.7793], [10.056303333333334, 57.78358], [10.280143333333333, 57.79056666666667], [12.36534, 56.19878333333334]]}, "properties": {"label": "MANDALA", "mmsi": "636022672", "imo": "9299135", "name": "MANDALA", "shiptype": "", "first_seen_utc": "2026-01-14T07:49:00Z", "last_seen_utc": "2026-01-16T03:48:56Z", "destination": "FOR_ORDER", "eta": "{'Day': 18, 'Hour': 13, 'Minute': 0, 'Month': 1}", "display": "", "links": "<a href=\"https://www.vesselfinder.com/vessels?name=9299135\" target=\"_blank\" rel=\"noopener\">VesselFinder</a> | <a href=\"https://www.marinetraffic.com/en/ais/search/all?keyword=9299135\" target=\"_blank\" rel=\"noopener\">MarineTraffic</a>", "vf_url": "https://www.vesselfinder.com/vessels?name=9299135", "mst_url": "https://www.marinetraffic.com/en/ais/search/all?keyword=9299135", "method": "v3_2pass_track3d_fromru10d", "ru_seen_in_lookback": false, "in_monitor_on_day": true}}, {"type": "Feature", "geometry": {"type": "Point", "coordinates": [12.36534, 56.19878333333334]}, "properties": {"label": "MANDALA", "mmsi": "636022672", "imo": "9299135", "name": "MANDALA", "shiptype": "", "first_seen_utc": "2026-01-14T07:49:00Z", "last_seen_utc": "2026-01-16T03:48:56Z", "destination": "FOR_ORDER", "eta": "{'Day': 18, 'Hour': 13, 'Minute': 0, 'Month': 1}", "display": "MANDALA (636022672)", "links": "<a href=\"https://www.vesselfinder.com/vessels?name=9299135\" target=\"_blank\" rel=\"noopener\">VesselFinder</a> | <a href=\"https://www.marinetraffic.com/en/ais/search/all?keyword=9299135\" target=\"_blank\" rel=\"noopener\">MarineTraffic</a>", "vf_url": "https://www.vesselfinder.com/vessels?name=9299135", "mst_url": "https://www.marinetraffic.com/en/ais/search/all?keyword=9299135", "method": "v3_2pass_track3d_fromru10d", "ru_seen_in_lookback": false, "in_monitor_on_day": true}}, {"type": "Feature", "geometry": {"type": "LineString", "coordinates": [[-0.07103666666666666, 50.292503333333336], [1.2272733333333332, 50.62959166666667], [1.3485633333333333, 50.70364333333334], [1.404415, 50.80159666666667], [1.4548516666666667, 50.897526666666664], [1.554545, 50.97797166666667], [1.6519783333333333, 51.055463333333336], [1.76113, 51.125225], [1.9029850000000001, 51.169963333333335], [2.0529883333333334, 51.21046], [2.1096850000000003, 51.30429166666667], [2.1067066666666667, 51.41297333333333], [2.2180833333333334, 51.49526], [2.6904383333333333, 52.01253], [7.891091666666667, 57.01748166666666], [8.021576666666666, 57.09113166666667], [8.149565, 57.16027166666667]]}, "properties": {"label": "SPRING FORTUNE", "mmsi": "613277601", "imo": "9386536", "name": "SPRING FORTUNE", "shiptype": "", "first_seen_utc": "2026-01-14T08:58:26Z", "last_seen_utc": "2026-01-16T03:41:29Z", "destination": "TALLINN", "eta": "{'Day': 19, 'Hour': 21, 'Minute': 0, 'Month': 1}", "display": "", "links": "<a href=\"https://www.vesselfinder.com/vessels?name=9386536\" target=\"_blank\" rel=\"noopener\">VesselFinder</a> | <a href=\"https://www.marinetraffic.com/en/ais/search/all?keyword=9386536\" target=\"_blank\" rel=\"noopener\">MarineTraffic</a>", "vf_url": "https://www.vesselfinder.com/vessels?name=9386536", "mst_url": "https://www.marinetraffic.com/en/ais/search/all?keyword=9386536", "method": "v3_2pass_track3d_fromru10d", "ru_seen_in_lookback": false, "in_monitor_on_day": true}}, {"type": "Feature", "geometry": {"type": "Point", "coordinates": [8.149565, 57.16027166666667]}, "properties": {"label": "SPRING FORTUNE", "mmsi": "613277601", "imo": "9386536", "name": "SPRING FORTUNE", "shiptype": "", "first_seen_utc": "2026-01-14T08:58:26Z", "last_seen_utc": "2026-01-16T03:41:29Z", "destination": "TALLINN", "eta": "{'Day': 19, 'Hour': 21, 'Minute': 0, 'Month': 1}", "display": "SPRING FORTUNE (613277601)", "links": "<a href=\"https://www.vesselfinder.com/vessels?name=9386536\" target=\"_blank\" rel=\"noopener\">VesselFinder</a> | <a href=\"https://www.marinetraffic.com/en/ais/search/all?keyword=9386536\" target=\"_blank\" rel=\"noopener\">MarineTraffic</a>", "vf_url": "https://www.vesselfinder.com/vessels?name=9386536", "mst_url": "https://www.marinetraffic.com/en/ais/search/all?keyword=9386536", "method": "v3_2pass_track3d_fromru10d", "ru_seen_in_lookback": false, "in_monitor_on_day": true}}, {"type": "Feature", "geometry": {"type": "LineString", "coordinates": [[4.010823333333334, 61.99987833333333], [4.0108033333333335, 61.92146], [4.005898333333334, 61.84528833333333], [4.013695, 61.773925], [4.010801666666667, 61.705603333333336], [4.015533333333333, 61.637365], [4.00391, 61.570575], [4.004968333333333, 61.50472666666667], [4.005513333333334, 61.440720000000006], [4.0061, 61.379281666666664], [4.015965, 61.32111], [4.021255, 61.26527], [4.01031, 61.21132], [3.9988249999999996, 61.159728333333334], [4.004111666666667, 61.10187333333333], [4.015235, 61.045343333333335], [4.023373333333334, 60.989911666666664], [4.020546666666666, 60.93113833333334], [4.016821666666667, 60.87320833333333], [4.01568, 60.82046666666667], [4.0163899999999995, 60.77046833333333], [4.0178, 60.718115], [4.019103333333333, 60.661255], [4.018551666666666, 60.59599], [4.020801666666666, 60.52866166666667], [4.0173483333333335, 60.467355], [4.013311666666667, 60.404001666666666], [4.017881666666667, 60.3358], [4.016466666666667, 60.271078333333335], [4.01105, 60.201294999999995], [4.007485, 60.12848833333333], [4.015323333333333, 60.05225], [4.022396666666666, 59.97228500000001], [4.016995, 59.889511666666664], [4.010486666666667, 59.804975], [4.01358, 59.72343], [4.017333333333333, 59.63909666666667], [4.019816666666666, 59.55835833333333], [4.012521666666666, 59.48446666666667], [4.01855, 59.40332333333333], [4.021675, 59.312956666666665], [4.0112733333333335, 59.22136833333333], [4.002386666666667, 59.136155], [3.9966633333333332, 59.052636666666665]]}, "properties": {"label": "PRIMAVERA", "mmsi": "461000256", "imo": "9511533", "name": "PRIMAVERA", "shiptype": "", "first_seen_utc": "2026-01-15T05:28:07Z", "last_seen_utc": "2026-01-16T03:43:38Z", "destination": "FOR ORDERS", "eta": "{'Day': 28, 'Hour': 13, 'Minute': 0, 'Month': 1}", "display": "", "links": "<a href=\"https://www.vesselfinder.com/vessels?name=9511533\" target=\"_blank\" rel=\"noopener\">VesselFinder</a> | <a href=\"https://www.marinetraffic.com/en/ais/search/all?keyword=9511533\" target=\"_blank\" rel=\"noopener\">MarineTraffic</a>", "vf_url": "https://www.vesselfinder.com/vessels?name=9511533", "mst_url": "https://www.marinetraffic.com/en/ais/search/all?keyword=9511533", "method": "v3_2pass_track3d_fromru10d", "ru_seen_in_lookback": false, "in_monitor_on_day": true}}, {"type": "Feature", "geometry": {"type": "Point", "coordinates": [3.9966633333333332, 59.052636666666665]}, "properties": {"label": "PRIMAVERA", "mmsi": "461000256", "imo": "9511533", "name": "PRIMAVERA", "shiptype": "", "first_seen_utc": "2026-01-15T05:28:07Z", "last_seen_utc": "2026-01-16T03:43:38Z", "destination": "FOR ORDERS", "eta": "{'Day': 28, 'Hour': 13, 'Minute': 0, 'Month': 1}", "display": "PRIMAVERA (461000256)", "links": "<a href=\"https://www.vesselfinder.com/vessels?name=9511533\" target=\"_blank\" rel=\"noopener\">VesselFinder</a> | <a href=\"https://www.marinetraffic.com/en/ais/search/all?keyword=9511533\" target=\"_blank\" rel=\"noopener\">MarineTraffic</a>", "vf_url": "https://www.vesselfinder.com/vessels?name=9511533", "mst_url": "https://www.marinetraffic.com/en/ais/search/all?keyword=9511533", "method": "v3_2pass_track3d_fromru10d", "ru_seen_in_lookback": false, "in_monitor_on_day": true}}, {"type": "Feature", "geometry": {"type": "LineString", "coordinates": [[15.39858, 55.666266666666665], [15.253781666666667, 55.63944166666667], [15.114325000000001, 55.60535166666667], [14.98013, 55.566206666666666], [14.843208333333333, 55.523955], [14.706295, 55.48093333333334], [14.58275, 55.43146], [14.487453333333333, 55.36394666666667], [14.396923333333332, 55.29691666666667], [14.301733333333335, 55.22689166666667], [14.208315, 55.15920666666667], [14.116756666666667, 55.091168333333336], [13.976125, 55.05045666666667], [13.828383333333333, 55.020473333333335]]}, "properties": {"label": "STANISLAV GOVORUKHIN", "mmsi": "273258520", "imo": "9621596", "name": "STANISLAV GOVORUKHIN", "shiptype": "", "first_seen_utc": "2026-01-15T17:52:24Z", "last_seen_utc": "2026-01-16T00:28:20Z", "destination": "FOR ORDERS", "eta": "{'Day': 25, 'Hour': 5, 'Minute': 0, 'Month': 1}", "display": "", "links": "<a href=\"https://www.vesselfinder.com/vessels?name=9621596\" target=\"_blank\" rel=\"noopener\">VesselFinder</a> | <a href=\"https://www.marinetraffic.com/en/ais/search/all?keyword=9621596\" target=\"_blank\" rel=\"noopener\">MarineTraffic</a>", "vf_url": "https://www.vesselfinder.com/vessels?name=9621596", "mst_url": "https://www.marinetraffic.com/en/ais/search/all?keyword=9621596", "method": "v3_2pass_track3d_fromru10d", "ru_seen_in_lookback": false, "in_monitor_on_day": true}}, {"type": "Feature", "geometry": {"type": "Point", "coordinates": [13.828383333333333, 55.020473333333335]}, "properties": {"label": "STANISLAV GOVORUKHIN", "mmsi": "273258520", "imo": "9621596", "name": "STANISLAV GOVORUKHIN", "shiptype": "", "first_seen_utc": "2026-01-15T17:52:24Z", "last_seen_utc": "2026-01-16T00:28:20Z", "destination": "FOR ORDERS", "eta": "{'Day': 25, 'Hour': 5, 'Minute': 0, 'Month': 1}", "display": "STANISLAV GOVORUKHIN (273258520)", "links": "<a href=\"https://www.vesselfinder.com/vessels?name=9621596\" target=\"_blank\" rel=\"noopener\">VesselFinder</a> | <a href=\"https://www.marinetraffic.com/en/ais/search/all?keyword=9621596\" target=\"_blank\" rel=\"noopener\">MarineTraffic</a>", "vf_url": "https://www.vesselfinder.com/vessels?name=9621596", "mst_url": "https://www.marinetraffic.com/en/ais/search/all?keyword=9621596", "method": "v3_2pass_track3d_fromru10d", "ru_seen_in_lookback": false, "in_monitor_on_day": true}}, {"type": "Feature", "geometry": {"type": "LineString", "coordinates": [[3.6995283333333333, 58.74189833333333], [3.875995, 58.70791], [4.0511099999999995, 58.661359999999995], [4.225585, 58.611115000000005], [4.389928333333333, 58.56489], [4.5644149999999994, 58.51574166666667], [4.72789, 58.46695166666667], [4.887575, 58.42243833333334], [5.057238333333333, 58.380453333333335], [5.210231666666667, 58.33260833333333], [5.337848333333333, 58.274604999999994], [5.46248, 58.21563666666667], [5.586496666666666, 58.16010333333334], [5.723938333333334, 58.102788333333336], [5.857033333333334, 58.038545], [5.999766666666667, 57.97862333333333]]}, "properties": {"label": "TRUST", "mmsi": "273271950", "imo": "9382798", "name": "TRUST", "shiptype": "", "first_seen_utc": "2026-01-15T20:02:37Z", "last_seen_utc": "2026-01-16T03:48:22Z", "destination": "RUULU", "eta": "{'Day': 19, 'Hour': 14, 'Minute': 0, 'Month': 1}", "display": "", "links": "<a href=\"https://www.vesselfinder.com/vessels?name=9382798\" target=\"_blank\" rel=\"noopener\">VesselFinder</a> | <a href=\"https://www.marinetraffic.com/en/ais/search/all?keyword=9382798\" target=\"_blank\" rel=\"noopener\">MarineTraffic</a>", "vf_url": "https://www.vesselfinder.com/vessels?name=9382798", "mst_url": "https://www.marinetraffic.com/en/ais/search/all?keyword=9382798", "method": "v3_2pass_track3d_fromru10d", "ru_seen_in_lookback": false, "in_monitor_on_day": true}}, {"type": "Feature", "geometry": {"type": "Point", "coordinates": [5.999766666666667, 57.97862333333333]}, "properties": {"label": "TRUST", "mmsi": "273271950", "imo": "9382798", "name": "TRUST", "shiptype": "", "first_seen_utc": "2026-01-15T20:02:37Z", "last_seen_utc": "2026-01-16T03:48:22Z", "destination": "RUULU", "eta": "{'Day': 19, 'Hour': 14, 'Minute': 0, 'Month': 1}", "display": "TRUST (273271950)", "links": "<a href=\"https://www.vesselfinder.com/vessels?name=9382798\" target=\"_blank\" rel=\"noopener\">VesselFinder</a> | <a href=\"https://www.marinetraffic.com/en/ais/search/all?keyword=9382798\" target=\"_blank\" rel=\"noopener\">MarineTraffic</a>", "vf_url": "https://www.vesselfinder.com/vessels?name=9382798", "mst_url": "https://www.marinetraffic.com/en/ais/search/all?keyword=9382798", "method": "v3_2pass_track3d_fromru10d", "ru_seen_in_lookback": false, "in_monitor_on_day": true}}]}