{"type": "FeatureCollection", "features": [{"type": "Feature", "geometry": {"type": "LineString", "coordinates": [[15.326901666666666, 55.649233333333335], [15.167981666666666, 55.61513333333333], [15.022446666666667, 55.57413833333333], [14.87824, 55.530705], [14.736656666666667, 55.48719333333334], [14.591243333333333, 55.440955], [14.487323333333334, 55.367055], [14.381408333333333, 55.289903333333335], [14.277815, 55.21645], [14.17165, 55.1406], [14.05572, 55.06724666666666], [12.255443333333334, 54.572145], [12.210871666666666, 54.497094999999995], [12.124925, 54.441495], [11.981975, 54.43815666666667], [11.83238, 54.44257833333334], [11.676803333333334, 54.45890333333333]]}, "properties": {"label": "PIONER 1", "mmsi": "273271320", "imo": "9378618", "name": "PIONER 1", "shiptype": "", "first_seen_utc": "2025-12-27T01:38:49Z", "last_seen_utc": "2026-01-05T15:57:09Z", "destination": "SGSIN", "eta": "{'Day': 15, 'Hour': 18, 'Minute': 0, 'Month': 2}", "display": "", "links": "<a href=\"https://www.vesselfinder.com/vessels?name=9378618\" target=\"_blank\" rel=\"noopener\">VesselFinder</a> | <a href=\"https://www.marinetraffic.com/en/ais/search/all?keyword=9378618\" target=\"_blank\" rel=\"noopener\">MarineTraffic</a>", "vf_url": "https://www.vesselfinder.com/vessels?name=9378618", "mst_url": "https://www.marinetraffic.com/en/ais/search/all?keyword=9378618", "method": "v3_2pass_track3d_fromru10d", "ru_seen_in_lookback": true, "in_monitor_on_day": true}}, {"type": "Feature", "geometry": {"type": "Point", "coordinates": [11.676803333333334, 54.45890333333333]}, "properties": {"label": "PIONER 1", "mmsi": "273271320", "imo": "9378618", "name": "PIONER 1", "shiptype": "", "first_seen_utc": "2025-12-27T01:38:49Z", "last_seen_utc": "2026-01-05T15:57:09Z", "destination": "SGSIN", "eta": "{'Day': 15, 'Hour': 18, 'Minute': 0, 'Month': 2}", "display": "PIONER 1 (273271320)", "links": "<a href=\"https://www.vesselfinder.com/vessels?name=9378618\" target=\"_blank\" rel=\"noopener\">VesselFinder</a> | <a href=\"https://www.marinetraffic.com/en/ais/search/all?keyword=9378618\" target=\"_blank\" rel=\"noopener\">MarineTraffic</a>", "vf_url": "https://www.vesselfinder.com/vessels?name=9378618", "mst_url": "https://www.marinetraffic.com/en/ais/search/all?keyword=9378618", "method": "v3_2pass_track3d_fromru10d", "ru_seen_in_lookback": true, "in_monitor_on_day": true}}, {"type": "Feature", "geometry": {"type": "LineString", "coordinates": [[15.204225000000001, 55.621388333333336], [15.029995000000001, 55.57233333333333], [14.861553333333335, 55.523755], [14.712613333333334, 55.480538333333335], [14.43433, 55.33437666666667], [12.212058333333333, 54.50458833333333], [12.132841666666668, 54.43917166666667], [11.98228, 54.43956], [11.82438, 54.440245], [11.676103333333334, 54.46014], [11.538096666666666, 54.49663833333333], [11.400688333333333, 54.53722833333334], [11.258173333333334, 54.575206666666666], [11.109031666666668, 54.601255], [10.954438333333334, 54.61848833333333], [10.817125, 54.6673], [10.789686666666666, 54.74682], [10.838513333333333, 54.82709833333333], [10.872164999999999, 54.917723333333335], [10.973191666666667, 54.987051666666666], [10.991656666666668, 55.07425], [11.010975, 55.16359333333333], [11.0976, 55.23265166666667], [11.037745, 55.34943166666667], [10.811581666666665, 55.5982], [10.795263333333333, 55.69146], [10.810136666666667, 55.78985333333333], [10.878153333333334, 55.901648333333334], [10.497688333333334, 57.85161333333333], [9.889713333333333, 57.84471], [9.684321666666667, 57.84283666666667], [9.514938333333333, 57.814708333333336], [9.188841666666667, 57.71460833333333], [9.038008333333332, 57.665525], [8.897179999999999, 57.620801666666665], [8.761320000000001, 57.574475], [8.288008333333334, 57.415319999999994], [8.194425, 57.384755000000006], [8.100261666666666, 57.35408666666667], [7.993201666666667, 57.32098333333333], [7.922088333333334, 57.29504], [7.852543333333333, 57.27077666666666], [7.779771666666666, 57.24692666666667], [7.710325, 57.22392833333333]]}, "properties": {"label": "SIERRA", "mmsi": "613007200", "imo": "9522324", "name": "SIERRA", "shiptype": "", "first_seen_utc": "2025-12-27T05:57:38Z", "last_seen_utc": "2026-01-05T15:35:27Z", "destination": "SGSIN", "eta": "{'Day': 9, 'Hour': 12, 'Minute': 0, 'Month': 2}", "display": "", "links": "<a href=\"https://www.vesselfinder.com/vessels?name=9522324\" target=\"_blank\" rel=\"noopener\">VesselFinder</a> | <a href=\"https://www.marinetraffic.com/en/ais/search/all?keyword=9522324\" target=\"_blank\" rel=\"noopener\">MarineTraffic</a>", "vf_url": "https://www.vesselfinder.com/vessels?name=9522324", "mst_url": "https://www.marinetraffic.com/en/ais/search/all?keyword=9522324", "method": "v3_2pass_track3d_fromru10d", "ru_seen_in_lookback": true, "in_monitor_on_day": true}}, {"type": "Feature", "geometry": {"type": "Point", "coordinates": [7.710325, 57.22392833333333]}, "properties": {"label": "SIERRA", "mmsi": "613007200", "imo": "9522324", "name": "SIERRA", "shiptype": "", "first_seen_utc": "2025-12-27T05:57:38Z", "last_seen_utc": "2026-01-05T15:35:27Z", "destination": "SGSIN", "eta": "{'Day': 9, 'Hour': 12, 'Minute': 0, 'Month': 2}", "display": "SIERRA (613007200)", "links": "<a href=\"https://www.vesselfinder.com/vessels?name=9522324\" target=\"_blank\" rel=\"noopener\">VesselFinder</a> | <a href=\"https://www.marinetraffic.com/en/ais/search/all?keyword=9522324\" target=\"_blank\" rel=\"noopener\">MarineTraffic</a>", "vf_url": "https://www.vesselfinder.com/vessels?name=9522324", "mst_url": "https://www.marinetraffic.com/en/ais/search/all?keyword=9522324", "method": "v3_2pass_track3d_fromru10d", "ru_seen_in_lookback": true, "in_monitor_on_day": true}}, {"type": "Feature", "geometry": {"type": "LineString", "coordinates": [[28.405913333333334, 59.809553333333334], [28.405303333333332, 59.809020000000004], [28.484538333333333, 59.87025166666667], [15.17046, 55.60875], [15.022934999999999, 55.56929], [14.886178333333334, 55.53146666666667], [14.741710000000001, 55.49068]]}, "properties": {"label": "ETHERA", "mmsi": "632001149", "imo": "9387279", "name": "ETHERA", "shiptype": "", "first_seen_utc": "2025-12-27T23:13:34Z", "last_seen_utc": "2026-01-05T14:36:02Z", "destination": "MOROCCO FOR ORDER", "eta": "{'Day': 14, 'Hour': 6, 'Minute': 0, 'Month': 1}", "display": "", "links": "<a href=\"https://www.vesselfinder.com/vessels?name=9387279\" target=\"_blank\" rel=\"noopener\">VesselFinder</a> | <a href=\"https://www.marinetraffic.com/en/ais/search/all?keyword=9387279\" target=\"_blank\" rel=\"noopener\">MarineTraffic</a>", "vf_url": "https://www.vesselfinder.com/vessels?name=9387279", "mst_url": "https://www.marinetraffic.com/en/ais/search/all?keyword=9387279", "method": "v3_2pass_track3d_fromru10d", "ru_seen_in_lookback": true, "in_monitor_on_day": true}}, {"type": "Feature", "geometry": {"type": "Point", "coordinates": [14.741710000000001, 55.49068]}, "properties": {"label": "ETHERA", "mmsi": "632001149", "imo": "9387279", "name": "ETHERA", "shiptype": "", "first_seen_utc": "2025-12-27T23:13:34Z", "last_seen_utc": "2026-01-05T14:36:02Z", "destination": "MOROCCO FOR ORDER", "eta": "{'Day': 14, 'Hour': 6, 'Minute': 0, 'Month': 1}", "display": "ETHERA (632001149)", "links": "<a href=\"https://www.vesselfinder.com/vessels?name=9387279\" target=\"_blank\" rel=\"noopener\">VesselFinder</a> | <a href=\"https://www.marinetraffic.com/en/ais/search/all?keyword=9387279\" target=\"_blank\" rel=\"noopener\">MarineTraffic</a>", "vf_url": "https://www.vesselfinder.com/vessels?name=9387279", "mst_url": "https://www.marinetraffic.com/en/ais/search/all?keyword=9387279", "method": "v3_2pass_track3d_fromru10d", "ru_seen_in_lookback": true, "in_monitor_on_day": true}}, {"type": "Feature", "geometry": {"type": "LineString", "coordinates": [[28.396871666666666, 59.822813333333336], [28.396843333333333, 59.82318166666666], [28.396996666666666, 59.823253333333334], [28.39721666666667, 59.82341833333333], [28.39831, 59.82342166666667], [28.41196, 59.82086666666667], [28.471216666666667, 59.866753333333335], [14.940056666666667, 55.534705]]}, "properties": {"label": "JEWEL", "mmsi": "374987000", "imo": "9419450", "name": "JEWEL", "shiptype": "", "first_seen_utc": "2025-12-29T02:24:25Z", "last_seen_utc": "2026-01-05T12:22:01Z", "destination": "EGPSD", "eta": "{'Day': 20, 'Hour': 20, 'Minute': 0, 'Month': 1}", "display": "", "links": "<a href=\"https://www.vesselfinder.com/vessels?name=9419450\" target=\"_blank\" rel=\"noopener\">VesselFinder</a> | <a href=\"https://www.marinetraffic.com/en/ais/search/all?keyword=9419450\" target=\"_blank\" rel=\"noopener\">MarineTraffic</a>", "vf_url": "https://www.vesselfinder.com/vessels?name=9419450", "mst_url": "https://www.marinetraffic.com/en/ais/search/all?keyword=9419450", "method": "v3_2pass_track3d_fromru10d", "ru_seen_in_lookback": true, "in_monitor_on_day": true}}, {"type": "Feature", "geometry": {"type": "Point", "coordinates": [14.940056666666667, 55.534705]}, "properties": {"label": "JEWEL", "mmsi": "374987000", "imo": "9419450", "name": "JEWEL", "shiptype": "", "first_seen_utc": "2025-12-29T02:24:25Z", "last_seen_utc": "2026-01-05T12:22:01Z", "destination": "EGPSD", "eta": "{'Day': 20, 'Hour': 20, 'Minute': 0, 'Month': 1}", "display": "JEWEL (374987000)", "links": "<a href=\"https://www.vesselfinder.com/vessels?name=9419450\" target=\"_blank\" rel=\"noopener\">VesselFinder</a> | <a href=\"https://www.marinetraffic.com/en/ais/search/all?keyword=9419450\" target=\"_blank\" rel=\"noopener\">MarineTraffic</a>", "vf_url": "https://www.vesselfinder.com/vessels?name=9419450", "mst_url": "https://www.marinetraffic.com/en/ais/search/all?keyword=9419450", "method": "v3_2pass_track3d_fromru10d", "ru_seen_in_lookback": true, "in_monitor_on_day": true}}, {"type": "Feature", "geometry": {"type": "LineString", "coordinates": [[7.53118, 57.05027333333333], [7.862465, 57.175938333333335], [8.497266666666667, 57.394175000000004], [8.77993, 57.510371666666664], [8.929435000000002, 57.566646666666664], [9.112068333333333, 57.64669], [9.257436666666667, 57.68770833333333], [9.411391666666667, 57.73327666666667], [9.576388333333334, 57.748715], [9.736658333333333, 57.76396333333333], [9.894553333333333, 57.780245], [10.05147, 57.791065], [10.21434, 57.799324999999996], [10.378393333333333, 57.80563333333334], [12.333988333333334, 56.199484999999996], [12.474861666666667, 56.13291666666667], [12.588899999999999, 56.082753333333336], [12.671868333333332, 55.97828333333334], [12.685693333333335, 55.85855], [12.681121666666666, 55.73903333333333], [12.693308333333333, 55.63448666666667], [12.705070000000001, 55.56151166666667], [12.688693333333333, 55.47824833333333], [12.65456, 55.386941666666665], [12.633103333333334, 55.30174], [12.790933333333333, 55.263025], [12.950036666666668, 55.24041833333333], [14.285701666666666, 55.15436666666667], [14.39693, 55.20628833333333], [14.493878333333333, 55.277231666666665], [14.586718333333332, 55.344225], [14.701918333333333, 55.40307833333333], [14.891755, 55.454775000000005], [15.034305, 55.48999333333334], [15.170545, 55.52520166666667], [15.318981666666668, 55.56716166666667], [15.460205, 55.60669333333333]]}, "properties": {"label": "ECHO", "mmsi": "613400212", "imo": "9276030", "name": "ECHO", "shiptype": "", "first_seen_utc": "2025-12-31T04:27:04Z", "last_seen_utc": "2026-01-05T09:45:55Z", "destination": "FOR ORDER", "eta": "{'Day': 6, 'Hour': 6, 'Minute': 0, 'Month': 1}", "display": "", "links": "<a href=\"https://www.vesselfinder.com/vessels?name=9276030\" target=\"_blank\" rel=\"noopener\">VesselFinder</a> | <a href=\"https://www.marinetraffic.com/en/ais/search/all?keyword=9276030\" target=\"_blank\" rel=\"noopener\">MarineTraffic</a>", "vf_url": "https://www.vesselfinder.com/vessels?name=9276030", "mst_url": "https://www.marinetraffic.com/en/ais/search/all?keyword=9276030", "method": "v3_2pass_track3d_fromru10d", "ru_seen_in_lookback": false, "in_monitor_on_day": true}}, {"type": "Feature", "geometry": {"type": "Point", "coordinates": [15.460205, 55.60669333333333]}, "properties": {"label": "ECHO", "mmsi": "613400212", "imo": "9276030", "name": "ECHO", "shiptype": "", "first_seen_utc": "2025-12-31T04:27:04Z", "last_seen_utc": "2026-01-05T09:45:55Z", "destination": "FOR ORDER", "eta": "{'Day': 6, 'Hour': 6, 'Minute': 0, 'Month': 1}", "display": "ECHO (613400212)", "links": "<a href=\"https://www.vesselfinder.com/vessels?name=9276030\" target=\"_blank\" rel=\"noopener\">VesselFinder</a> | <a href=\"https://www.marinetraffic.com/en/ais/search/all?keyword=9276030\" target=\"_blank\" rel=\"noopener\">MarineTraffic</a>", "vf_url": "https://www.vesselfinder.com/vessels?name=9276030", "mst_url": "https://www.marinetraffic.com/en/ais/search/all?keyword=9276030", "method": "v3_2pass_track3d_fromru10d", "ru_seen_in_lookback": false, "in_monitor_on_day": true}}, {"type": "Feature", "geometry": {"type": "LineString", "coordinates": [[7.552733333333333, 57.034125], [7.644988333333333, 57.10979833333333], [7.791300000000001, 57.16259166666667], [7.978801666666667, 57.233601666666665], [8.124686666666667, 57.28761333333333], [8.288148333333334, 57.341768333333334], [8.439743333333332, 57.391709999999996], [8.585695, 57.44182166666667], [8.728771666666667, 57.49267333333333], [8.876301666666667, 57.540321666666664], [9.20477, 57.64208833333333], [9.410971666666667, 57.723643333333335], [9.55546, 57.76285166666666], [9.711761666666666, 57.794085], [9.875506666666666, 57.80571333333333], [10.04721, 57.81041166666667], [10.268088333333333, 57.80918833333333], [10.431455, 57.80749333333333], [12.390015, 56.19958999999999], [12.42285, 56.16067666666667], [12.476151666666668, 56.13601333333334], [12.546328333333333, 56.101530000000004], [12.648608333333334, 56.03752333333333], [12.655393333333334, 55.94950166666667], [12.675366666666667, 55.86368166666667], [12.691593333333334, 55.773505], [12.684845, 55.684455], [12.697531666666666, 55.61308833333333], [12.665058333333333, 55.291129999999995], [12.840058333333333, 55.25260166666667], [13.009818333333333, 55.23601833333333]]}, "properties": {"label": "UNIVERSAL", "mmsi": "273271630", "imo": "9384306", "name": "UNIVERSAL", "shiptype": "", "first_seen_utc": "2026-01-01T14:05:51Z", "last_seen_utc": "2026-01-05T12:59:22Z", "destination": "FOR ORDERS", "eta": "{'Day': 8, 'Hour': 1, 'Minute': 0, 'Month': 1}", "display": "", "links": "<a href=\"https://www.vesselfinder.com/vessels?name=9384306\" target=\"_blank\" rel=\"noopener\">VesselFinder</a> | <a href=\"https://www.marinetraffic.com/en/ais/search/all?keyword=9384306\" target=\"_blank\" rel=\"noopener\">MarineTraffic</a>", "vf_url": "https://www.vesselfinder.com/vessels?name=9384306", "mst_url": "https://www.marinetraffic.com/en/ais/search/all?keyword=9384306", "method": "v3_2pass_track3d_fromru10d", "ru_seen_in_lookback": false, "in_monitor_on_day": true}}, {"type": "Feature", "geometry": {"type": "Point", "coordinates": [13.009818333333333, 55.23601833333333]}, "properties": {"label": "UNIVERSAL", "mmsi": "273271630", "imo": "9384306", "name": "UNIVERSAL", "shiptype": "", "first_seen_utc": "2026-01-01T14:05:51Z", "last_seen_utc": "2026-01-05T12:59:22Z", "destination": "FOR ORDERS", "eta": "{'Day': 8, 'Hour': 1, 'Minute': 0, 'Month': 1}", "display": "UNIVERSAL (273271630)", "links": "<a href=\"https://www.vesselfinder.com/vessels?name=9384306\" target=\"_blank\" rel=\"noopener\">VesselFinder</a> | <a href=\"https://www.marinetraffic.com/en/ais/search/all?keyword=9384306\" target=\"_blank\" rel=\"noopener\">MarineTraffic</a>", "vf_url": "https://www.vesselfinder.com/vessels?name=9384306", "mst_url": "https://www.marinetraffic.com/en/ais/search/all?keyword=9384306", "method": "v3_2pass_track3d_fromru10d", "ru_seen_in_lookback": false, "in_monitor_on_day": true}}, {"type": "Feature", "geometry": {"type": "LineString", "coordinates": [[10.803881666666665, 55.80864999999999], [10.79413, 55.72176833333333], [11.068753333333332, 55.267786666666666], [11.079593333333333, 55.191451666666666], [11.03763, 55.11367666666667], [11.025458333333335, 55.03411833333333], [10.976256666666666, 54.96740833333333], [10.89282, 54.91463], [10.866443333333333, 54.848821666666666], [10.859848333333334, 54.78059833333334], [10.864791666666667, 54.70704666666666], [10.974325, 54.660615], [11.094925, 54.61437], [11.688631666666668, 54.439655], [11.826366666666667, 54.415034999999996], [11.977883333333333, 54.40604166666667]]}, "properties": {"label": "RIZVEL", "mmsi": "667002061", "imo": "9331141", "name": "RIZVEL", "shiptype": "", "first_seen_utc": "2026-01-01T20:12:54Z", "last_seen_utc": "2026-01-05T12:56:24Z", "destination": "GULF OF FINLAND", "eta": "{'Day': 8, 'Hour': 10, 'Minute': 0, 'Month': 1}", "display": "", "links": "<a href=\"https://www.vesselfinder.com/vessels?name=9331141\" target=\"_blank\" rel=\"noopener\">VesselFinder</a> | <a href=\"https://www.marinetraffic.com/en/ais/search/all?keyword=9331141\" target=\"_blank\" rel=\"noopener\">MarineTraffic</a>", "vf_url": "https://www.vesselfinder.com/vessels?name=9331141", "mst_url": "https://www.marinetraffic.com/en/ais/search/all?keyword=9331141", "method": "v3_2pass_track3d_fromru10d", "ru_seen_in_lookback": false, "in_monitor_on_day": true}}, {"type": "Feature", "geometry": {"type": "Point", "coordinates": [11.977883333333333, 54.40604166666667]}, "properties": {"label": "RIZVEL", "mmsi": "667002061", "imo": "9331141", "name": "RIZVEL", "shiptype": "", "first_seen_utc": "2026-01-01T20:12:54Z", "last_seen_utc": "2026-01-05T12:56:24Z", "destination": "GULF OF FINLAND", "eta": "{'Day': 8, 'Hour': 10, 'Minute': 0, 'Month': 1}", "display": "RIZVEL (667002061)", "links": "<a href=\"https://www.vesselfinder.com/vessels?name=9331141\" target=\"_blank\" rel=\"noopener\">VesselFinder</a> | <a href=\"https://www.marinetraffic.com/en/ais/search/all?keyword=9331141\" target=\"_blank\" rel=\"noopener\">MarineTraffic</a>", "vf_url": "https://www.vesselfinder.com/vessels?name=9331141", "mst_url": "https://www.marinetraffic.com/en/ais/search/all?keyword=9331141", "method": "v3_2pass_track3d_fromru10d", "ru_seen_in_lookback": false, "in_monitor_on_day": true}}, {"type": "Feature", "geometry": {"type": "LineString", "coordinates": [[7.4103216666666665, 57.03784333333333], [7.508123333333333, 57.127065], [7.643445, 57.20373166666666], [7.817891666666667, 57.264225], [7.999791666666667, 57.32385166666666], [8.19219, 57.38151833333333], [8.375578333333333, 57.433121666666665], [8.558546666666667, 57.48312], [8.737988333333334, 57.53176666666666], [8.915076666666666, 57.581336666666665], [9.078683333333334, 57.643615], [9.36832, 57.73898833333333], [9.553194999999999, 57.786460000000005], [9.776628333333333, 57.801741666666665], [9.967675000000002, 57.80266166666667], [10.178243333333334, 57.80809166666666], [10.388499999999999, 57.809525], [10.820543333333335, 55.57277666666666], [11.03129, 55.352848333333334], [11.083308333333333, 55.25014], [11.044995, 55.15652333333333], [11.027841666666665, 55.046823333333336], [10.952355, 54.959685], [10.87583, 54.89926166666667], [10.856781666666667, 54.80374333333334]]}, "properties": {"label": "ARCADIA", "mmsi": "461000247", "imo": "9413573", "name": "ARCADIA", "shiptype": "", "first_seen_utc": "2026-01-02T13:23:48Z", "last_seen_utc": "2026-01-05T16:03:13Z", "destination": "RUULU", "eta": "{'Day': 8, 'Hour': 7, 'Minute': 0, 'Month': 1}", "display": "", "links": "<a href=\"https://www.vesselfinder.com/vessels?name=9413573\" target=\"_blank\" rel=\"noopener\">VesselFinder</a> | <a href=\"https://www.marinetraffic.com/en/ais/search/all?keyword=9413573\" target=\"_blank\" rel=\"noopener\">MarineTraffic</a>", "vf_url": "https://www.vesselfinder.com/vessels?name=9413573", "mst_url": "https://www.marinetraffic.com/en/ais/search/all?keyword=9413573", "method": "v3_2pass_track3d_fromru10d", "ru_seen_in_lookback": false, "in_monitor_on_day": true}}, {"type": "Feature", "geometry": {"type": "Point", "coordinates": [10.856781666666667, 54.80374333333334]}, "properties": {"label": "ARCADIA", "mmsi": "461000247", "imo": "9413573", "name": "ARCADIA", "shiptype": "", "first_seen_utc": "2026-01-02T13:23:48Z", "last_seen_utc": "2026-01-05T16:03:13Z", "destination": "RUULU", "eta": "{'Day': 8, 'Hour': 7, 'Minute': 0, 'Month': 1}", "display": "ARCADIA (461000247)", "links": "<a href=\"https://www.vesselfinder.com/vessels?name=9413573\" target=\"_blank\" rel=\"noopener\">VesselFinder</a> | <a href=\"https://www.marinetraffic.com/en/ais/search/all?keyword=9413573\" target=\"_blank\" rel=\"noopener\">MarineTraffic</a>", "vf_url": "https://www.vesselfinder.com/vessels?name=9413573", "mst_url": "https://www.marinetraffic.com/en/ais/search/all?keyword=9413573", "method": "v3_2pass_track3d_fromru10d", "ru_seen_in_lookback": false, "in_monitor_on_day": true}}, {"type": "Feature", "geometry": {"type": "LineString", "coordinates": [[1.2705533333333332, 50.66135833333333], [1.3721366666666666, 50.72533833333333], [1.4229966666666667, 50.81093833333333], [1.46236, 50.90362833333334], [1.5322666666666669, 50.99529833333334], [1.6427533333333335, 51.06888166666667], [1.7798316666666667, 51.136375], [1.931825, 51.188855], [2.071205, 51.2445], [2.1110683333333333, 51.330175000000004], [2.1222333333333334, 51.418058333333335], [2.2186783333333335, 51.49442666666666], [2.4671516666666666, 51.69331666666667], [2.5557066666666666, 51.76650166666666], [2.59834, 51.850336666666664], [8.177973333333334, 57.20129], [8.639491666666666, 57.39143166666667], [8.750315, 57.437596666666664], [8.881086666666667, 57.493003333333334], [9.305318333333334, 57.65960166666667], [9.363916666666666, 57.74491833333333], [9.359048333333334, 57.795761666666664], [9.366383333333333, 57.816691666666664]]}, "properties": {"label": "AQUA LIVE", "mmsi": "307031000", "imo": "9282792", "name": "AQUA LIVE", "shiptype": "", "first_seen_utc": "2026-01-03T08:41:57Z", "last_seen_utc": "2026-01-05T15:53:09Z", "destination": "TALLINN FOR ORDER", "eta": "{'Day': 9, 'Hour': 12, 'Minute': 0, 'Month': 1}", "display": "", "links": "<a href=\"https://www.vesselfinder.com/vessels?name=9282792\" target=\"_blank\" rel=\"noopener\">VesselFinder</a> | <a href=\"https://www.marinetraffic.com/en/ais/search/all?keyword=9282792\" target=\"_blank\" rel=\"noopener\">MarineTraffic</a>", "vf_url": "https://www.vesselfinder.com/vessels?name=9282792", "mst_url": "https://www.marinetraffic.com/en/ais/search/all?keyword=9282792", "method": "v3_2pass_track3d_fromru10d", "ru_seen_in_lookback": false, "in_monitor_on_day": true}}, {"type": "Feature", "geometry": {"type": "Point", "coordinates": [9.366383333333333, 57.816691666666664]}, "properties": {"label": "AQUA LIVE", "mmsi": "307031000", "imo": "9282792", "name": "AQUA LIVE", "shiptype": "", "first_seen_utc": "2026-01-03T08:41:57Z", "last_seen_utc": "2026-01-05T15:53:09Z", "destination": "TALLINN FOR ORDER", "eta": "{'Day': 9, 'Hour': 12, 'Minute': 0, 'Month': 1}", "display": "AQUA LIVE (307031000)", "links": "<a href=\"https://www.vesselfinder.com/vessels?name=9282792\" target=\"_blank\" rel=\"noopener\">VesselFinder</a> | <a href=\"https://www.marinetraffic.com/en/ais/search/all?keyword=9282792\" target=\"_blank\" rel=\"noopener\">MarineTraffic</a>", "vf_url": "https://www.vesselfinder.com/vessels?name=9282792", "mst_url": "https://www.marinetraffic.com/en/ais/search/all?keyword=9282792", "method": "v3_2pass_track3d_fromru10d", "ru_seen_in_lookback": false, "in_monitor_on_day": true}}, {"type": "Feature", "geometry": {"type": "LineString", "coordinates": [[-0.5245983333333333, 50.24588000000001], [-0.3977266666666667, 50.26712], [-0.27230666666666664, 50.287695], [-0.14175833333333332, 50.308170000000004], [0.009811666666666666, 50.33074666666666], [1.2303533333333334, 50.62603], [1.3328933333333335, 50.691585], [1.4306750000000001, 50.755768333333336], [1.475425, 50.847854999999996], [1.5495533333333333, 50.939566666666664], [1.6633666666666669, 51.01885], [1.78342, 51.09943166666667], [1.9271150000000001, 51.161788333333334], [2.0886733333333334, 51.211801666666666], [2.159181666666667, 51.30394833333333], [2.152693333333333, 51.403088333333336], [2.4492016666666667, 51.66193666666666], [2.554795, 51.74647], [2.6372750000000003, 51.85035666666667], [2.7170833333333335, 51.954323333333335], [7.482498333333334, 56.96281833333333], [7.584228333333333, 57.0468], [7.683661666666667, 57.13143166666667], [7.77532, 57.21728333333333], [7.8733233333333335, 57.30628166666667], [8.026191666666668, 57.36188666666667], [8.206463333333334, 57.400645000000004], [8.39468, 57.44484]]}, "properties": {"label": "PROMETEI", "mmsi": "667001378", "imo": "9296597", "name": "PROMETEI", "shiptype": "", "first_seen_utc": "2026-01-03T13:28:45Z", "last_seen_utc": "2026-01-05T15:58:56Z", "destination": "GULF OF FINLAND", "eta": "{'Day': 9, 'Hour': 7, 'Minute': 0, 'Month': 1}", "display": "", "links": "<a href=\"https://www.vesselfinder.com/vessels?name=9296597\" target=\"_blank\" rel=\"noopener\">VesselFinder</a> | <a href=\"https://www.marinetraffic.com/en/ais/search/all?keyword=9296597\" target=\"_blank\" rel=\"noopener\">MarineTraffic</a>", "vf_url": "https://www.vesselfinder.com/vessels?name=9296597", "mst_url": "https://www.marinetraffic.com/en/ais/search/all?keyword=9296597", "method": "v3_2pass_track3d_fromru10d", "ru_seen_in_lookback": false, "in_monitor_on_day": true}}, {"type": "Feature", "geometry": {"type": "Point", "coordinates": [8.39468, 57.44484]}, "properties": {"label": "PROMETEI", "mmsi": "667001378", "imo": "9296597", "name": "PROMETEI", "shiptype": "", "first_seen_utc": "2026-01-03T13:28:45Z", "last_seen_utc": "2026-01-05T15:58:56Z", "destination": "GULF OF FINLAND", "eta": "{'Day': 9, 'Hour': 7, 'Minute': 0, 'Month': 1}", "display": "PROMETEI (667001378)", "links": "<a href=\"https://www.vesselfinder.com/vessels?name=9296597\" target=\"_blank\" rel=\"noopener\">VesselFinder</a> | <a href=\"https://www.marinetraffic.com/en/ais/search/all?keyword=9296597\" target=\"_blank\" rel=\"noopener\">MarineTraffic</a>", "vf_url": "https://www.vesselfinder.com/vessels?name=9296597", "mst_url": "https://www.marinetraffic.com/en/ais/search/all?keyword=9296597", "method": "v3_2pass_track3d_fromru10d", "ru_seen_in_lookback": false, "in_monitor_on_day": true}}, {"type": "Feature", "geometry": {"type": "LineString", "coordinates": [[-0.8361166666666667, 50.15137666666667], [-0.6672033333333334, 50.17794666666667], [-0.5093616666666666, 50.20433666666667], [-0.3589483333333333, 50.239335], [-0.2073616666666667, 50.26351], [-0.05535, 50.285665], [0.09997666666666666, 50.30593833333333], [1.2726966666666668, 50.63734833333333], [1.3701866666666667, 50.710791666666665], [1.4328833333333333, 50.79383833333333], [1.4723316666666666, 50.880575], [1.548565, 50.956498333333336], [1.6452733333333331, 51.02633166666667], [1.7521200000000001, 51.09695333333333], [1.8889449999999999, 51.158788333333334], [2.0518516666666664, 51.21388833333333], [2.1225633333333334, 51.30722], [2.1306366666666667, 51.419718333333336], [2.2865416666666665, 51.53324166666666], [2.4616266666666666, 51.65638666666667], [2.568975, 51.76047333333334], [2.6437216666666665, 51.879781666666666]]}, "properties": {"label": "BOBCAT", "mmsi": "461000234", "imo": "9422457", "name": "BOBCAT", "shiptype": "", "first_seen_utc": "2026-01-04T11:31:10Z", "last_seen_utc": "2026-01-05T02:22:09Z", "destination": "EGSUZ=>RUPRI", "eta": "{'Day': 9, 'Hour': 21, 'Minute': 1, 'Month': 1}", "display": "", "links": "<a href=\"https://www.vesselfinder.com/vessels?name=9422457\" target=\"_blank\" rel=\"noopener\">VesselFinder</a> | <a href=\"https://www.marinetraffic.com/en/ais/search/all?keyword=9422457\" target=\"_blank\" rel=\"noopener\">MarineTraffic</a>", "vf_url": "https://www.vesselfinder.com/vessels?name=9422457", "mst_url": "https://www.marinetraffic.com/en/ais/search/all?keyword=9422457", "method": "v3_2pass_track3d_fromru10d", "ru_seen_in_lookback": false, "in_monitor_on_day": true}}, {"type": "Feature", "geometry": {"type": "Point", "coordinates": [2.6437216666666665, 51.879781666666666]}, "properties": {"label": "BOBCAT", "mmsi": "461000234", "imo": "9422457", "name": "BOBCAT", "shiptype": "", "first_seen_utc": "2026-01-04T11:31:10Z", "last_seen_utc": "2026-01-05T02:22:09Z", "destination": "EGSUZ=>RUPRI", "eta": "{'Day': 9, 'Hour': 21, 'Minute': 1, 'Month': 1}", "display": "BOBCAT (461000234)", "links": "<a href=\"https://www.vesselfinder.com/vessels?name=9422457\" target=\"_blank\" rel=\"noopener\">VesselFinder</a> | <a href=\"https://www.marinetraffic.com/en/ais/search/all?keyword=9422457\" target=\"_blank\" rel=\"noopener\">MarineTraffic</a>", "vf_url": "https://www.vesselfinder.com/vessels?name=9422457", "mst_url": "https://www.marinetraffic.com/en/ais/search/all?keyword=9422457", "method": "v3_2pass_track3d_fromru10d", "ru_seen_in_lookback": false, "in_monitor_on_day": true}}, {"type": "Feature", "geometry": {"type": "LineString", "coordinates": [[4.0066999999999995, 58.15888333333333], [4.186283333333333, 58.11141666666666], [4.389966666666667, 58.06271666666667], [4.5656, 58.01293333333333], [4.748366666666667, 57.966233333333335], [4.931733333333333, 57.91823333333333], [5.113416666666667, 57.86601666666666], [5.835316666666667, 57.65846666666666], [6.005, 57.61718333333333], [6.183483333333333, 57.57795], [6.3562, 57.5344], [6.5261, 57.486266666666666], [6.711733333333333, 57.45865], [6.906549999999999, 57.458600000000004], [7.104983333333333, 57.459783333333334]]}, "properties": {"label": "SUN", "mmsi": "550750132", "imo": "9293117", "name": "SUN", "shiptype": "", "first_seen_utc": "2026-01-05T06:31:04Z", "last_seen_utc": "2026-01-05T15:34:05Z", "destination": "EE MUU", "eta": "{'Day': 9, 'Hour': 1, 'Minute': 0, 'Month': 1}", "display": "", "links": "<a href=\"https://www.vesselfinder.com/vessels?name=9293117\" target=\"_blank\" rel=\"noopener\">VesselFinder</a> | <a href=\"https://www.marinetraffic.com/en/ais/search/all?keyword=9293117\" target=\"_blank\" rel=\"noopener\">MarineTraffic</a>", "vf_url": "https://www.vesselfinder.com/vessels?name=9293117", "mst_url": "https://www.marinetraffic.com/en/ais/search/all?keyword=9293117", "method": "v3_2pass_track3d_fromru10d", "ru_seen_in_lookback": false, "in_monitor_on_day": true}}, {"type": "Feature", "geometry": {"type": "Point", "coordinates": [7.104983333333333, 57.459783333333334]}, "properties": {"label": "SUN", "mmsi": "550750132", "imo": "9293117", "name": "SUN", "shiptype": "", "first_seen_utc": "2026-01-05T06:31:04Z", "last_seen_utc": "2026-01-05T15:34:05Z", "destination": "EE MUU", "eta": "{'Day': 9, 'Hour': 1, 'Minute': 0, 'Month': 1}", "display": "SUN (550750132)", "links": "<a href=\"https://www.vesselfinder.com/vessels?name=9293117\" target=\"_blank\" rel=\"noopener\">VesselFinder</a> | <a href=\"https://www.marinetraffic.com/en/ais/search/all?keyword=9293117\" target=\"_blank\" rel=\"noopener\">MarineTraffic</a>", "vf_url": "https://www.vesselfinder.com/vessels?name=9293117", "mst_url": "https://www.marinetraffic.com/en/ais/search/all?keyword=9293117", "method": "v3_2pass_track3d_fromru10d", "ru_seen_in_lookback": false, "in_monitor_on_day": true}}, {"type": "Feature", "geometry": {"type": "LineString", "coordinates": [[-0.9772183333333333, 50.15228333333334], [-0.7550133333333334, 50.19132333333334], [-0.5437016666666667, 50.230215], [1.2436516666666668, 50.65017], [1.36638, 50.737015]]}, "properties": {"label": "JAGGER", "mmsi": "273277060", "imo": "9354301", "name": "JAGGER", "shiptype": "", "first_seen_utc": "2026-01-05T08:59:43Z", "last_seen_utc": "2026-01-05T15:37:21Z", "destination": "FOR ORDER", "eta": "{'Day': 11, 'Hour': 19, 'Minute': 0, 'Month': 1}", "display": "", "links": "<a href=\"https://www.vesselfinder.com/vessels?name=9354301\" target=\"_blank\" rel=\"noopener\">VesselFinder</a> | <a href=\"https://www.marinetraffic.com/en/ais/search/all?keyword=9354301\" target=\"_blank\" rel=\"noopener\">MarineTraffic</a>", "vf_url": "https://www.vesselfinder.com/vessels?name=9354301", "mst_url": "https://www.marinetraffic.com/en/ais/search/all?keyword=9354301", "method": "v3_2pass_track3d_fromru10d", "ru_seen_in_lookback": false, "in_monitor_on_day": true}}, {"type": "Feature", "geometry": {"type": "Point", "coordinates": [1.36638, 50.737015]}, "properties": {"label": "JAGGER", "mmsi": "273277060", "imo": "9354301", "name": "JAGGER", "shiptype": "", "first_seen_utc": "2026-01-05T08:59:43Z", "last_seen_utc": "2026-01-05T15:37:21Z", "destination": "FOR ORDER", "eta": "{'Day': 11, 'Hour': 19, 'Minute': 0, 'Month': 1}", "display": "JAGGER (273277060)", "links": "<a href=\"https://www.vesselfinder.com/vessels?name=9354301\" target=\"_blank\" rel=\"noopener\">VesselFinder</a> | <a href=\"https://www.marinetraffic.com/en/ais/search/all?keyword=9354301\" target=\"_blank\" rel=\"noopener\">MarineTraffic</a>", "vf_url": "https://www.vesselfinder.com/vessels?name=9354301", "mst_url": "https://www.marinetraffic.com/en/ais/search/all?keyword=9354301", "method": "v3_2pass_track3d_fromru10d", "ru_seen_in_lookback": false, "in_monitor_on_day": true}}]}