{"type": "FeatureCollection", "features": [{"type": "Feature", "geometry": {"type": "LineString", "coordinates": [[19.615703333333332, 54.776399999999995], [19.72300166666667, 54.69508833333334], [19.920988333333334, 54.633723333333336], [19.920861666666667, 54.633735]]}, "properties": {"label": "AMBAL", "mmsi": "273355410", "imo": "8807416", "name": "AMBAL", "shiptype": "", "first_seen_utc": "2026-01-07T11:24:31Z", "last_seen_utc": "2026-01-16T07:47:33Z", "destination": "RUULU/RUKGD", "eta": "{'Day': 15, 'Hour': 10, 'Minute': 0, 'Month': 1}", "display": "", "links": "<a href=\"https://www.vesselfinder.com/vessels?name=8807416\" target=\"_blank\" rel=\"noopener\">VesselFinder</a> | <a href=\"https://www.marinetraffic.com/en/ais/search/all?keyword=8807416\" target=\"_blank\" rel=\"noopener\">MarineTraffic</a>", "vf_url": "https://www.vesselfinder.com/vessels?name=8807416", "mst_url": "https://www.marinetraffic.com/en/ais/search/all?keyword=8807416", "method": "v3_2pass_track3d_fromru10d", "ru_seen_in_lookback": true, "in_monitor_on_day": true}}, {"type": "Feature", "geometry": {"type": "Point", "coordinates": [19.920861666666667, 54.633735]}, "properties": {"label": "AMBAL", "mmsi": "273355410", "imo": "8807416", "name": "AMBAL", "shiptype": "", "first_seen_utc": "2026-01-07T11:24:31Z", "last_seen_utc": "2026-01-16T07:47:33Z", "destination": "RUULU/RUKGD", "eta": "{'Day': 15, 'Hour': 10, 'Minute': 0, 'Month': 1}", "display": "AMBAL (273355410)", "links": "<a href=\"https://www.vesselfinder.com/vessels?name=8807416\" target=\"_blank\" rel=\"noopener\">VesselFinder</a> | <a href=\"https://www.marinetraffic.com/en/ais/search/all?keyword=8807416\" target=\"_blank\" rel=\"noopener\">MarineTraffic</a>", "vf_url": "https://www.vesselfinder.com/vessels?name=8807416", "mst_url": "https://www.marinetraffic.com/en/ais/search/all?keyword=8807416", "method": "v3_2pass_track3d_fromru10d", "ru_seen_in_lookback": true, "in_monitor_on_day": true}}, {"type": "Feature", "geometry": {"type": "LineString", "coordinates": [[15.276818333333333, 55.619479999999996], [15.100906666666667, 55.58986166666667], [14.935105, 55.549185], [14.768241666666666, 55.50406666666667], [14.609246666666667, 55.451895], [14.487488333333333, 55.367875000000005], [14.372853333333333, 55.28731666666667], [14.256998333333334, 55.206745], [14.141258333333333, 55.12014666666666], [14.008963333333332, 55.05387333333333], [12.413701666666666, 54.67535], [12.301611666666668, 54.618745], [12.22919, 54.52994666666667], [12.150665, 54.444536666666664], [11.969308333333334, 54.44406166666667], [11.796091666666666, 54.44526833333334], [11.63208, 54.47617], [11.4705, 54.515096666666665], [11.300858333333334, 54.56102833333333], [11.124685, 54.5942], [10.951355000000001, 54.615585], [10.791803333333332, 54.67505666666667], [10.800821666666668, 54.765256666666666], [10.836170000000001, 54.85971666666667], [10.925068333333334, 54.95247666666667], [10.995188333333335, 55.046925], [11.002128333333333, 55.15429166666667], [11.094755, 55.242855], [11.039566666666667, 55.354148333333335], [10.855851666666666, 55.536854999999996], [10.78916, 55.643588333333334], [10.80588, 55.75336666666667], [10.870453333333334, 55.857459999999996], [10.989328333333333, 55.94138]]}, "properties": {"label": "PRIMORYE", "mmsi": "273210220", "imo": "9236743", "name": "PRIMORYE", "shiptype": "", "first_seen_utc": "2026-01-07T11:31:17Z", "last_seen_utc": "2026-01-16T18:39:50Z", "destination": "FOR ORDER", "eta": "{'Day': 0, 'Hour': 24, 'Minute': 60, 'Month': 0}", "display": "", "links": "<a href=\"https://www.vesselfinder.com/vessels?name=9236743\" target=\"_blank\" rel=\"noopener\">VesselFinder</a> | <a href=\"https://www.marinetraffic.com/en/ais/search/all?keyword=9236743\" target=\"_blank\" rel=\"noopener\">MarineTraffic</a>", "vf_url": "https://www.vesselfinder.com/vessels?name=9236743", "mst_url": "https://www.marinetraffic.com/en/ais/search/all?keyword=9236743", "method": "v3_2pass_track3d_fromru10d", "ru_seen_in_lookback": true, "in_monitor_on_day": true}}, {"type": "Feature", "geometry": {"type": "Point", "coordinates": [10.989328333333333, 55.94138]}, "properties": {"label": "PRIMORYE", "mmsi": "273210220", "imo": "9236743", "name": "PRIMORYE", "shiptype": "", "first_seen_utc": "2026-01-07T11:31:17Z", "last_seen_utc": "2026-01-16T18:39:50Z", "destination": "FOR ORDER", "eta": "{'Day': 0, 'Hour': 24, 'Minute': 60, 'Month': 0}", "display": "PRIMORYE (273210220)", "links": "<a href=\"https://www.vesselfinder.com/vessels?name=9236743\" target=\"_blank\" rel=\"noopener\">VesselFinder</a> | <a href=\"https://www.marinetraffic.com/en/ais/search/all?keyword=9236743\" target=\"_blank\" rel=\"noopener\">MarineTraffic</a>", "vf_url": "https://www.vesselfinder.com/vessels?name=9236743", "mst_url": "https://www.marinetraffic.com/en/ais/search/all?keyword=9236743", "method": "v3_2pass_track3d_fromru10d", "ru_seen_in_lookback": true, "in_monitor_on_day": true}}, {"type": "Feature", "geometry": {"type": "Point", "coordinates": [20.24872333333333, 54.68751833333333]}, "properties": {"label": "MRTK-1117", "mmsi": "273249400", "imo": "8722214", "name": "MRTK-1117", "shiptype": "", "first_seen_utc": "2026-01-07T22:36:57Z", "last_seen_utc": "2026-01-16T13:09:25Z", "destination": "@@@@@@@@@ALTIC SEA", "eta": "{'Day': 0, 'Hour': 24, 'Minute': 60, 'Month': 0}", "display": "MRTK-1117 (273249400)", "links": "<a href=\"https://www.vesselfinder.com/vessels?name=8722214\" target=\"_blank\" rel=\"noopener\">VesselFinder</a> | <a href=\"https://www.marinetraffic.com/en/ais/search/all?keyword=8722214\" target=\"_blank\" rel=\"noopener\">MarineTraffic</a>", "vf_url": "https://www.vesselfinder.com/vessels?name=8722214", "mst_url": "https://www.marinetraffic.com/en/ais/search/all?keyword=8722214", "method": "v3_2pass_track3d_fromru10d", "ru_seen_in_lookback": true, "in_monitor_on_day": true}}, {"type": "Feature", "geometry": {"type": "LineString", "coordinates": [[28.19093333333333, 59.85019333333333], [18.951328333333333, 55.443801666666666], [18.988973333333334, 55.12726166666666], [19.179154999999998, 54.947628333333334], [19.358515, 54.82704666666667]]}, "properties": {"label": "MARSHAL ROKOSSOVSKY", "mmsi": "273214860", "imo": "9872341", "name": "MARSHAL ROKOSSOVSKY", "shiptype": "", "first_seen_utc": "2026-01-07T23:46:26Z", "last_seen_utc": "2026-01-16T05:32:31Z", "destination": "RU ULU=RU KGD=RU ULU", "eta": "{'Day': 8, 'Hour': 3, 'Minute': 0, 'Month': 1}", "display": "", "links": "<a href=\"https://www.vesselfinder.com/vessels?name=9872341\" target=\"_blank\" rel=\"noopener\">VesselFinder</a> | <a href=\"https://www.marinetraffic.com/en/ais/search/all?keyword=9872341\" target=\"_blank\" rel=\"noopener\">MarineTraffic</a>", "vf_url": "https://www.vesselfinder.com/vessels?name=9872341", "mst_url": "https://www.marinetraffic.com/en/ais/search/all?keyword=9872341", "method": "v3_2pass_track3d_fromru10d", "ru_seen_in_lookback": true, "in_monitor_on_day": true}}, {"type": "Feature", "geometry": {"type": "Point", "coordinates": [19.358515, 54.82704666666667]}, "properties": {"label": "MARSHAL ROKOSSOVSKY", "mmsi": "273214860", "imo": "9872341", "name": "MARSHAL ROKOSSOVSKY", "shiptype": "", "first_seen_utc": "2026-01-07T23:46:26Z", "last_seen_utc": "2026-01-16T05:32:31Z", "destination": "RU ULU=RU KGD=RU ULU", "eta": "{'Day': 8, 'Hour': 3, 'Minute': 0, 'Month': 1}", "display": "MARSHAL ROKOSSOVSKY (273214860)", "links": "<a href=\"https://www.vesselfinder.com/vessels?name=9872341\" target=\"_blank\" rel=\"noopener\">VesselFinder</a> | <a href=\"https://www.marinetraffic.com/en/ais/search/all?keyword=9872341\" target=\"_blank\" rel=\"noopener\">MarineTraffic</a>", "vf_url": "https://www.vesselfinder.com/vessels?name=9872341", "mst_url": "https://www.marinetraffic.com/en/ais/search/all?keyword=9872341", "method": "v3_2pass_track3d_fromru10d", "ru_seen_in_lookback": true, "in_monitor_on_day": true}}, {"type": "Feature", "geometry": {"type": "LineString", "coordinates": [[19.62990166666667, 54.66323833333333], [19.633866666666666, 54.68955166666667], [19.665196666666667, 54.64743], [19.622236666666666, 54.61805666666667]]}, "properties": {"label": "MARLIN", "mmsi": "273355510", "imo": "", "name": "MARLIN", "shiptype": "", "first_seen_utc": "2026-01-08T00:24:17Z", "last_seen_utc": "2026-01-16T16:52:03Z", "destination": "BALTIC SEA", "eta": "{'Day': 12, 'Hour': 23, 'Minute': 0, 'Month': 4}", "display": "", "links": "<a href=\"https://www.vesselfinder.com/vessels?name=273355510\" target=\"_blank\" rel=\"noopener\">VesselFinder</a> | <a href=\"https://www.marinetraffic.com/en/ais/search/all?keyword=273355510\" target=\"_blank\" rel=\"noopener\">MarineTraffic</a>", "vf_url": "https://www.vesselfinder.com/vessels?name=273355510", "mst_url": "https://www.marinetraffic.com/en/ais/search/all?keyword=273355510", "method": "v3_2pass_track3d_fromru10d", "ru_seen_in_lookback": true, "in_monitor_on_day": true}}, {"type": "Feature", "geometry": {"type": "Point", "coordinates": [19.622236666666666, 54.61805666666667]}, "properties": {"label": "MARLIN", "mmsi": "273355510", "imo": "", "name": "MARLIN", "shiptype": "", "first_seen_utc": "2026-01-08T00:24:17Z", "last_seen_utc": "2026-01-16T16:52:03Z", "destination": "BALTIC SEA", "eta": "{'Day': 12, 'Hour': 23, 'Minute': 0, 'Month': 4}", "display": "MARLIN (273355510)", "links": "<a href=\"https://www.vesselfinder.com/vessels?name=273355510\" target=\"_blank\" rel=\"noopener\">VesselFinder</a> | <a href=\"https://www.marinetraffic.com/en/ais/search/all?keyword=273355510\" target=\"_blank\" rel=\"noopener\">MarineTraffic</a>", "vf_url": "https://www.vesselfinder.com/vessels?name=273355510", "mst_url": "https://www.marinetraffic.com/en/ais/search/all?keyword=273355510", "method": "v3_2pass_track3d_fromru10d", "ru_seen_in_lookback": true, "in_monitor_on_day": true}}, {"type": "Feature", "geometry": {"type": "LineString", "coordinates": [[20.251918333333332, 54.68640333333334], [20.251918333333332, 54.686418333333336]]}, "properties": {"label": "MRTK-1118", "mmsi": "273248400", "imo": "8722202", "name": "MRTK-1118", "shiptype": "", "first_seen_utc": "2026-01-08T03:21:46Z", "last_seen_utc": "2026-01-16T14:05:15Z", "destination": "KALININGRAD", "eta": "{'Day': 10, 'Hour': 22, 'Minute': 0, 'Month': 3}", "display": "", "links": "<a href=\"https://www.vesselfinder.com/vessels?name=8722202\" target=\"_blank\" rel=\"noopener\">VesselFinder</a> | <a href=\"https://www.marinetraffic.com/en/ais/search/all?keyword=8722202\" target=\"_blank\" rel=\"noopener\">MarineTraffic</a>", "vf_url": "https://www.vesselfinder.com/vessels?name=8722202", "mst_url": "https://www.marinetraffic.com/en/ais/search/all?keyword=8722202", "method": "v3_2pass_track3d_fromru10d", "ru_seen_in_lookback": true, "in_monitor_on_day": true}}, {"type": "Feature", "geometry": {"type": "Point", "coordinates": [20.251918333333332, 54.686418333333336]}, "properties": {"label": "MRTK-1118", "mmsi": "273248400", "imo": "8722202", "name": "MRTK-1118", "shiptype": "", "first_seen_utc": "2026-01-08T03:21:46Z", "last_seen_utc": "2026-01-16T14:05:15Z", "destination": "KALININGRAD", "eta": "{'Day': 10, 'Hour': 22, 'Minute': 0, 'Month': 3}", "display": "MRTK-1118 (273248400)", "links": "<a href=\"https://www.vesselfinder.com/vessels?name=8722202\" target=\"_blank\" rel=\"noopener\">VesselFinder</a> | <a href=\"https://www.marinetraffic.com/en/ais/search/all?keyword=8722202\" target=\"_blank\" rel=\"noopener\">MarineTraffic</a>", "vf_url": "https://www.vesselfinder.com/vessels?name=8722202", "mst_url": "https://www.marinetraffic.com/en/ais/search/all?keyword=8722202", "method": "v3_2pass_track3d_fromru10d", "ru_seen_in_lookback": true, "in_monitor_on_day": true}}, {"type": "Feature", "geometry": {"type": "LineString", "coordinates": [[19.68142, 54.80343333333334], [19.622073333333333, 54.65978833333334], [19.661848333333335, 54.559823333333334]]}, "properties": {"label": "273445340", "mmsi": "273445340", "imo": "", "name": "", "shiptype": "", "first_seen_utc": "2026-01-08T03:55:14Z", "last_seen_utc": "2026-01-16T12:20:29Z", "destination": "", "eta": "", "display": "", "links": "<a href=\"https://www.vesselfinder.com/vessels?name=273445340\" target=\"_blank\" rel=\"noopener\">VesselFinder</a> | <a href=\"https://www.marinetraffic.com/en/ais/search/all?keyword=273445340\" target=\"_blank\" rel=\"noopener\">MarineTraffic</a>", "vf_url": "https://www.vesselfinder.com/vessels?name=273445340", "mst_url": "https://www.marinetraffic.com/en/ais/search/all?keyword=273445340", "method": "v3_2pass_track3d_fromru10d", "ru_seen_in_lookback": true, "in_monitor_on_day": true}}, {"type": "Feature", "geometry": {"type": "Point", "coordinates": [19.661848333333335, 54.559823333333334]}, "properties": {"label": "273445340", "mmsi": "273445340", "imo": "", "name": "", "shiptype": "", "first_seen_utc": "2026-01-08T03:55:14Z", "last_seen_utc": "2026-01-16T12:20:29Z", "destination": "", "eta": "", "display": "273445340 (273445340)", "links": "<a href=\"https://www.vesselfinder.com/vessels?name=273445340\" target=\"_blank\" rel=\"noopener\">VesselFinder</a> | <a href=\"https://www.marinetraffic.com/en/ais/search/all?keyword=273445340\" target=\"_blank\" rel=\"noopener\">MarineTraffic</a>", "vf_url": "https://www.vesselfinder.com/vessels?name=273445340", "mst_url": "https://www.marinetraffic.com/en/ais/search/all?keyword=273445340", "method": "v3_2pass_track3d_fromru10d", "ru_seen_in_lookback": true, "in_monitor_on_day": true}}, {"type": "Feature", "geometry": {"type": "LineString", "coordinates": [[30.19025, 59.88256166666667], [30.190211666666666, 59.88255166666667], [30.190271666666668, 59.88277], [18.990096666666666, 55.54665166666667], [19.011528333333334, 55.454485], [19.035498333333333, 55.33321], [19.126618333333333, 55.14445], [19.177961666666665, 55.04848666666667], [19.23528333333333, 54.942188333333334]]}, "properties": {"label": "FESCO NAVARIN", "mmsi": "273343170", "imo": "9296999", "name": "FESCO NAVARIN", "shiptype": "", "first_seen_utc": "2026-01-08T09:46:40Z", "last_seen_utc": "2026-01-16T10:16:40Z", "destination": "RU LED - RU KGD", "eta": "{'Day': 16, 'Hour': 13, 'Minute': 0, 'Month': 1}", "display": "", "links": "<a href=\"https://www.vesselfinder.com/vessels?name=9296999\" target=\"_blank\" rel=\"noopener\">VesselFinder</a> | <a href=\"https://www.marinetraffic.com/en/ais/search/all?keyword=9296999\" target=\"_blank\" rel=\"noopener\">MarineTraffic</a>", "vf_url": "https://www.vesselfinder.com/vessels?name=9296999", "mst_url": "https://www.marinetraffic.com/en/ais/search/all?keyword=9296999", "method": "v3_2pass_track3d_fromru10d", "ru_seen_in_lookback": true, "in_monitor_on_day": true}}, {"type": "Feature", "geometry": {"type": "Point", "coordinates": [19.23528333333333, 54.942188333333334]}, "properties": {"label": "FESCO NAVARIN", "mmsi": "273343170", "imo": "9296999", "name": "FESCO NAVARIN", "shiptype": "", "first_seen_utc": "2026-01-08T09:46:40Z", "last_seen_utc": "2026-01-16T10:16:40Z", "destination": "RU LED - RU KGD", "eta": "{'Day': 16, 'Hour': 13, 'Minute': 0, 'Month': 1}", "display": "FESCO NAVARIN (273343170)", "links": "<a href=\"https://www.vesselfinder.com/vessels?name=9296999\" target=\"_blank\" rel=\"noopener\">VesselFinder</a> | <a href=\"https://www.marinetraffic.com/en/ais/search/all?keyword=9296999\" target=\"_blank\" rel=\"noopener\">MarineTraffic</a>", "vf_url": "https://www.vesselfinder.com/vessels?name=9296999", "mst_url": "https://www.marinetraffic.com/en/ais/search/all?keyword=9296999", "method": "v3_2pass_track3d_fromru10d", "ru_seen_in_lookback": true, "in_monitor_on_day": true}}, {"type": "Feature", "geometry": {"type": "LineString", "coordinates": [[19.56761, 54.88071333333333], [19.60943166666667, 54.674776666666666], [19.635338333333333, 54.61677833333333], [19.683071666666667, 54.635106666666665]]}, "properties": {"label": "273291590", "mmsi": "273291590", "imo": "", "name": "", "shiptype": "", "first_seen_utc": "2026-01-08T20:47:46Z", "last_seen_utc": "2026-01-16T17:24:32Z", "destination": "", "eta": "", "display": "", "links": "<a href=\"https://www.vesselfinder.com/vessels?name=273291590\" target=\"_blank\" rel=\"noopener\">VesselFinder</a> | <a href=\"https://www.marinetraffic.com/en/ais/search/all?keyword=273291590\" target=\"_blank\" rel=\"noopener\">MarineTraffic</a>", "vf_url": "https://www.vesselfinder.com/vessels?name=273291590", "mst_url": "https://www.marinetraffic.com/en/ais/search/all?keyword=273291590", "method": "v3_2pass_track3d_fromru10d", "ru_seen_in_lookback": true, "in_monitor_on_day": true}}, {"type": "Feature", "geometry": {"type": "Point", "coordinates": [19.683071666666667, 54.635106666666665]}, "properties": {"label": "273291590", "mmsi": "273291590", "imo": "", "name": "", "shiptype": "", "first_seen_utc": "2026-01-08T20:47:46Z", "last_seen_utc": "2026-01-16T17:24:32Z", "destination": "", "eta": "", "display": "273291590 (273291590)", "links": "<a href=\"https://www.vesselfinder.com/vessels?name=273291590\" target=\"_blank\" rel=\"noopener\">VesselFinder</a> | <a href=\"https://www.marinetraffic.com/en/ais/search/all?keyword=273291590\" target=\"_blank\" rel=\"noopener\">MarineTraffic</a>", "vf_url": "https://www.vesselfinder.com/vessels?name=273291590", "mst_url": "https://www.marinetraffic.com/en/ais/search/all?keyword=273291590", "method": "v3_2pass_track3d_fromru10d", "ru_seen_in_lookback": true, "in_monitor_on_day": true}}, {"type": "Feature", "geometry": {"type": "LineString", "coordinates": [[19.962406666666666, 54.63593], [19.75219333333333, 54.697959999999995], [19.53778, 54.75382166666667], [19.34072666666667, 54.77664]]}, "properties": {"label": "CRYSTAL VLADIVOSTOK", "mmsi": "273217120", "imo": "9251509", "name": "CRYSTAL VLADIVOSTOK", "shiptype": "", "first_seen_utc": "2026-01-09T04:48:54Z", "last_seen_utc": "2026-01-16T14:00:23Z", "destination": "RULED", "eta": "{'Day': 18, 'Hour': 12, 'Minute': 0, 'Month': 1}", "display": "", "links": "<a href=\"https://www.vesselfinder.com/vessels?name=9251509\" target=\"_blank\" rel=\"noopener\">VesselFinder</a> | <a href=\"https://www.marinetraffic.com/en/ais/search/all?keyword=9251509\" target=\"_blank\" rel=\"noopener\">MarineTraffic</a>", "vf_url": "https://www.vesselfinder.com/vessels?name=9251509", "mst_url": "https://www.marinetraffic.com/en/ais/search/all?keyword=9251509", "method": "v3_2pass_track3d_fromru10d", "ru_seen_in_lookback": true, "in_monitor_on_day": true}}, {"type": "Feature", "geometry": {"type": "Point", "coordinates": [19.34072666666667, 54.77664]}, "properties": {"label": "CRYSTAL VLADIVOSTOK", "mmsi": "273217120", "imo": "9251509", "name": "CRYSTAL VLADIVOSTOK", "shiptype": "", "first_seen_utc": "2026-01-09T04:48:54Z", "last_seen_utc": "2026-01-16T14:00:23Z", "destination": "RULED", "eta": "{'Day': 18, 'Hour': 12, 'Minute': 0, 'Month': 1}", "display": "CRYSTAL VLADIVOSTOK (273217120)", "links": "<a href=\"https://www.vesselfinder.com/vessels?name=9251509\" target=\"_blank\" rel=\"noopener\">VesselFinder</a> | <a href=\"https://www.marinetraffic.com/en/ais/search/all?keyword=9251509\" target=\"_blank\" rel=\"noopener\">MarineTraffic</a>", "vf_url": "https://www.vesselfinder.com/vessels?name=9251509", "mst_url": "https://www.marinetraffic.com/en/ais/search/all?keyword=9251509", "method": "v3_2pass_track3d_fromru10d", "ru_seen_in_lookback": true, "in_monitor_on_day": true}}, {"type": "Feature", "geometry": {"type": "LineString", "coordinates": [[7.821185, 57.17043666666667], [7.992361666666667, 57.235895], [8.186919999999999, 57.30186333333334], [8.617031666666666, 57.45030833333333], [8.792726666666665, 57.51070666666667], [8.998653333333333, 57.581331666666664], [9.177695, 57.64209], [9.34544, 57.701483333333336], [9.609208333333333, 57.789946666666665], [9.848268333333333, 57.79772666666667], [12.396071666666668, 56.196315], [12.504529999999999, 56.12439666666667], [12.638881666666666, 56.05448333333333], [12.630681666666668, 55.957660000000004], [12.667823333333333, 55.86308333333333], [12.699858333333333, 55.770250000000004], [12.686658333333332, 55.673390000000005], [12.700478333333333, 55.585521666666665], [12.685583333333334, 55.502590000000005], [12.638141666666666, 55.40788166666667], [12.617536666666666, 55.313015], [12.766723333333335, 55.26777166666667], [13.01447, 55.23569666666666], [13.303831666666667, 55.21671333333334], [14.182791666666667, 55.16529666666667], [14.328468333333332, 55.20512], [14.459810000000001, 55.27708], [14.583915, 55.35171666666667], [14.725335, 55.40698666666666], [14.788705, 55.42632833333333], [14.941541666666666, 55.47174333333333], [15.097443333333333, 55.520878333333336], [15.252886666666665, 55.56505666666667], [15.428246666666666, 55.61193166666667], [18.30948, 56.11066], [18.480723333333334, 56.16734833333333]]}, "properties": {"label": "MELITO CARRIER", "mmsi": "273257120", "imo": "8920581", "name": "MELITO CARRIER", "shiptype": "", "first_seen_utc": "2026-01-12T09:54:47Z", "last_seen_utc": "2026-01-16T00:26:08Z", "destination": "RU LED", "eta": "{'Day': 18, 'Hour': 12, 'Minute': 0, 'Month': 1}", "display": "", "links": "<a href=\"https://www.vesselfinder.com/vessels?name=8920581\" target=\"_blank\" rel=\"noopener\">VesselFinder</a> | <a href=\"https://www.marinetraffic.com/en/ais/search/all?keyword=8920581\" target=\"_blank\" rel=\"noopener\">MarineTraffic</a>", "vf_url": "https://www.vesselfinder.com/vessels?name=8920581", "mst_url": "https://www.marinetraffic.com/en/ais/search/all?keyword=8920581", "method": "v3_2pass_track3d_fromru10d", "ru_seen_in_lookback": false, "in_monitor_on_day": true}}, {"type": "Feature", "geometry": {"type": "Point", "coordinates": [18.480723333333334, 56.16734833333333]}, "properties": {"label": "MELITO CARRIER", "mmsi": "273257120", "imo": "8920581", "name": "MELITO CARRIER", "shiptype": "", "first_seen_utc": "2026-01-12T09:54:47Z", "last_seen_utc": "2026-01-16T00:26:08Z", "destination": "RU LED", "eta": "{'Day': 18, 'Hour': 12, 'Minute': 0, 'Month': 1}", "display": "MELITO CARRIER (273257120)", "links": "<a href=\"https://www.vesselfinder.com/vessels?name=8920581\" target=\"_blank\" rel=\"noopener\">VesselFinder</a> | <a href=\"https://www.marinetraffic.com/en/ais/search/all?keyword=8920581\" target=\"_blank\" rel=\"noopener\">MarineTraffic</a>", "vf_url": "https://www.vesselfinder.com/vessels?name=8920581", "mst_url": "https://www.marinetraffic.com/en/ais/search/all?keyword=8920581", "method": "v3_2pass_track3d_fromru10d", "ru_seen_in_lookback": false, "in_monitor_on_day": true}}, {"type": "Feature", "geometry": {"type": "LineString", "coordinates": [[7.995903333333334, 57.135236666666664], [8.089220000000001, 57.233365000000006], [8.176631666666667, 57.309713333333335], [8.340085, 57.35079666666666], [8.482708333333333, 57.39858666666667], [8.611261666666667, 57.45032833333333], [8.750181666666666, 57.49682], [8.884968333333335, 57.54548666666667], [9.054825, 57.610765], [9.256203333333334, 57.680701666666664], [9.403220000000001, 57.73052], [9.549168333333334, 57.779331666666664], [9.729144999999999, 57.804343333333335], [9.897783333333333, 57.805978333333336], [10.05476, 57.80953], [10.21489, 57.81010666666667], [10.373568333333333, 57.810465], [12.391543333333335, 56.1999], [12.466501666666666, 56.138758333333335], [12.540608333333333, 56.104391666666665], [12.651784999999999, 56.041871666666665], [12.648636666666667, 55.93724833333333], [12.69661, 55.83021], [12.680209999999999, 55.724180000000004], [12.694273333333333, 55.62782166666667], [12.706715, 55.54654166666667], [12.684140000000001, 55.477695000000004], [12.654993333333334, 55.39588333333334], [12.629326666666666, 55.31567], [12.757038333333332, 55.27154666666667], [12.901556666666666, 55.23744], [13.050198333333332, 55.22443333333333], [13.697385, 55.185669999999995], [13.855793333333335, 55.176678333333335], [14.138776666666667, 55.17562833333333], [14.303441666666666, 55.186205], [14.426345, 55.24362333333333], [14.542708333333334, 55.322105], [14.652473333333335, 55.397270000000006], [14.791583333333334, 55.43643833333333], [14.956445, 55.47988]]}, "properties": {"label": "ARIADNE", "mmsi": "273268690", "imo": "9397547", "name": "ARIADNE", "shiptype": "", "first_seen_utc": "2026-01-12T11:50:42Z", "last_seen_utc": "2026-01-16T07:36:42Z", "destination": "EGPSD>RUULU", "eta": "{'Day': 18, 'Hour': 15, 'Minute': 0, 'Month': 1}", "display": "", "links": "<a href=\"https://www.vesselfinder.com/vessels?name=9397547\" target=\"_blank\" rel=\"noopener\">VesselFinder</a> | <a href=\"https://www.marinetraffic.com/en/ais/search/all?keyword=9397547\" target=\"_blank\" rel=\"noopener\">MarineTraffic</a>", "vf_url": "https://www.vesselfinder.com/vessels?name=9397547", "mst_url": "https://www.marinetraffic.com/en/ais/search/all?keyword=9397547", "method": "v3_2pass_track3d_fromru10d", "ru_seen_in_lookback": false, "in_monitor_on_day": true}}, {"type": "Feature", "geometry": {"type": "Point", "coordinates": [14.956445, 55.47988]}, "properties": {"label": "ARIADNE", "mmsi": "273268690", "imo": "9397547", "name": "ARIADNE", "shiptype": "", "first_seen_utc": "2026-01-12T11:50:42Z", "last_seen_utc": "2026-01-16T07:36:42Z", "destination": "EGPSD>RUULU", "eta": "{'Day': 18, 'Hour': 15, 'Minute': 0, 'Month': 1}", "display": "ARIADNE (273268690)", "links": "<a href=\"https://www.vesselfinder.com/vessels?name=9397547\" target=\"_blank\" rel=\"noopener\">VesselFinder</a> | <a href=\"https://www.marinetraffic.com/en/ais/search/all?keyword=9397547\" target=\"_blank\" rel=\"noopener\">MarineTraffic</a>", "vf_url": "https://www.vesselfinder.com/vessels?name=9397547", "mst_url": "https://www.marinetraffic.com/en/ais/search/all?keyword=9397547", "method": "v3_2pass_track3d_fromru10d", "ru_seen_in_lookback": false, "in_monitor_on_day": true}}, {"type": "Feature", "geometry": {"type": "LineString", "coordinates": [[7.289808333333334, 56.832901666666665], [7.469938333333333, 57.014853333333335], [7.965310000000001, 57.273665], [10.057905, 57.80112666666666], [10.343306666666667, 57.80913833333333], [10.970538333333334, 55.93599833333334], [10.890105, 55.88176], [10.806701666666667, 55.82854333333333], [10.803661666666667, 55.75879166666667], [10.779121666666667, 55.687525], [11.030065, 55.35515], [11.056396666666666, 55.284414999999996], [11.097073333333332, 55.21573166666667], [11.045856666666667, 55.15177333333334], [11.031628333333334, 55.078603333333334]]}, "properties": {"label": "ONEGA", "mmsi": "273273930", "imo": "9384459", "name": "ONEGA", "shiptype": "", "first_seen_utc": "2026-01-13T00:13:03Z", "last_seen_utc": "2026-01-16T18:30:22Z", "destination": "RUKGD", "eta": "{'Day': 18, 'Hour': 18, 'Minute': 0, 'Month': 1}", "display": "", "links": "<a href=\"https://www.vesselfinder.com/vessels?name=9384459\" target=\"_blank\" rel=\"noopener\">VesselFinder</a> | <a href=\"https://www.marinetraffic.com/en/ais/search/all?keyword=9384459\" target=\"_blank\" rel=\"noopener\">MarineTraffic</a>", "vf_url": "https://www.vesselfinder.com/vessels?name=9384459", "mst_url": "https://www.marinetraffic.com/en/ais/search/all?keyword=9384459", "method": "v3_2pass_track3d_fromru10d", "ru_seen_in_lookback": false, "in_monitor_on_day": true}}, {"type": "Feature", "geometry": {"type": "Point", "coordinates": [11.031628333333334, 55.078603333333334]}, "properties": {"label": "ONEGA", "mmsi": "273273930", "imo": "9384459", "name": "ONEGA", "shiptype": "", "first_seen_utc": "2026-01-13T00:13:03Z", "last_seen_utc": "2026-01-16T18:30:22Z", "destination": "RUKGD", "eta": "{'Day': 18, 'Hour': 18, 'Minute': 0, 'Month': 1}", "display": "ONEGA (273273930)", "links": "<a href=\"https://www.vesselfinder.com/vessels?name=9384459\" target=\"_blank\" rel=\"noopener\">VesselFinder</a> | <a href=\"https://www.marinetraffic.com/en/ais/search/all?keyword=9384459\" target=\"_blank\" rel=\"noopener\">MarineTraffic</a>", "vf_url": "https://www.vesselfinder.com/vessels?name=9384459", "mst_url": "https://www.marinetraffic.com/en/ais/search/all?keyword=9384459", "method": "v3_2pass_track3d_fromru10d", "ru_seen_in_lookback": false, "in_monitor_on_day": true}}, {"type": "Feature", "geometry": {"type": "Point", "coordinates": [19.592666666666666, 54.508963333333334]}, "properties": {"label": "MRTK GLORIA", "mmsi": "273411240", "imo": "8960713", "name": "MRTK GLORIA", "shiptype": "", "first_seen_utc": "2026-01-13T22:40:34Z", "last_seen_utc": "2026-01-16T16:16:42Z", "destination": "KALININGRAD", "eta": "{'Day': 27, 'Hour': 10, 'Minute': 0, 'Month': 2}", "display": "MRTK GLORIA (273411240)", "links": "<a href=\"https://www.vesselfinder.com/vessels?name=8960713\" target=\"_blank\" rel=\"noopener\">VesselFinder</a> | <a href=\"https://www.marinetraffic.com/en/ais/search/all?keyword=8960713\" target=\"_blank\" rel=\"noopener\">MarineTraffic</a>", "vf_url": "https://www.vesselfinder.com/vessels?name=8960713", "mst_url": "https://www.marinetraffic.com/en/ais/search/all?keyword=8960713", "method": "v3_2pass_track3d_fromru10d", "ru_seen_in_lookback": true, "in_monitor_on_day": true}}, {"type": "Feature", "geometry": {"type": "LineString", "coordinates": [[19.568936666666666, 54.57949333333333], [19.594561666666667, 54.49756], [19.593678333333333, 54.50541166666667], [19.600635, 54.52769], [19.646911666666664, 54.532465]]}, "properties": {"label": "273424330", "mmsi": "273424330", "imo": "", "name": "", "shiptype": "", "first_seen_utc": "2026-01-13T23:17:06Z", "last_seen_utc": "2026-01-16T17:11:16Z", "destination": "", "eta": "", "display": "", "links": "<a href=\"https://www.vesselfinder.com/vessels?name=273424330\" target=\"_blank\" rel=\"noopener\">VesselFinder</a> | <a href=\"https://www.marinetraffic.com/en/ais/search/all?keyword=273424330\" target=\"_blank\" rel=\"noopener\">MarineTraffic</a>", "vf_url": "https://www.vesselfinder.com/vessels?name=273424330", "mst_url": "https://www.marinetraffic.com/en/ais/search/all?keyword=273424330", "method": "v3_2pass_track3d_fromru10d", "ru_seen_in_lookback": true, "in_monitor_on_day": true}}, {"type": "Feature", "geometry": {"type": "Point", "coordinates": [19.646911666666664, 54.532465]}, "properties": {"label": "273424330", "mmsi": "273424330", "imo": "", "name": "", "shiptype": "", "first_seen_utc": "2026-01-13T23:17:06Z", "last_seen_utc": "2026-01-16T17:11:16Z", "destination": "", "eta": "", "display": "273424330 (273424330)", "links": "<a href=\"https://www.vesselfinder.com/vessels?name=273424330\" target=\"_blank\" rel=\"noopener\">VesselFinder</a> | <a href=\"https://www.marinetraffic.com/en/ais/search/all?keyword=273424330\" target=\"_blank\" rel=\"noopener\">MarineTraffic</a>", "vf_url": "https://www.vesselfinder.com/vessels?name=273424330", "mst_url": "https://www.marinetraffic.com/en/ais/search/all?keyword=273424330", "method": "v3_2pass_track3d_fromru10d", "ru_seen_in_lookback": true, "in_monitor_on_day": true}}, {"type": "Feature", "geometry": {"type": "LineString", "coordinates": [[15.39858, 55.666266666666665], [15.253781666666667, 55.63944166666667], [15.114325000000001, 55.60535166666667], [14.98013, 55.566206666666666], [14.843208333333333, 55.523955], [14.706295, 55.48093333333334], [14.58275, 55.43146], [14.487453333333333, 55.36394666666667], [14.396923333333332, 55.29691666666667], [14.301733333333335, 55.22689166666667], [14.208315, 55.15920666666667], [14.116756666666667, 55.091168333333336], [13.976125, 55.05045666666667], [13.828383333333333, 55.020473333333335], [12.225711666666665, 54.52331166666667], [12.166148333333332, 54.444525], [12.010345000000001, 54.436105], [11.858468333333333, 54.436031666666665], [11.70994, 54.44815333333334], [11.576455000000001, 54.48518833333333], [11.435388333333332, 54.523865], [11.286648333333334, 54.56985833333333], [11.137346666666668, 54.607510000000005], [10.987778333333333, 54.61047666666666], [10.838681666666668, 54.662910000000004], [10.78021, 54.733556666666665], [10.835241666666667, 54.815335], [10.857148333333333, 54.902849999999994], [10.958038333333333, 54.96950833333334], [11.003863333333333, 55.05464], [10.993356666666667, 55.14245666666667], [11.102408333333333, 55.20849], [11.054705, 55.29363166666667], [10.800198333333332, 55.615855], [10.796056666666667, 55.70690666666667]]}, "properties": {"label": "STANISLAV GOVORUKHIN", "mmsi": "273258520", "imo": "9621596", "name": "STANISLAV GOVORUKHIN", "shiptype": "", "first_seen_utc": "2026-01-15T17:52:24Z", "last_seen_utc": "2026-01-16T18:32:00Z", "destination": "GIBRALTR FOR ORDERS", "eta": "{'Day': 25, 'Hour': 5, 'Minute': 0, 'Month': 1}", "display": "", "links": "<a href=\"https://www.vesselfinder.com/vessels?name=9621596\" target=\"_blank\" rel=\"noopener\">VesselFinder</a> | <a href=\"https://www.marinetraffic.com/en/ais/search/all?keyword=9621596\" target=\"_blank\" rel=\"noopener\">MarineTraffic</a>", "vf_url": "https://www.vesselfinder.com/vessels?name=9621596", "mst_url": "https://www.marinetraffic.com/en/ais/search/all?keyword=9621596", "method": "v3_2pass_track3d_fromru10d", "ru_seen_in_lookback": false, "in_monitor_on_day": true}}, {"type": "Feature", "geometry": {"type": "Point", "coordinates": [10.796056666666667, 55.70690666666667]}, "properties": {"label": "STANISLAV GOVORUKHIN", "mmsi": "273258520", "imo": "9621596", "name": "STANISLAV GOVORUKHIN", "shiptype": "", "first_seen_utc": "2026-01-15T17:52:24Z", "last_seen_utc": "2026-01-16T18:32:00Z", "destination": "GIBRALTR FOR ORDERS", "eta": "{'Day': 25, 'Hour': 5, 'Minute': 0, 'Month': 1}", "display": "STANISLAV GOVORUKHIN (273258520)", "links": "<a href=\"https://www.vesselfinder.com/vessels?name=9621596\" target=\"_blank\" rel=\"noopener\">VesselFinder</a> | <a href=\"https://www.marinetraffic.com/en/ais/search/all?keyword=9621596\" target=\"_blank\" rel=\"noopener\">MarineTraffic</a>", "vf_url": "https://www.vesselfinder.com/vessels?name=9621596", "mst_url": "https://www.marinetraffic.com/en/ais/search/all?keyword=9621596", "method": "v3_2pass_track3d_fromru10d", "ru_seen_in_lookback": false, "in_monitor_on_day": true}}, {"type": "Feature", "geometry": {"type": "LineString", "coordinates": [[3.6995283333333333, 58.74189833333333], [3.875995, 58.70791], [4.0511099999999995, 58.661359999999995], [4.225585, 58.611115000000005], [4.389928333333333, 58.56489], [4.5644149999999994, 58.51574166666667], [4.72789, 58.46695166666667], [4.887575, 58.42243833333334], [5.057238333333333, 58.380453333333335], [5.210231666666667, 58.33260833333333], [5.337848333333333, 58.274604999999994], [5.46248, 58.21563666666667], [5.586496666666666, 58.16010333333334], [5.723938333333334, 58.102788333333336], [5.857033333333334, 58.038545], [5.999766666666667, 57.97862333333333], [6.120355, 57.921081666666666], [6.2425033333333335, 57.86574333333333], [6.365095, 57.810425], [6.502743333333333, 57.74789333333333], [6.669553333333334, 57.714888333333334], [6.853735, 57.708735000000004], [7.041236666666666, 57.70254166666667], [7.229701666666667, 57.69979166666667], [7.414668333333334, 57.69186666666667], [7.605594999999999, 57.68725333333334], [7.79267, 57.682545], [7.984205, 57.68445666666666], [8.174673333333333, 57.69441], [8.364468333333333, 57.70460833333333], [8.551838333333334, 57.71311], [8.750493333333333, 57.72522333333333], [8.953108333333335, 57.73705333333333], [9.179803333333332, 57.748185], [9.72937, 57.790115], [10.128145, 57.806871666666666], [10.376381666666667, 57.806911666666664]]}, "properties": {"label": "TRUST", "mmsi": "273271950", "imo": "9382798", "name": "TRUST", "shiptype": "", "first_seen_utc": "2026-01-15T20:02:37Z", "last_seen_utc": "2026-01-16T16:04:13Z", "destination": "RUULU", "eta": "{'Day': 19, 'Hour': 14, 'Minute': 0, 'Month': 1}", "display": "", "links": "<a href=\"https://www.vesselfinder.com/vessels?name=9382798\" target=\"_blank\" rel=\"noopener\">VesselFinder</a> | <a href=\"https://www.marinetraffic.com/en/ais/search/all?keyword=9382798\" target=\"_blank\" rel=\"noopener\">MarineTraffic</a>", "vf_url": "https://www.vesselfinder.com/vessels?name=9382798", "mst_url": "https://www.marinetraffic.com/en/ais/search/all?keyword=9382798", "method": "v3_2pass_track3d_fromru10d", "ru_seen_in_lookback": false, "in_monitor_on_day": true}}, {"type": "Feature", "geometry": {"type": "Point", "coordinates": [10.376381666666667, 57.806911666666664]}, "properties": {"label": "TRUST", "mmsi": "273271950", "imo": "9382798", "name": "TRUST", "shiptype": "", "first_seen_utc": "2026-01-15T20:02:37Z", "last_seen_utc": "2026-01-16T16:04:13Z", "destination": "RUULU", "eta": "{'Day': 19, 'Hour': 14, 'Minute': 0, 'Month': 1}", "display": "TRUST (273271950)", "links": "<a href=\"https://www.vesselfinder.com/vessels?name=9382798\" target=\"_blank\" rel=\"noopener\">VesselFinder</a> | <a href=\"https://www.marinetraffic.com/en/ais/search/all?keyword=9382798\" target=\"_blank\" rel=\"noopener\">MarineTraffic</a>", "vf_url": "https://www.vesselfinder.com/vessels?name=9382798", "mst_url": "https://www.marinetraffic.com/en/ais/search/all?keyword=9382798", "method": "v3_2pass_track3d_fromru10d", "ru_seen_in_lookback": false, "in_monitor_on_day": true}}, {"type": "Feature", "geometry": {"type": "Point", "coordinates": [19.891943333333334, 54.880115]}, "properties": {"label": "273294280", "mmsi": "273294280", "imo": "", "name": "", "shiptype": "", "first_seen_utc": "2026-01-16T00:22:40Z", "last_seen_utc": "2026-01-16T00:22:40Z", "destination": "", "eta": "", "display": "273294280 (273294280)", "links": "<a href=\"https://www.vesselfinder.com/vessels?name=273294280\" target=\"_blank\" rel=\"noopener\">VesselFinder</a> | <a href=\"https://www.marinetraffic.com/en/ais/search/all?keyword=273294280\" target=\"_blank\" rel=\"noopener\">MarineTraffic</a>", "vf_url": "https://www.vesselfinder.com/vessels?name=273294280", "mst_url": "https://www.marinetraffic.com/en/ais/search/all?keyword=273294280", "method": "v3_2pass_track3d_fromru10d", "ru_seen_in_lookback": true, "in_monitor_on_day": true}}, {"type": "Feature", "geometry": {"type": "LineString", "coordinates": [[-1.2348216666666665, 50.106655], [-0.674565, 50.21216833333334], [-0.5388283333333334, 50.23779833333333], [-0.41333333333333333, 50.26189166666666], [-0.28497500000000003, 50.28592166666667], [1.2645183333333334, 50.68340833333333], [1.3376516666666667, 50.743534999999994], [1.3682166666666666, 50.817564999999995], [1.3985583333333333, 50.89382666666667], [1.4575749999999998, 50.96134833333333], [1.53817, 51.019645], [1.6226866666666666, 51.07405333333334], [1.6955133333333334, 51.12842333333333], [1.7631000000000001, 51.182048333333334], [1.83035, 51.231923333333334], [1.8966666666666667, 51.279511666666664], [1.9611583333333333, 51.32701333333333], [2.022695, 51.373063333333334]]}, "properties": {"label": "ADLER", "mmsi": "273414440", "imo": "9179854", "name": "ADLER", "shiptype": "", "first_seen_utc": "2026-01-16T01:00:05Z", "last_seen_utc": "2026-01-16T18:12:34Z", "destination": "TO ORDER", "eta": "{'Day': 24, 'Hour': 0, 'Minute': 0, 'Month': 1}", "display": "", "links": "<a href=\"https://www.vesselfinder.com/vessels?name=9179854\" target=\"_blank\" rel=\"noopener\">VesselFinder</a> | <a href=\"https://www.marinetraffic.com/en/ais/search/all?keyword=9179854\" target=\"_blank\" rel=\"noopener\">MarineTraffic</a>", "vf_url": "https://www.vesselfinder.com/vessels?name=9179854", "mst_url": "https://www.marinetraffic.com/en/ais/search/all?keyword=9179854", "method": "v3_2pass_track3d_fromru10d", "ru_seen_in_lookback": false, "in_monitor_on_day": true}}, {"type": "Feature", "geometry": {"type": "Point", "coordinates": [2.022695, 51.373063333333334]}, "properties": {"label": "ADLER", "mmsi": "273414440", "imo": "9179854", "name": "ADLER", "shiptype": "", "first_seen_utc": "2026-01-16T01:00:05Z", "last_seen_utc": "2026-01-16T18:12:34Z", "destination": "TO ORDER", "eta": "{'Day': 24, 'Hour': 0, 'Minute': 0, 'Month': 1}", "display": "ADLER (273414440)", "links": "<a href=\"https://www.vesselfinder.com/vessels?name=9179854\" target=\"_blank\" rel=\"noopener\">VesselFinder</a> | <a href=\"https://www.marinetraffic.com/en/ais/search/all?keyword=9179854\" target=\"_blank\" rel=\"noopener\">MarineTraffic</a>", "vf_url": "https://www.vesselfinder.com/vessels?name=9179854", "mst_url": "https://www.marinetraffic.com/en/ais/search/all?keyword=9179854", "method": "v3_2pass_track3d_fromru10d", "ru_seen_in_lookback": false, "in_monitor_on_day": true}}, {"type": "Feature", "geometry": {"type": "LineString", "coordinates": [[18.9006, 55.6518], [18.947116666666666, 55.49868333333333], [19.196216666666665, 54.9711], [19.557983333333333, 54.75505]]}, "properties": {"label": "RZK CONSTANTA", "mmsi": "273148510", "imo": "8711289", "name": "RZK CONSTANTA", "shiptype": "", "first_seen_utc": "2026-01-16T08:02:34Z", "last_seen_utc": "2026-01-16T14:49:53Z", "destination": "RU KGD", "eta": "{'Day': 16, 'Hour': 17, 'Minute': 0, 'Month': 1}", "display": "", "links": "<a href=\"https://www.vesselfinder.com/vessels?name=8711289\" target=\"_blank\" rel=\"noopener\">VesselFinder</a> | <a href=\"https://www.marinetraffic.com/en/ais/search/all?keyword=8711289\" target=\"_blank\" rel=\"noopener\">MarineTraffic</a>", "vf_url": "https://www.vesselfinder.com/vessels?name=8711289", "mst_url": "https://www.marinetraffic.com/en/ais/search/all?keyword=8711289", "method": "v3_2pass_track3d_fromru10d", "ru_seen_in_lookback": true, "in_monitor_on_day": true}}, {"type": "Feature", "geometry": {"type": "Point", "coordinates": [19.557983333333333, 54.75505]}, "properties": {"label": "RZK CONSTANTA", "mmsi": "273148510", "imo": "8711289", "name": "RZK CONSTANTA", "shiptype": "", "first_seen_utc": "2026-01-16T08:02:34Z", "last_seen_utc": "2026-01-16T14:49:53Z", "destination": "RU KGD", "eta": "{'Day': 16, 'Hour': 17, 'Minute': 0, 'Month': 1}", "display": "RZK CONSTANTA (273148510)", "links": "<a href=\"https://www.vesselfinder.com/vessels?name=8711289\" target=\"_blank\" rel=\"noopener\">VesselFinder</a> | <a href=\"https://www.marinetraffic.com/en/ais/search/all?keyword=8711289\" target=\"_blank\" rel=\"noopener\">MarineTraffic</a>", "vf_url": "https://www.vesselfinder.com/vessels?name=8711289", "mst_url": "https://www.marinetraffic.com/en/ais/search/all?keyword=8711289", "method": "v3_2pass_track3d_fromru10d", "ru_seen_in_lookback": true, "in_monitor_on_day": true}}, {"type": "Feature", "geometry": {"type": "LineString", "coordinates": [[20.123915, 54.66234166666666], [20.123901666666665, 54.66232]]}, "properties": {"label": "273267740", "mmsi": "273267740", "imo": "", "name": "", "shiptype": "", "first_seen_utc": "2026-01-16T11:55:02Z", "last_seen_utc": "2026-01-16T14:09:41Z", "destination": "", "eta": "", "display": "", "links": "<a href=\"https://www.vesselfinder.com/vessels?name=273267740\" target=\"_blank\" rel=\"noopener\">VesselFinder</a> | <a href=\"https://www.marinetraffic.com/en/ais/search/all?keyword=273267740\" target=\"_blank\" rel=\"noopener\">MarineTraffic</a>", "vf_url": "https://www.vesselfinder.com/vessels?name=273267740", "mst_url": "https://www.marinetraffic.com/en/ais/search/all?keyword=273267740", "method": "v3_2pass_track3d_fromru10d", "ru_seen_in_lookback": true, "in_monitor_on_day": true}}, {"type": "Feature", "geometry": {"type": "Point", "coordinates": [20.123901666666665, 54.66232]}, "properties": {"label": "273267740", "mmsi": "273267740", "imo": "", "name": "", "shiptype": "", "first_seen_utc": "2026-01-16T11:55:02Z", "last_seen_utc": "2026-01-16T14:09:41Z", "destination": "", "eta": "", "display": "273267740 (273267740)", "links": "<a href=\"https://www.vesselfinder.com/vessels?name=273267740\" target=\"_blank\" rel=\"noopener\">VesselFinder</a> | <a href=\"https://www.marinetraffic.com/en/ais/search/all?keyword=273267740\" target=\"_blank\" rel=\"noopener\">MarineTraffic</a>", "vf_url": "https://www.vesselfinder.com/vessels?name=273267740", "mst_url": "https://www.marinetraffic.com/en/ais/search/all?keyword=273267740", "method": "v3_2pass_track3d_fromru10d", "ru_seen_in_lookback": true, "in_monitor_on_day": true}}, {"type": "Feature", "geometry": {"type": "Point", "coordinates": [19.991735000000002, 54.637950000000004]}, "properties": {"label": "273219740", "mmsi": "273219740", "imo": "", "name": "", "shiptype": "", "first_seen_utc": "2026-01-16T11:59:15Z", "last_seen_utc": "2026-01-16T11:59:15Z", "destination": "", "eta": "", "display": "273219740 (273219740)", "links": "<a href=\"https://www.vesselfinder.com/vessels?name=273219740\" target=\"_blank\" rel=\"noopener\">VesselFinder</a> | <a href=\"https://www.marinetraffic.com/en/ais/search/all?keyword=273219740\" target=\"_blank\" rel=\"noopener\">MarineTraffic</a>", "vf_url": "https://www.vesselfinder.com/vessels?name=273219740", "mst_url": "https://www.marinetraffic.com/en/ais/search/all?keyword=273219740", "method": "v3_2pass_track3d_fromru10d", "ru_seen_in_lookback": true, "in_monitor_on_day": true}}, {"type": "Feature", "geometry": {"type": "LineString", "coordinates": [[20.10157, 54.65267666666667], [20.101611666666667, 54.65273833333333]]}, "properties": {"label": "273397570", "mmsi": "273397570", "imo": "", "name": "", "shiptype": "", "first_seen_utc": "2026-01-16T12:07:16Z", "last_seen_utc": "2026-01-16T13:33:09Z", "destination": "", "eta": "", "display": "", "links": "<a href=\"https://www.vesselfinder.com/vessels?name=273397570\" target=\"_blank\" rel=\"noopener\">VesselFinder</a> | <a href=\"https://www.marinetraffic.com/en/ais/search/all?keyword=273397570\" target=\"_blank\" rel=\"noopener\">MarineTraffic</a>", "vf_url": "https://www.vesselfinder.com/vessels?name=273397570", "mst_url": "https://www.marinetraffic.com/en/ais/search/all?keyword=273397570", "method": "v3_2pass_track3d_fromru10d", "ru_seen_in_lookback": true, "in_monitor_on_day": true}}, {"type": "Feature", "geometry": {"type": "Point", "coordinates": [20.101611666666667, 54.65273833333333]}, "properties": {"label": "273397570", "mmsi": "273397570", "imo": "", "name": "", "shiptype": "", "first_seen_utc": "2026-01-16T12:07:16Z", "last_seen_utc": "2026-01-16T13:33:09Z", "destination": "", "eta": "", "display": "273397570 (273397570)", "links": "<a href=\"https://www.vesselfinder.com/vessels?name=273397570\" target=\"_blank\" rel=\"noopener\">VesselFinder</a> | <a href=\"https://www.marinetraffic.com/en/ais/search/all?keyword=273397570\" target=\"_blank\" rel=\"noopener\">MarineTraffic</a>", "vf_url": "https://www.vesselfinder.com/vessels?name=273397570", "mst_url": "https://www.marinetraffic.com/en/ais/search/all?keyword=273397570", "method": "v3_2pass_track3d_fromru10d", "ru_seen_in_lookback": true, "in_monitor_on_day": true}}, {"type": "Feature", "geometry": {"type": "Point", "coordinates": [20.103318333333334, 54.65293166666667]}, "properties": {"label": "273215120", "mmsi": "273215120", "imo": "", "name": "", "shiptype": "", "first_seen_utc": "2026-01-16T13:38:16Z", "last_seen_utc": "2026-01-16T13:38:16Z", "destination": "", "eta": "", "display": "273215120 (273215120)", "links": "<a href=\"https://www.vesselfinder.com/vessels?name=273215120\" target=\"_blank\" rel=\"noopener\">VesselFinder</a> | <a href=\"https://www.marinetraffic.com/en/ais/search/all?keyword=273215120\" target=\"_blank\" rel=\"noopener\">MarineTraffic</a>", "vf_url": "https://www.vesselfinder.com/vessels?name=273215120", "mst_url": "https://www.marinetraffic.com/en/ais/search/all?keyword=273215120", "method": "v3_2pass_track3d_fromru10d", "ru_seen_in_lookback": true, "in_monitor_on_day": true}}, {"type": "Feature", "geometry": {"type": "Point", "coordinates": [20.209455, 54.68837666666666]}, "properties": {"label": "273343610", "mmsi": "273343610", "imo": "", "name": "", "shiptype": "", "first_seen_utc": "2026-01-16T13:45:22Z", "last_seen_utc": "2026-01-16T13:45:22Z", "destination": "", "eta": "", "display": "273343610 (273343610)", "links": "<a href=\"https://www.vesselfinder.com/vessels?name=273343610\" target=\"_blank\" rel=\"noopener\">VesselFinder</a> | <a href=\"https://www.marinetraffic.com/en/ais/search/all?keyword=273343610\" target=\"_blank\" rel=\"noopener\">MarineTraffic</a>", "vf_url": "https://www.vesselfinder.com/vessels?name=273343610", "mst_url": "https://www.marinetraffic.com/en/ais/search/all?keyword=273343610", "method": "v3_2pass_track3d_fromru10d", "ru_seen_in_lookback": true, "in_monitor_on_day": true}}, {"type": "Feature", "geometry": {"type": "Point", "coordinates": [20.204135, 54.68751333333333]}, "properties": {"label": "273326900", "mmsi": "273326900", "imo": "", "name": "", "shiptype": "", "first_seen_utc": "2026-01-16T15:15:34Z", "last_seen_utc": "2026-01-16T15:15:34Z", "destination": "", "eta": "", "display": "273326900 (273326900)", "links": "<a href=\"https://www.vesselfinder.com/vessels?name=273326900\" target=\"_blank\" rel=\"noopener\">VesselFinder</a> | <a href=\"https://www.marinetraffic.com/en/ais/search/all?keyword=273326900\" target=\"_blank\" rel=\"noopener\">MarineTraffic</a>", "vf_url": "https://www.vesselfinder.com/vessels?name=273326900", "mst_url": "https://www.marinetraffic.com/en/ais/search/all?keyword=273326900", "method": "v3_2pass_track3d_fromru10d", "ru_seen_in_lookback": true, "in_monitor_on_day": true}}, {"type": "Feature", "geometry": {"type": "Point", "coordinates": [20.140901666666664, 55.55116833333333]}, "properties": {"label": "273417870", "mmsi": "273417870", "imo": "", "name": "", "shiptype": "", "first_seen_utc": "2026-01-16T18:03:03Z", "last_seen_utc": "2026-01-16T18:03:03Z", "destination": "", "eta": "", "display": "273417870 (273417870)", "links": "<a href=\"https://www.vesselfinder.com/vessels?name=273417870\" target=\"_blank\" rel=\"noopener\">VesselFinder</a> | <a href=\"https://www.marinetraffic.com/en/ais/search/all?keyword=273417870\" target=\"_blank\" rel=\"noopener\">MarineTraffic</a>", "vf_url": "https://www.vesselfinder.com/vessels?name=273417870", "mst_url": "https://www.marinetraffic.com/en/ais/search/all?keyword=273417870", "method": "v3_2pass_track3d_fromru10d", "ru_seen_in_lookback": false, "in_monitor_on_day": true}}]}