{"type": "FeatureCollection", "features": [{"type": "Feature", "geometry": {"type": "LineString", "coordinates": [[2.206933333333333, 51.652726666666666], [2.1283066666666666, 51.597231666666666], [2.0499816666666666, 51.540618333333335], [1.9851616666666667, 51.49240333333333], [1.940065, 51.454475], [1.91161, 51.42162166666667], [1.8908066666666667, 51.39143], [1.8714766666666667, 51.364623333333334]]}, "properties": {"label": "A. SAPOZHNIKOV", "mmsi": "273274820", "imo": "9945215", "name": "A. SAPOZHNIKOV", "shiptype": "", "first_seen_utc": "2026-01-03T08:37:30Z", "last_seen_utc": "2026-01-09T03:39:31Z", "destination": "CAPE TOWN", "eta": "{'Day': 10, 'Hour': 10, 'Minute': 0, 'Month': 2}", "display": "", "links": "<a href=\"https://www.vesselfinder.com/vessels?name=9945215\" target=\"_blank\" rel=\"noopener\">VesselFinder</a> | <a href=\"https://www.marinetraffic.com/en/ais/search/all?keyword=9945215\" target=\"_blank\" rel=\"noopener\">MarineTraffic</a>", "vf_url": "https://www.vesselfinder.com/vessels?name=9945215", "mst_url": "https://www.marinetraffic.com/en/ais/search/all?keyword=9945215", "method": "v3_2pass_track3d_fromru10d", "ru_seen_in_lookback": false, "in_monitor_on_day": true}}, {"type": "Feature", "geometry": {"type": "Point", "coordinates": [1.8714766666666667, 51.364623333333334]}, "properties": {"label": "A. SAPOZHNIKOV", "mmsi": "273274820", "imo": "9945215", "name": "A. SAPOZHNIKOV", "shiptype": "", "first_seen_utc": "2026-01-03T08:37:30Z", "last_seen_utc": "2026-01-09T03:39:31Z", "destination": "CAPE TOWN", "eta": "{'Day': 10, 'Hour': 10, 'Minute': 0, 'Month': 2}", "display": "A. SAPOZHNIKOV (273274820)", "links": "<a href=\"https://www.vesselfinder.com/vessels?name=9945215\" target=\"_blank\" rel=\"noopener\">VesselFinder</a> | <a href=\"https://www.marinetraffic.com/en/ais/search/all?keyword=9945215\" target=\"_blank\" rel=\"noopener\">MarineTraffic</a>", "vf_url": "https://www.vesselfinder.com/vessels?name=9945215", "mst_url": "https://www.marinetraffic.com/en/ais/search/all?keyword=9945215", "method": "v3_2pass_track3d_fromru10d", "ru_seen_in_lookback": false, "in_monitor_on_day": true}}, {"type": "Feature", "geometry": {"type": "LineString", "coordinates": [[4.154283333333334, 59.76236666666667], [4.188766666666667, 59.67518333333333], [4.228800000000001, 59.5905], [4.257116666666667, 59.506566666666664], [4.283883333333334, 59.423433333333335], [4.2988333333333335, 59.33923333333333], [4.3117833333333335, 59.25873333333333], [4.3309, 59.17511666666667], [4.407666666666667, 59.09903333333333], [4.4836833333333335, 59.02395], [4.52535, 58.9433], [4.534966666666667, 58.86331666666667], [4.5377833333333335, 58.784200000000006], [4.5299, 58.70105], [4.512016666666667, 58.62348333333333], [4.492050000000001, 58.55158333333333], [4.448933333333333, 58.4829], [4.4074, 58.41258333333334], [4.3719, 58.340983333333334], [4.3297, 58.27238333333333], [4.27585, 58.20295], [4.23375, 58.127116666666666], [2.6040833333333335, 52.03219833333333], [2.179533333333333, 51.59121666666667], [2.0777166666666664, 51.517], [1.9821833333333332, 51.451249999999995], [1.9045166666666666, 51.386966666666666], [1.8504333333333334, 51.326816666666666]]}, "properties": {"label": "SIYANIE SEVERA", "mmsi": "273398650", "imo": "9250385", "name": "SIYANIE SEVERA", "shiptype": "", "first_seen_utc": "2026-01-04T00:36:46Z", "last_seen_utc": "2026-01-09T03:42:33Z", "destination": "SFAX", "eta": "{'Day': 18, 'Hour': 12, 'Minute': 0, 'Month': 1}", "display": "", "links": "<a href=\"https://www.vesselfinder.com/vessels?name=9250385\" target=\"_blank\" rel=\"noopener\">VesselFinder</a> | <a href=\"https://www.marinetraffic.com/en/ais/search/all?keyword=9250385\" target=\"_blank\" rel=\"noopener\">MarineTraffic</a>", "vf_url": "https://www.vesselfinder.com/vessels?name=9250385", "mst_url": "https://www.marinetraffic.com/en/ais/search/all?keyword=9250385", "method": "v3_2pass_track3d_fromru10d", "ru_seen_in_lookback": false, "in_monitor_on_day": true}}, {"type": "Feature", "geometry": {"type": "Point", "coordinates": [1.8504333333333334, 51.326816666666666]}, "properties": {"label": "SIYANIE SEVERA", "mmsi": "273398650", "imo": "9250385", "name": "SIYANIE SEVERA", "shiptype": "", "first_seen_utc": "2026-01-04T00:36:46Z", "last_seen_utc": "2026-01-09T03:42:33Z", "destination": "SFAX", "eta": "{'Day': 18, 'Hour': 12, 'Minute': 0, 'Month': 1}", "display": "SIYANIE SEVERA (273398650)", "links": "<a href=\"https://www.vesselfinder.com/vessels?name=9250385\" target=\"_blank\" rel=\"noopener\">VesselFinder</a> | <a href=\"https://www.marinetraffic.com/en/ais/search/all?keyword=9250385\" target=\"_blank\" rel=\"noopener\">MarineTraffic</a>", "vf_url": "https://www.vesselfinder.com/vessels?name=9250385", "mst_url": "https://www.marinetraffic.com/en/ais/search/all?keyword=9250385", "method": "v3_2pass_track3d_fromru10d", "ru_seen_in_lookback": false, "in_monitor_on_day": true}}, {"type": "Feature", "geometry": {"type": "LineString", "coordinates": [[8.32846, 57.33565], [8.518675, 57.40772166666667], [8.874106666666668, 57.533051666666665], [8.998748333333333, 57.578208333333336], [9.118661666666666, 57.622175], [9.408886666666666, 57.707526666666666], [9.611208333333334, 57.789588333333334], [9.813186666666667, 57.799591666666664], [9.957311666666667, 57.80193166666666], [10.108131666666667, 57.804055], [10.263483333333333, 57.805746666666664], [11.129131666666666, 56.094658333333335], [11.06651, 56.026375], [10.992531666666668, 55.94865333333333], [10.896708333333333, 55.89213666666667], [10.810733333333333, 55.831030000000005], [10.803376666666667, 55.75928666666667], [10.783501666666666, 55.683545], [11.030251666666667, 55.359341666666666], [11.050756666666667, 55.28626833333333], [11.099476666666668, 55.21335666666666], [11.044028333333333, 55.14616], [11.033161666666667, 55.071241666666666], [11.014246666666667, 54.99712666666667], [10.929051666666668, 54.937538333333336], [10.876571666666667, 54.87300333333334], [10.864793333333333, 54.800375], [10.870306666666666, 54.72385], [10.945538333333333, 54.67160833333333], [11.050485, 54.63173833333334], [11.156666666666666, 54.59359166666666], [11.260931666666666, 54.56223333333333], [11.367408333333334, 54.532558333333334], [11.480176666666667, 54.50001833333333], [11.592989999999999, 54.46662833333333], [11.708436666666667, 54.43250833333333], [11.828911666666666, 54.415348333333334], [11.972586666666666, 54.412146666666665], [12.10242, 54.40982333333333], [12.227063333333332, 54.45067166666667], [12.278896666666666, 54.533743333333334], [12.115608333333334, 54.409855]]}, "properties": {"label": "KAPITAN DANILKIN", "mmsi": "273131200", "imo": "8406729", "name": "KAPITAN DANILKIN", "shiptype": "", "first_seen_utc": "2026-01-04T21:09:03Z", "last_seen_utc": "2026-01-09T02:27:05Z", "destination": "FOR ORDER", "eta": "{'Day': 0, 'Hour': 12, 'Minute': 0, 'Month': 0}", "display": "", "links": "<a href=\"https://www.vesselfinder.com/vessels?name=8406729\" target=\"_blank\" rel=\"noopener\">VesselFinder</a> | <a href=\"https://www.marinetraffic.com/en/ais/search/all?keyword=8406729\" target=\"_blank\" rel=\"noopener\">MarineTraffic</a>", "vf_url": "https://www.vesselfinder.com/vessels?name=8406729", "mst_url": "https://www.marinetraffic.com/en/ais/search/all?keyword=8406729", "method": "v3_2pass_track3d_fromru10d", "ru_seen_in_lookback": false, "in_monitor_on_day": true}}, {"type": "Feature", "geometry": {"type": "Point", "coordinates": [12.115608333333334, 54.409855]}, "properties": {"label": "KAPITAN DANILKIN", "mmsi": "273131200", "imo": "8406729", "name": "KAPITAN DANILKIN", "shiptype": "", "first_seen_utc": "2026-01-04T21:09:03Z", "last_seen_utc": "2026-01-09T02:27:05Z", "destination": "FOR ORDER", "eta": "{'Day': 0, 'Hour': 12, 'Minute': 0, 'Month': 0}", "display": "KAPITAN DANILKIN (273131200)", "links": "<a href=\"https://www.vesselfinder.com/vessels?name=8406729\" target=\"_blank\" rel=\"noopener\">VesselFinder</a> | <a href=\"https://www.marinetraffic.com/en/ais/search/all?keyword=8406729\" target=\"_blank\" rel=\"noopener\">MarineTraffic</a>", "vf_url": "https://www.vesselfinder.com/vessels?name=8406729", "mst_url": "https://www.marinetraffic.com/en/ais/search/all?keyword=8406729", "method": "v3_2pass_track3d_fromru10d", "ru_seen_in_lookback": false, "in_monitor_on_day": true}}, {"type": "Feature", "geometry": {"type": "LineString", "coordinates": [[2.1370750000000003, 51.61653666666667], [2.049315, 51.56233666666667], [1.9748516666666667, 51.51244]]}, "properties": {"label": "MAIA-1", "mmsi": "273291160", "imo": "9358010", "name": "MAIA-1", "shiptype": "", "first_seen_utc": "2026-01-05T07:25:02Z", "last_seen_utc": "2026-01-09T03:45:48Z", "destination": "TO ORDER", "eta": "{'Day': 0, 'Hour': 24, 'Minute': 60, 'Month': 0}", "display": "", "links": "<a href=\"https://www.vesselfinder.com/vessels?name=9358010\" target=\"_blank\" rel=\"noopener\">VesselFinder</a> | <a href=\"https://www.marinetraffic.com/en/ais/search/all?keyword=9358010\" target=\"_blank\" rel=\"noopener\">MarineTraffic</a>", "vf_url": "https://www.vesselfinder.com/vessels?name=9358010", "mst_url": "https://www.marinetraffic.com/en/ais/search/all?keyword=9358010", "method": "v3_2pass_track3d_fromru10d", "ru_seen_in_lookback": false, "in_monitor_on_day": true}}, {"type": "Feature", "geometry": {"type": "Point", "coordinates": [1.9748516666666667, 51.51244]}, "properties": {"label": "MAIA-1", "mmsi": "273291160", "imo": "9358010", "name": "MAIA-1", "shiptype": "", "first_seen_utc": "2026-01-05T07:25:02Z", "last_seen_utc": "2026-01-09T03:45:48Z", "destination": "TO ORDER", "eta": "{'Day': 0, 'Hour': 24, 'Minute': 60, 'Month': 0}", "display": "MAIA-1 (273291160)", "links": "<a href=\"https://www.vesselfinder.com/vessels?name=9358010\" target=\"_blank\" rel=\"noopener\">VesselFinder</a> | <a href=\"https://www.marinetraffic.com/en/ais/search/all?keyword=9358010\" target=\"_blank\" rel=\"noopener\">MarineTraffic</a>", "vf_url": "https://www.vesselfinder.com/vessels?name=9358010", "mst_url": "https://www.marinetraffic.com/en/ais/search/all?keyword=9358010", "method": "v3_2pass_track3d_fromru10d", "ru_seen_in_lookback": false, "in_monitor_on_day": true}}, {"type": "Feature", "geometry": {"type": "LineString", "coordinates": [[7.161666666666666, 56.970078333333326], [7.443121666666667, 57.07036666666667], [7.60782, 57.120149999999995], [7.804353333333333, 57.18283833333333], [8.20468, 57.29819], [8.564601666666666, 57.416270000000004], [8.85306, 57.52169833333333], [9.168895, 57.631385], [9.368445000000001, 57.696515], [9.635283333333332, 57.788855], [9.851130000000001, 57.79703333333334], [10.06176, 57.80325666666667], [10.305956666666667, 57.810015], [10.981475, 55.945555], [10.855756666666668, 55.86359], [10.79976, 55.77066166666667], [10.772393333333333, 55.64427166666667], [11.030898333333333, 55.356006666666666], [11.076766666666666, 55.25777], [11.048215, 55.16466166666667], [11.030165, 55.069381666666665], [11.007101666666667, 54.98399], [10.935103333333332, 54.94366333333333], [10.874836666666665, 54.894149999999996], [10.853795, 54.80356833333334], [10.871805, 54.697651666666665], [11.006094999999998, 54.639185], [11.146271666666667, 54.58608166666667], [11.294943333333332, 54.55054666666667], [11.435176666666667, 54.512193333333336], [11.577126666666667, 54.47060666666666], [11.722199999999999, 54.425795], [11.889846666666667, 54.41041666666667], [12.064251666666667, 54.40817833333333], [12.213478333333335, 54.46564333333333], [12.255533333333334, 54.568158333333336]]}, "properties": {"label": "PLUTON", "mmsi": "273271850", "imo": "9288746", "name": "PLUTON", "shiptype": "", "first_seen_utc": "2026-01-05T23:04:47Z", "last_seen_utc": "2026-01-09T01:30:13Z", "destination": "BALTICSEA FOR ORDERS", "eta": "{'Day': 11, 'Hour': 12, 'Minute': 0, 'Month': 1}", "display": "", "links": "<a href=\"https://www.vesselfinder.com/vessels?name=9288746\" target=\"_blank\" rel=\"noopener\">VesselFinder</a> | <a href=\"https://www.marinetraffic.com/en/ais/search/all?keyword=9288746\" target=\"_blank\" rel=\"noopener\">MarineTraffic</a>", "vf_url": "https://www.vesselfinder.com/vessels?name=9288746", "mst_url": "https://www.marinetraffic.com/en/ais/search/all?keyword=9288746", "method": "v3_2pass_track3d_fromru10d", "ru_seen_in_lookback": false, "in_monitor_on_day": true}}, {"type": "Feature", "geometry": {"type": "Point", "coordinates": [12.255533333333334, 54.568158333333336]}, "properties": {"label": "PLUTON", "mmsi": "273271850", "imo": "9288746", "name": "PLUTON", "shiptype": "", "first_seen_utc": "2026-01-05T23:04:47Z", "last_seen_utc": "2026-01-09T01:30:13Z", "destination": "BALTICSEA FOR ORDERS", "eta": "{'Day': 11, 'Hour': 12, 'Minute': 0, 'Month': 1}", "display": "PLUTON (273271850)", "links": "<a href=\"https://www.vesselfinder.com/vessels?name=9288746\" target=\"_blank\" rel=\"noopener\">VesselFinder</a> | <a href=\"https://www.marinetraffic.com/en/ais/search/all?keyword=9288746\" target=\"_blank\" rel=\"noopener\">MarineTraffic</a>", "vf_url": "https://www.vesselfinder.com/vessels?name=9288746", "mst_url": "https://www.marinetraffic.com/en/ais/search/all?keyword=9288746", "method": "v3_2pass_track3d_fromru10d", "ru_seen_in_lookback": false, "in_monitor_on_day": true}}, {"type": "Feature", "geometry": {"type": "LineString", "coordinates": [[1.3593350000000002, 50.71351333333334], [1.4300866666666667, 50.80054500000001], [1.6232666666666666, 51.016153333333335], [1.7320966666666666, 51.09467166666666], [1.8608066666666665, 51.15425333333334], [1.9985766666666664, 51.203125]]}, "properties": {"label": "AVIOR", "mmsi": "273415140", "imo": "9164512", "name": "AVIOR", "shiptype": "", "first_seen_utc": "2026-01-09T00:38:29Z", "last_seen_utc": "2026-01-09T03:54:31Z", "destination": "RU LED", "eta": "{'Day': 16, 'Hour': 15, 'Minute': 0, 'Month': 1}", "display": "", "links": "<a href=\"https://www.vesselfinder.com/vessels?name=9164512\" target=\"_blank\" rel=\"noopener\">VesselFinder</a> | <a href=\"https://www.marinetraffic.com/en/ais/search/all?keyword=9164512\" target=\"_blank\" rel=\"noopener\">MarineTraffic</a>", "vf_url": "https://www.vesselfinder.com/vessels?name=9164512", "mst_url": "https://www.marinetraffic.com/en/ais/search/all?keyword=9164512", "method": "v3_2pass_track3d_fromru10d", "ru_seen_in_lookback": false, "in_monitor_on_day": true}}, {"type": "Feature", "geometry": {"type": "Point", "coordinates": [1.9985766666666664, 51.203125]}, "properties": {"label": "AVIOR", "mmsi": "273415140", "imo": "9164512", "name": "AVIOR", "shiptype": "", "first_seen_utc": "2026-01-09T00:38:29Z", "last_seen_utc": "2026-01-09T03:54:31Z", "destination": "RU LED", "eta": "{'Day': 16, 'Hour': 15, 'Minute': 0, 'Month': 1}", "display": "AVIOR (273415140)", "links": "<a href=\"https://www.vesselfinder.com/vessels?name=9164512\" target=\"_blank\" rel=\"noopener\">VesselFinder</a> | <a href=\"https://www.marinetraffic.com/en/ais/search/all?keyword=9164512\" target=\"_blank\" rel=\"noopener\">MarineTraffic</a>", "vf_url": "https://www.vesselfinder.com/vessels?name=9164512", "mst_url": "https://www.marinetraffic.com/en/ais/search/all?keyword=9164512", "method": "v3_2pass_track3d_fromru10d", "ru_seen_in_lookback": false, "in_monitor_on_day": true}}]}