{"type": "FeatureCollection", "features": [{"type": "Feature", "geometry": {"type": "Point", "coordinates": [19.28189166666667, 54.830335]}, "properties": {"label": "273217120", "mmsi": "273217120", "imo": "", "name": "", "shiptype": "", "first_seen_utc": "2026-01-04T12:47:04Z", "last_seen_utc": "2026-01-12T02:52:28Z", "destination": "", "eta": "", "display": "273217120 (273217120)", "links": "<a href=\"https://www.vesselfinder.com/vessels?name=273217120\" target=\"_blank\" rel=\"noopener\">VesselFinder</a> | <a href=\"https://www.marinetraffic.com/en/ais/search/all?keyword=273217120\" target=\"_blank\" rel=\"noopener\">MarineTraffic</a>", "vf_url": "https://www.vesselfinder.com/vessels?name=273217120", "mst_url": "https://www.marinetraffic.com/en/ais/search/all?keyword=273217120", "method": "v3_2pass_track3d_fromru10d", "ru_seen_in_lookback": true, "in_monitor_on_day": true}}, {"type": "Feature", "geometry": {"type": "LineString", "coordinates": [[15.363511666666666, 55.61350166666667], [15.184043333333333, 55.593475], [15.013293333333333, 55.547291666666666], [14.841116666666666, 55.5084], [14.604989999999999, 55.44039333333333], [14.466583333333334, 55.34239166666667], [14.230598333333335, 55.17358166666667], [12.258511666666667, 54.594255], [12.217863333333334, 54.52329833333333], [12.137168333333333, 54.445816666666666], [11.966108333333333, 54.448141666666665], [11.79304, 54.45701833333333], [11.625271666666666, 54.48535666666667], [11.467076666666665, 54.528486666666666], [11.306705, 54.570861666666666], [11.138663333333334, 54.605955], [10.9603, 54.61931666666667], [10.804456666666665, 54.673030000000004], [10.80699, 54.768805], [10.837175, 54.86443166666666], [10.877893333333333, 54.934650000000005], [11.022785, 55.00231333333333], [11.044115, 55.10720333333334], [11.097383333333333, 55.201710000000006], [11.054788333333333, 55.293800000000005], [10.819645000000001, 55.590313333333334], [10.790368333333333, 55.689058333333335], [10.819086666666667, 55.789210000000004], [10.954343333333332, 55.91706333333333], [10.493269999999999, 57.85248166666667], [10.28232, 57.848675], [10.071286666666667, 57.84401166666667], [9.866235, 57.839551666666665], [9.674368333333332, 57.83031833333334], [9.50157, 57.791581666666666], [9.328046666666667, 57.74918666666667], [9.162691666666666, 57.69473166666667], [8.986596666666665, 57.634813333333334], [8.815861666666667, 57.57801666666667], [8.641150000000001, 57.523125], [8.463083333333334, 57.47089666666667], [8.291045, 57.421155], [8.123468333333333, 57.37111], [7.956075, 57.320915], [7.794993333333333, 57.26936], [7.637983333333334, 57.21929166666666], [7.485346666666667, 57.172736666666665]]}, "properties": {"label": "JUPITER", "mmsi": "273265590", "imo": "9397535", "name": "JUPITER", "shiptype": "", "first_seen_utc": "2026-01-04T21:17:52Z", "last_seen_utc": "2026-01-12T03:47:57Z", "destination": "EGPSD", "eta": "{'Day': 24, 'Hour': 17, 'Minute': 0, 'Month': 1}", "display": "", "links": "<a href=\"https://www.vesselfinder.com/vessels?name=9397535\" target=\"_blank\" rel=\"noopener\">VesselFinder</a> | <a href=\"https://www.marinetraffic.com/en/ais/search/all?keyword=9397535\" target=\"_blank\" rel=\"noopener\">MarineTraffic</a>", "vf_url": "https://www.vesselfinder.com/vessels?name=9397535", "mst_url": "https://www.marinetraffic.com/en/ais/search/all?keyword=9397535", "method": "v3_2pass_track3d_fromru10d", "ru_seen_in_lookback": true, "in_monitor_on_day": true}}, {"type": "Feature", "geometry": {"type": "Point", "coordinates": [7.485346666666667, 57.172736666666665]}, "properties": {"label": "JUPITER", "mmsi": "273265590", "imo": "9397535", "name": "JUPITER", "shiptype": "", "first_seen_utc": "2026-01-04T21:17:52Z", "last_seen_utc": "2026-01-12T03:47:57Z", "destination": "EGPSD", "eta": "{'Day': 24, 'Hour': 17, 'Minute': 0, 'Month': 1}", "display": "JUPITER (273265590)", "links": "<a href=\"https://www.vesselfinder.com/vessels?name=9397535\" target=\"_blank\" rel=\"noopener\">VesselFinder</a> | <a href=\"https://www.marinetraffic.com/en/ais/search/all?keyword=9397535\" target=\"_blank\" rel=\"noopener\">MarineTraffic</a>", "vf_url": "https://www.vesselfinder.com/vessels?name=9397535", "mst_url": "https://www.marinetraffic.com/en/ais/search/all?keyword=9397535", "method": "v3_2pass_track3d_fromru10d", "ru_seen_in_lookback": true, "in_monitor_on_day": true}}, {"type": "Feature", "geometry": {"type": "LineString", "coordinates": [[15.418971666666666, 55.66701333333333], [15.247455, 55.625930000000004], [15.077918333333335, 55.577194999999996], [14.912004999999999, 55.528778333333335], [14.719253333333334, 55.478314999999995], [14.533199999999999, 55.39908666666667], [14.413343333333334, 55.309195], [14.149783333333334, 55.122475], [12.26057, 54.59231833333333], [12.216953333333333, 54.51233666666667], [12.12482, 54.43899], [11.952526666666667, 54.438478333333336], [11.782536666666665, 54.44398666666667], [11.623635, 54.47687166666666], [11.468063333333333, 54.51892], [11.304408333333333, 54.56341666666666], [11.137411666666667, 54.605375], [10.960793333333333, 54.619703333333334], [10.801781666666667, 54.67062], [10.807328333333334, 54.76905333333333], [10.840298333333333, 54.87919], [10.959660000000001, 54.96948833333333], [10.996298333333334, 55.074023333333336], [11.00972, 55.16425666666667], [11.09975, 55.22853833333333], [11.007010000000001, 55.39814833333333], [10.828211666666666, 55.57664666666667]]}, "properties": {"label": "ALMOND", "mmsi": "273276930", "imo": "9385142", "name": "ALMOND", "shiptype": "", "first_seen_utc": "2026-01-07T21:26:30Z", "last_seen_utc": "2026-01-12T03:34:17Z", "destination": "GIBRALTAR FOR ORDERS", "eta": "{'Day': 18, 'Hour': 13, 'Minute': 0, 'Month': 1}", "display": "", "links": "<a href=\"https://www.vesselfinder.com/vessels?name=9385142\" target=\"_blank\" rel=\"noopener\">VesselFinder</a> | <a href=\"https://www.marinetraffic.com/en/ais/search/all?keyword=9385142\" target=\"_blank\" rel=\"noopener\">MarineTraffic</a>", "vf_url": "https://www.vesselfinder.com/vessels?name=9385142", "mst_url": "https://www.marinetraffic.com/en/ais/search/all?keyword=9385142", "method": "v3_2pass_track3d_fromru10d", "ru_seen_in_lookback": true, "in_monitor_on_day": true}}, {"type": "Feature", "geometry": {"type": "Point", "coordinates": [10.828211666666666, 55.57664666666667]}, "properties": {"label": "ALMOND", "mmsi": "273276930", "imo": "9385142", "name": "ALMOND", "shiptype": "", "first_seen_utc": "2026-01-07T21:26:30Z", "last_seen_utc": "2026-01-12T03:34:17Z", "destination": "GIBRALTAR FOR ORDERS", "eta": "{'Day': 18, 'Hour': 13, 'Minute': 0, 'Month': 1}", "display": "ALMOND (273276930)", "links": "<a href=\"https://www.vesselfinder.com/vessels?name=9385142\" target=\"_blank\" rel=\"noopener\">VesselFinder</a> | <a href=\"https://www.marinetraffic.com/en/ais/search/all?keyword=9385142\" target=\"_blank\" rel=\"noopener\">MarineTraffic</a>", "vf_url": "https://www.vesselfinder.com/vessels?name=9385142", "mst_url": "https://www.marinetraffic.com/en/ais/search/all?keyword=9385142", "method": "v3_2pass_track3d_fromru10d", "ru_seen_in_lookback": true, "in_monitor_on_day": true}}]}