{"type": "FeatureCollection", "features": [{"type": "Feature", "geometry": {"type": "LineString", "coordinates": [[6.737615, 57.088861666666666], [5.88906, 56.62820333333333], [5.8915766666666665, 56.53208333333334], [5.89287, 56.242623333333334], [4.105611666666666, 53.90444], [3.7162, 53.73246666666667], [2.5759, 51.88951833333333], [2.4616933333333337, 51.807325], [2.1732933333333335, 51.59428333333334], [2.04332, 51.510405], [1.9146816666666666, 51.440418333333334], [1.836115, 51.343491666666665], [1.7680283333333333, 51.24372166666667], [1.6641249999999999, 51.176645], [1.5578283333333334, 51.12164833333333], [1.4509966666666665, 51.07556666666667], [-0.18123833333333333, 50.47253166666667], [-0.5438583333333333, 50.405076666666666], [-0.6570583333333333, 50.38556666666667], [-0.7640383333333334, 50.36882333333333], [-0.903275, 50.34408166666666], [-1.0032783333333333, 50.325995]]}, "properties": {"label": "ELYTE", "mmsi": "667002017", "imo": "9345623", "name": "ELYTE", "shiptype": "", "first_seen_utc": "2026-01-01T13:00:52Z", "last_seen_utc": "2026-01-10T01:22:18Z", "destination": "SG SIN", "eta": "{'Day': 9, 'Hour': 12, 'Minute': 0, 'Month': 2}", "display": "", "links": "<a href=\"https://www.vesselfinder.com/vessels?name=9345623\" target=\"_blank\" rel=\"noopener\">VesselFinder</a> | <a href=\"https://www.marinetraffic.com/en/ais/search/all?keyword=9345623\" target=\"_blank\" rel=\"noopener\">MarineTraffic</a>", "vf_url": "https://www.vesselfinder.com/vessels?name=9345623", "mst_url": "https://www.marinetraffic.com/en/ais/search/all?keyword=9345623", "method": "v3_2pass_track3d_fromru10d", "ru_seen_in_lookback": true, "in_monitor_on_day": true}}, {"type": "Feature", "geometry": {"type": "Point", "coordinates": [-1.0032783333333333, 50.325995]}, "properties": {"label": "ELYTE", "mmsi": "667002017", "imo": "9345623", "name": "ELYTE", "shiptype": "", "first_seen_utc": "2026-01-01T13:00:52Z", "last_seen_utc": "2026-01-10T01:22:18Z", "destination": "SG SIN", "eta": "{'Day': 9, 'Hour': 12, 'Minute': 0, 'Month': 2}", "display": "ELYTE (667002017)", "links": "<a href=\"https://www.vesselfinder.com/vessels?name=9345623\" target=\"_blank\" rel=\"noopener\">VesselFinder</a> | <a href=\"https://www.marinetraffic.com/en/ais/search/all?keyword=9345623\" target=\"_blank\" rel=\"noopener\">MarineTraffic</a>", "vf_url": "https://www.vesselfinder.com/vessels?name=9345623", "mst_url": "https://www.marinetraffic.com/en/ais/search/all?keyword=9345623", "method": "v3_2pass_track3d_fromru10d", "ru_seen_in_lookback": true, "in_monitor_on_day": true}}, {"type": "Feature", "geometry": {"type": "LineString", "coordinates": [[10.49575, 57.85574999999999], [10.296366666666668, 57.85538333333333], [10.101183333333333, 57.85281666666666], [9.91795, 57.85366666666666], [9.728583333333335, 57.85415], [9.542833333333334, 57.853433333333335], [9.3659, 57.82723333333333], [9.19055, 57.77793333333333], [9.022833333333333, 57.7319], [8.861583333333334, 57.687850000000005], [8.7022, 57.645966666666666], [8.542333333333334, 57.60438333333333], [8.378266666666667, 57.56016666666667], [8.219583333333334, 57.51676666666666], [8.050216666666666, 57.470866666666666], [7.894016666666667, 57.41003333333333], [7.7837, 57.3289], [7.67865, 57.25176666666667], [2.5638333333333336, 51.90923333333333], [2.4717166666666666, 51.82705]]}, "properties": {"label": "SEA OWL I", "mmsi": "620800094", "imo": "9321172", "name": "SEA OWL I", "shiptype": "", "first_seen_utc": "2026-01-04T05:45:14Z", "last_seen_utc": "2026-01-10T07:47:07Z", "destination": "FOR ORDER", "eta": "{'Day': 14, 'Hour': 13, 'Minute': 0, 'Month': 1}", "display": "", "links": "<a href=\"https://www.vesselfinder.com/vessels?name=9321172\" target=\"_blank\" rel=\"noopener\">VesselFinder</a> | <a href=\"https://www.marinetraffic.com/en/ais/search/all?keyword=9321172\" target=\"_blank\" rel=\"noopener\">MarineTraffic</a>", "vf_url": "https://www.vesselfinder.com/vessels?name=9321172", "mst_url": "https://www.marinetraffic.com/en/ais/search/all?keyword=9321172", "method": "v3_2pass_track3d_fromru10d", "ru_seen_in_lookback": true, "in_monitor_on_day": true}}, {"type": "Feature", "geometry": {"type": "Point", "coordinates": [2.4717166666666666, 51.82705]}, "properties": {"label": "SEA OWL I", "mmsi": "620800094", "imo": "9321172", "name": "SEA OWL I", "shiptype": "", "first_seen_utc": "2026-01-04T05:45:14Z", "last_seen_utc": "2026-01-10T07:47:07Z", "destination": "FOR ORDER", "eta": "{'Day': 14, 'Hour': 13, 'Minute': 0, 'Month': 1}", "display": "SEA OWL I (620800094)", "links": "<a href=\"https://www.vesselfinder.com/vessels?name=9321172\" target=\"_blank\" rel=\"noopener\">VesselFinder</a> | <a href=\"https://www.marinetraffic.com/en/ais/search/all?keyword=9321172\" target=\"_blank\" rel=\"noopener\">MarineTraffic</a>", "vf_url": "https://www.vesselfinder.com/vessels?name=9321172", "mst_url": "https://www.marinetraffic.com/en/ais/search/all?keyword=9321172", "method": "v3_2pass_track3d_fromru10d", "ru_seen_in_lookback": true, "in_monitor_on_day": true}}, {"type": "Feature", "geometry": {"type": "LineString", "coordinates": [[28.34139, 60.46998], [15.363511666666666, 55.61350166666667]]}, "properties": {"label": "JUPITER", "mmsi": "273265590", "imo": "9397535", "name": "JUPITER", "shiptype": "", "first_seen_utc": "2026-01-04T21:17:52Z", "last_seen_utc": "2026-01-10T08:02:24Z", "destination": "CHINA FOR ORDERS", "eta": "{'Day': 24, 'Hour': 18, 'Minute': 0, 'Month': 1}", "display": "", "links": "<a href=\"https://www.vesselfinder.com/vessels?name=9397535\" target=\"_blank\" rel=\"noopener\">VesselFinder</a> | <a href=\"https://www.marinetraffic.com/en/ais/search/all?keyword=9397535\" target=\"_blank\" rel=\"noopener\">MarineTraffic</a>", "vf_url": "https://www.vesselfinder.com/vessels?name=9397535", "mst_url": "https://www.marinetraffic.com/en/ais/search/all?keyword=9397535", "method": "v3_2pass_track3d_fromru10d", "ru_seen_in_lookback": true, "in_monitor_on_day": true}}, {"type": "Feature", "geometry": {"type": "Point", "coordinates": [15.363511666666666, 55.61350166666667]}, "properties": {"label": "JUPITER", "mmsi": "273265590", "imo": "9397535", "name": "JUPITER", "shiptype": "", "first_seen_utc": "2026-01-04T21:17:52Z", "last_seen_utc": "2026-01-10T08:02:24Z", "destination": "CHINA FOR ORDERS", "eta": "{'Day': 24, 'Hour': 18, 'Minute': 0, 'Month': 1}", "display": "JUPITER (273265590)", "links": "<a href=\"https://www.vesselfinder.com/vessels?name=9397535\" target=\"_blank\" rel=\"noopener\">VesselFinder</a> | <a href=\"https://www.marinetraffic.com/en/ais/search/all?keyword=9397535\" target=\"_blank\" rel=\"noopener\">MarineTraffic</a>", "vf_url": "https://www.vesselfinder.com/vessels?name=9397535", "mst_url": "https://www.marinetraffic.com/en/ais/search/all?keyword=9397535", "method": "v3_2pass_track3d_fromru10d", "ru_seen_in_lookback": true, "in_monitor_on_day": true}}, {"type": "Feature", "geometry": {"type": "LineString", "coordinates": [[15.282883333333332, 55.63200833333334], [15.106455, 55.580103333333334], [14.934206666666666, 55.52832166666667], [14.727458333333335, 55.470596666666665], [12.258035, 54.58808666666666], [12.21606, 54.505721666666666], [12.143206666666666, 54.43315166666666], [11.987285000000002, 54.43026833333333], [11.829223333333335, 54.431066666666666], [11.684691666666668, 54.45801166666667], [11.537365, 54.49954833333334], [11.385343333333333, 54.54096333333334], [11.227426666666666, 54.58464166666667], [11.063600000000001, 54.60162666666667], [10.912213333333334, 54.631589999999996], [10.779783333333334, 54.68599166666667], [10.806263333333334, 54.77101833333334], [10.837603333333334, 54.865125], [10.903996666666666, 54.94945666666667], [10.990046666666666, 55.019549999999995], [10.98977, 55.106895], [11.045698333333332, 55.18052333333333], [11.088736666666668, 55.248270000000005], [11.03947, 55.344476666666665], [10.831768333333335, 55.57117166666667]]}, "properties": {"label": "ORYX", "mmsi": "314001139", "imo": "9250737", "name": "ORYX", "shiptype": "", "first_seen_utc": "2026-01-06T07:26:38Z", "last_seen_utc": "2026-01-10T07:45:30Z", "destination": "TR ALI", "eta": "{'Day': 23, 'Hour': 4, 'Minute': 0, 'Month': 1}", "display": "", "links": "<a href=\"https://www.vesselfinder.com/vessels?name=9250737\" target=\"_blank\" rel=\"noopener\">VesselFinder</a> | <a href=\"https://www.marinetraffic.com/en/ais/search/all?keyword=9250737\" target=\"_blank\" rel=\"noopener\">MarineTraffic</a>", "vf_url": "https://www.vesselfinder.com/vessels?name=9250737", "mst_url": "https://www.marinetraffic.com/en/ais/search/all?keyword=9250737", "method": "v3_2pass_track3d_fromru10d", "ru_seen_in_lookback": true, "in_monitor_on_day": true}}, {"type": "Feature", "geometry": {"type": "Point", "coordinates": [10.831768333333335, 55.57117166666667]}, "properties": {"label": "ORYX", "mmsi": "314001139", "imo": "9250737", "name": "ORYX", "shiptype": "", "first_seen_utc": "2026-01-06T07:26:38Z", "last_seen_utc": "2026-01-10T07:45:30Z", "destination": "TR ALI", "eta": "{'Day': 23, 'Hour': 4, 'Minute': 0, 'Month': 1}", "display": "ORYX (314001139)", "links": "<a href=\"https://www.vesselfinder.com/vessels?name=9250737\" target=\"_blank\" rel=\"noopener\">VesselFinder</a> | <a href=\"https://www.marinetraffic.com/en/ais/search/all?keyword=9250737\" target=\"_blank\" rel=\"noopener\">MarineTraffic</a>", "vf_url": "https://www.vesselfinder.com/vessels?name=9250737", "mst_url": "https://www.marinetraffic.com/en/ais/search/all?keyword=9250737", "method": "v3_2pass_track3d_fromru10d", "ru_seen_in_lookback": true, "in_monitor_on_day": true}}, {"type": "Feature", "geometry": {"type": "LineString", "coordinates": [[7.4015683333333335, 56.688541666666666], [8.191691666666667, 57.218738333333334], [8.423476666666666, 57.37], [8.535145, 57.42227666666667], [8.648241666666667, 57.457928333333335], [8.772938333333334, 57.49835333333333], [8.896326666666665, 57.539165000000004], [9.02341, 57.581693333333334], [9.142583333333333, 57.624469999999995], [9.322876666666668, 57.68811], [9.506566666666666, 57.753098333333334], [9.63148, 57.78800666666667], [9.770858333333333, 57.79596], [9.902385, 57.79555166666667], [10.036598333333334, 57.800111666666666], [10.173823333333333, 57.80328333333333], [10.31539, 57.80602333333333], [10.446796666666668, 57.81004666666667], [12.33926, 56.19913], [12.425073333333334, 56.15867333333333], [12.503961666666667, 56.12117833333333], [12.582175000000001, 56.082514999999994], [12.653831666666667, 56.037365], [12.670446666666667, 55.9641], [12.654033333333333, 55.891623333333335], [12.69679, 55.81974]]}, "properties": {"label": "RORA", "mmsi": "613469620", "imo": "9288722", "name": "RORA", "shiptype": "", "first_seen_utc": "2026-01-07T01:40:19Z", "last_seen_utc": "2026-01-10T07:53:40Z", "destination": "GULF OF FINLAND", "eta": "{'Day': 12, 'Hour': 10, 'Minute': 0, 'Month': 1}", "display": "", "links": "<a href=\"https://www.vesselfinder.com/vessels?name=9288722\" target=\"_blank\" rel=\"noopener\">VesselFinder</a> | <a href=\"https://www.marinetraffic.com/en/ais/search/all?keyword=9288722\" target=\"_blank\" rel=\"noopener\">MarineTraffic</a>", "vf_url": "https://www.vesselfinder.com/vessels?name=9288722", "mst_url": "https://www.marinetraffic.com/en/ais/search/all?keyword=9288722", "method": "v3_2pass_track3d_fromru10d", "ru_seen_in_lookback": false, "in_monitor_on_day": true}}, {"type": "Feature", "geometry": {"type": "Point", "coordinates": [12.69679, 55.81974]}, "properties": {"label": "RORA", "mmsi": "613469620", "imo": "9288722", "name": "RORA", "shiptype": "", "first_seen_utc": "2026-01-07T01:40:19Z", "last_seen_utc": "2026-01-10T07:53:40Z", "destination": "GULF OF FINLAND", "eta": "{'Day': 12, 'Hour': 10, 'Minute': 0, 'Month': 1}", "display": "RORA (613469620)", "links": "<a href=\"https://www.vesselfinder.com/vessels?name=9288722\" target=\"_blank\" rel=\"noopener\">VesselFinder</a> | <a href=\"https://www.marinetraffic.com/en/ais/search/all?keyword=9288722\" target=\"_blank\" rel=\"noopener\">MarineTraffic</a>", "vf_url": "https://www.vesselfinder.com/vessels?name=9288722", "mst_url": "https://www.marinetraffic.com/en/ais/search/all?keyword=9288722", "method": "v3_2pass_track3d_fromru10d", "ru_seen_in_lookback": false, "in_monitor_on_day": true}}, {"type": "Feature", "geometry": {"type": "LineString", "coordinates": [[1.3593350000000002, 50.71351333333334], [1.4300866666666667, 50.80054500000001], [1.6232666666666666, 51.016153333333335], [1.7320966666666666, 51.09467166666666], [1.8608066666666665, 51.15425333333334], [1.9985766666666664, 51.203125], [2.1009366666666667, 51.27177166666667], [2.1592, 51.361061666666664], [2.2385733333333335, 51.46171666666667], [4.077005, 52.707874999999994], [4.17375, 52.77267333333334], [4.244936666666667, 52.839976666666665], [4.30171, 52.913286666666664], [4.356800000000001, 52.98717333333333], [4.406933333333333, 53.05792833333333], [4.463076666666667, 53.127865], [4.518715, 53.194433333333336], [4.573418333333334, 53.25691], [4.618236666666666, 53.31036833333334], [4.654624999999999, 53.35825333333333], [4.687176666666667, 53.40219833333333], [4.715336666666667, 53.43851166666666], [4.739033333333333, 53.46935666666666], [4.77697, 53.48829833333333], [4.816696666666667, 53.505325], [4.803965000000001, 53.54893833333333], [4.815636666666666, 53.57973166666667], [4.8331116666666665, 53.61140833333333]]}, "properties": {"label": "AVIOR", "mmsi": "273415140", "imo": "9164512", "name": "AVIOR", "shiptype": "", "first_seen_utc": "2026-01-09T00:38:29Z", "last_seen_utc": "2026-01-10T01:18:41Z", "destination": "RU LED", "eta": "{'Day': 16, 'Hour': 15, 'Minute': 0, 'Month': 1}", "display": "", "links": "<a href=\"https://www.vesselfinder.com/vessels?name=9164512\" target=\"_blank\" rel=\"noopener\">VesselFinder</a> | <a href=\"https://www.marinetraffic.com/en/ais/search/all?keyword=9164512\" target=\"_blank\" rel=\"noopener\">MarineTraffic</a>", "vf_url": "https://www.vesselfinder.com/vessels?name=9164512", "mst_url": "https://www.marinetraffic.com/en/ais/search/all?keyword=9164512", "method": "v3_2pass_track3d_fromru10d", "ru_seen_in_lookback": false, "in_monitor_on_day": true}}, {"type": "Feature", "geometry": {"type": "Point", "coordinates": [4.8331116666666665, 53.61140833333333]}, "properties": {"label": "AVIOR", "mmsi": "273415140", "imo": "9164512", "name": "AVIOR", "shiptype": "", "first_seen_utc": "2026-01-09T00:38:29Z", "last_seen_utc": "2026-01-10T01:18:41Z", "destination": "RU LED", "eta": "{'Day': 16, 'Hour': 15, 'Minute': 0, 'Month': 1}", "display": "AVIOR (273415140)", "links": "<a href=\"https://www.vesselfinder.com/vessels?name=9164512\" target=\"_blank\" rel=\"noopener\">VesselFinder</a> | <a href=\"https://www.marinetraffic.com/en/ais/search/all?keyword=9164512\" target=\"_blank\" rel=\"noopener\">MarineTraffic</a>", "vf_url": "https://www.vesselfinder.com/vessels?name=9164512", "mst_url": "https://www.marinetraffic.com/en/ais/search/all?keyword=9164512", "method": "v3_2pass_track3d_fromru10d", "ru_seen_in_lookback": false, "in_monitor_on_day": true}}, {"type": "Feature", "geometry": {"type": "LineString", "coordinates": [[1.3343266666666667, 50.684099999999994], [1.3764616666666667, 50.74534333333334], [1.4094783333333334, 50.80819333333333], [1.4615633333333333, 50.90127333333333], [1.5646416666666667, 50.97611333333334], [1.6463, 51.03454333333333], [1.7286566666666665, 51.093621666666664], [1.8734383333333333, 51.15511333333333], [1.9998233333333333, 51.20006333333333], [2.1047233333333333, 51.255253333333336], [2.13178, 51.32259], [2.1356200000000003, 51.387053333333334], [2.4859883333333332, 51.673685], [2.5786816666666668, 51.748844999999996], [3.9133166666666668, 52.62347333333333], [4.00059, 52.678850000000004], [4.07983, 52.728629999999995], [4.155275, 52.78261166666667], [4.228421666666667, 52.83712], [4.2789383333333335, 52.90239833333333], [4.324285000000001, 52.972903333333335], [4.38484, 53.03986833333333], [4.44691, 53.102905], [4.508795, 53.16589833333333]]}, "properties": {"label": "ARIA", "mmsi": "273267690", "imo": "9397559", "name": "ARIA", "shiptype": "", "first_seen_utc": "2026-01-09T09:41:29Z", "last_seen_utc": "2026-01-10T07:47:52Z", "destination": "RUULU", "eta": "{'Day': 15, 'Hour': 9, 'Minute': 0, 'Month': 1}", "display": "", "links": "<a href=\"https://www.vesselfinder.com/vessels?name=9397559\" target=\"_blank\" rel=\"noopener\">VesselFinder</a> | <a href=\"https://www.marinetraffic.com/en/ais/search/all?keyword=9397559\" target=\"_blank\" rel=\"noopener\">MarineTraffic</a>", "vf_url": "https://www.vesselfinder.com/vessels?name=9397559", "mst_url": "https://www.marinetraffic.com/en/ais/search/all?keyword=9397559", "method": "v3_2pass_track3d_fromru10d", "ru_seen_in_lookback": false, "in_monitor_on_day": true}}, {"type": "Feature", "geometry": {"type": "Point", "coordinates": [4.508795, 53.16589833333333]}, "properties": {"label": "ARIA", "mmsi": "273267690", "imo": "9397559", "name": "ARIA", "shiptype": "", "first_seen_utc": "2026-01-09T09:41:29Z", "last_seen_utc": "2026-01-10T07:47:52Z", "destination": "RUULU", "eta": "{'Day': 15, 'Hour': 9, 'Minute': 0, 'Month': 1}", "display": "ARIA (273267690)", "links": "<a href=\"https://www.vesselfinder.com/vessels?name=9397559\" target=\"_blank\" rel=\"noopener\">VesselFinder</a> | <a href=\"https://www.marinetraffic.com/en/ais/search/all?keyword=9397559\" target=\"_blank\" rel=\"noopener\">MarineTraffic</a>", "vf_url": "https://www.vesselfinder.com/vessels?name=9397559", "mst_url": "https://www.marinetraffic.com/en/ais/search/all?keyword=9397559", "method": "v3_2pass_track3d_fromru10d", "ru_seen_in_lookback": false, "in_monitor_on_day": true}}, {"type": "Feature", "geometry": {"type": "LineString", "coordinates": [[-0.345665, 50.271676666666664], [-0.19605499999999998, 50.30260666666666], [1.270265, 50.64550833333333], [1.3641066666666668, 50.705778333333335], [1.394435, 50.776205], [1.425265, 50.84711], [1.4548583333333334, 50.91433], [1.5217183333333333, 50.97349333333333], [1.590325, 51.02946166666666], [1.6532683333333333, 51.084675], [1.7242783333333334, 51.13552833333333], [1.7776850000000002, 51.19381], [1.8682566666666667, 51.24164833333334], [1.94649, 51.299533333333336], [2.0333566666666667, 51.35643], [2.1588316666666665, 51.43792166666666], [2.4608383333333332, 51.669485], [2.5746033333333336, 51.74145], [2.6172366666666664, 51.81737666666667]]}, "properties": {"label": "NERO", "mmsi": "574005510", "imo": "9374868", "name": "NERO", "shiptype": "", "first_seen_utc": "2026-01-09T14:51:37Z", "last_seen_utc": "2026-01-10T06:30:48Z", "destination": "SKAW", "eta": "{'Day': 13, 'Hour': 10, 'Minute': 0, 'Month': 1}", "display": "", "links": "<a href=\"https://www.vesselfinder.com/vessels?name=9374868\" target=\"_blank\" rel=\"noopener\">VesselFinder</a> | <a href=\"https://www.marinetraffic.com/en/ais/search/all?keyword=9374868\" target=\"_blank\" rel=\"noopener\">MarineTraffic</a>", "vf_url": "https://www.vesselfinder.com/vessels?name=9374868", "mst_url": "https://www.marinetraffic.com/en/ais/search/all?keyword=9374868", "method": "v3_2pass_track3d_fromru10d", "ru_seen_in_lookback": false, "in_monitor_on_day": true}}, {"type": "Feature", "geometry": {"type": "Point", "coordinates": [2.6172366666666664, 51.81737666666667]}, "properties": {"label": "NERO", "mmsi": "574005510", "imo": "9374868", "name": "NERO", "shiptype": "", "first_seen_utc": "2026-01-09T14:51:37Z", "last_seen_utc": "2026-01-10T06:30:48Z", "destination": "SKAW", "eta": "{'Day': 13, 'Hour': 10, 'Minute': 0, 'Month': 1}", "display": "NERO (574005510)", "links": "<a href=\"https://www.vesselfinder.com/vessels?name=9374868\" target=\"_blank\" rel=\"noopener\">VesselFinder</a> | <a href=\"https://www.marinetraffic.com/en/ais/search/all?keyword=9374868\" target=\"_blank\" rel=\"noopener\">MarineTraffic</a>", "vf_url": "https://www.vesselfinder.com/vessels?name=9374868", "mst_url": "https://www.marinetraffic.com/en/ais/search/all?keyword=9374868", "method": "v3_2pass_track3d_fromru10d", "ru_seen_in_lookback": false, "in_monitor_on_day": true}}]}