{"type": "FeatureCollection", "features": [{"type": "Feature", "geometry": {"type": "LineString", "coordinates": [[28.74963166666667, 59.63033666666667], [19.615703333333332, 54.776399999999995], [19.72300166666667, 54.69508833333334]]}, "properties": {"label": "AMBAL", "mmsi": "273355410", "imo": "8807416", "name": "AMBAL", "shiptype": "", "first_seen_utc": "2026-01-07T11:24:31Z", "last_seen_utc": "2026-01-15T07:57:35Z", "destination": "RUULU/RUKGD", "eta": "{'Day': 15, 'Hour': 10, 'Minute': 0, 'Month': 1}", "display": "", "links": "<a href=\"https://www.vesselfinder.com/vessels?name=8807416\" target=\"_blank\" rel=\"noopener\">VesselFinder</a> | <a href=\"https://www.marinetraffic.com/en/ais/search/all?keyword=8807416\" target=\"_blank\" rel=\"noopener\">MarineTraffic</a>", "vf_url": "https://www.vesselfinder.com/vessels?name=8807416", "mst_url": "https://www.marinetraffic.com/en/ais/search/all?keyword=8807416", "method": "v3_2pass_track3d_fromru10d", "ru_seen_in_lookback": true, "in_monitor_on_day": true}}, {"type": "Feature", "geometry": {"type": "Point", "coordinates": [19.72300166666667, 54.69508833333334]}, "properties": {"label": "AMBAL", "mmsi": "273355410", "imo": "8807416", "name": "AMBAL", "shiptype": "", "first_seen_utc": "2026-01-07T11:24:31Z", "last_seen_utc": "2026-01-15T07:57:35Z", "destination": "RUULU/RUKGD", "eta": "{'Day': 15, 'Hour': 10, 'Minute': 0, 'Month': 1}", "display": "AMBAL (273355410)", "links": "<a href=\"https://www.vesselfinder.com/vessels?name=8807416\" target=\"_blank\" rel=\"noopener\">VesselFinder</a> | <a href=\"https://www.marinetraffic.com/en/ais/search/all?keyword=8807416\" target=\"_blank\" rel=\"noopener\">MarineTraffic</a>", "vf_url": "https://www.vesselfinder.com/vessels?name=8807416", "mst_url": "https://www.marinetraffic.com/en/ais/search/all?keyword=8807416", "method": "v3_2pass_track3d_fromru10d", "ru_seen_in_lookback": true, "in_monitor_on_day": true}}, {"type": "Feature", "geometry": {"type": "LineString", "coordinates": [[3.2647233333333334, 52.79225833333333], [3.3423683333333334, 52.904495], [3.403286666666667, 53.007595], [3.473675, 53.12462333333334], [3.5480033333333334, 53.22159333333333], [3.6202716666666666, 53.315508333333334], [3.70458, 53.41787166666666], [3.7911833333333336, 53.50880666666667], [3.933806666666667, 53.574315], [4.125615, 53.663025], [4.7408866666666665, 54.243446666666664], [7.2449699999999995, 56.91115166666667], [7.419855, 56.99627833333333], [7.57655, 57.08414666666667], [7.729493333333334, 57.17457], [7.869995, 57.25844], [8.006783333333333, 57.35113666666667], [8.115531666666666, 57.453493333333334], [8.28271, 57.51759833333333], [8.486728333333334, 57.56049333333333], [8.694813333333334, 57.60241], [8.90828, 57.64442333333333], [9.125128333333333, 57.68936166666666], [9.341938333333333, 57.73447], [9.542431666666666, 57.773875], [9.74464, 57.79600833333333], [9.956648333333334, 57.796645], [10.16958, 57.79754666666667], [10.388238333333334, 57.79981166666666], [12.365081666666667, 56.19880666666666], [12.455793333333334, 56.14353666666667], [12.589878333333333, 56.083020000000005], [12.677095000000001, 55.985115], [12.661354999999999, 55.884636666666665], [12.701028333333333, 55.78216833333333], [12.683695, 55.676723333333335], [12.699155, 55.59665333333333], [12.700565000000001, 55.53750166666667], [12.680476666666667, 55.458690000000004], [12.641181666666666, 55.35980666666667], [12.702068333333333, 55.28258666666667], [12.87275, 55.246406666666665], [14.146438333333332, 55.14777166666667], [14.333286666666668, 55.191050000000004], [14.452486666666665, 55.27160833333333], [14.570435, 55.355205], [14.704403333333333, 55.42453166666667], [14.874773333333334, 55.46903], [15.040373333333333, 55.514720000000004], [15.228784999999998, 55.55701333333333], [15.396431666666667, 55.590244999999996]]}, "properties": {"label": "GEFEST", "mmsi": "273272850", "imo": "9319882", "name": "GEFEST", "shiptype": "", "first_seen_utc": "2026-01-12T07:11:50Z", "last_seen_utc": "2026-01-15T08:35:20Z", "destination": "RU ULU", "eta": "{'Day': 17, 'Hour': 10, 'Minute': 0, 'Month': 1}", "display": "", "links": "<a href=\"https://www.vesselfinder.com/vessels?name=9319882\" target=\"_blank\" rel=\"noopener\">VesselFinder</a> | <a href=\"https://www.marinetraffic.com/en/ais/search/all?keyword=9319882\" target=\"_blank\" rel=\"noopener\">MarineTraffic</a>", "vf_url": "https://www.vesselfinder.com/vessels?name=9319882", "mst_url": "https://www.marinetraffic.com/en/ais/search/all?keyword=9319882", "method": "v3_2pass_track3d_fromru10d", "ru_seen_in_lookback": false, "in_monitor_on_day": true}}, {"type": "Feature", "geometry": {"type": "Point", "coordinates": [15.396431666666667, 55.590244999999996]}, "properties": {"label": "GEFEST", "mmsi": "273272850", "imo": "9319882", "name": "GEFEST", "shiptype": "", "first_seen_utc": "2026-01-12T07:11:50Z", "last_seen_utc": "2026-01-15T08:35:20Z", "destination": "RU ULU", "eta": "{'Day': 17, 'Hour': 10, 'Minute': 0, 'Month': 1}", "display": "GEFEST (273272850)", "links": "<a href=\"https://www.vesselfinder.com/vessels?name=9319882\" target=\"_blank\" rel=\"noopener\">VesselFinder</a> | <a href=\"https://www.marinetraffic.com/en/ais/search/all?keyword=9319882\" target=\"_blank\" rel=\"noopener\">MarineTraffic</a>", "vf_url": "https://www.vesselfinder.com/vessels?name=9319882", "mst_url": "https://www.marinetraffic.com/en/ais/search/all?keyword=9319882", "method": "v3_2pass_track3d_fromru10d", "ru_seen_in_lookback": false, "in_monitor_on_day": true}}, {"type": "Feature", "geometry": {"type": "LineString", "coordinates": [[3.3616216666666667, 52.940725], [7.821185, 57.17043666666667], [7.992361666666667, 57.235895], [8.186919999999999, 57.30186333333334], [8.617031666666666, 57.45030833333333], [8.792726666666665, 57.51070666666667], [8.998653333333333, 57.581331666666664], [9.177695, 57.64209], [9.34544, 57.701483333333336], [9.609208333333333, 57.789946666666665], [9.848268333333333, 57.79772666666667], [12.396071666666668, 56.196315], [12.504529999999999, 56.12439666666667], [12.638881666666666, 56.05448333333333], [12.630681666666668, 55.957660000000004], [12.667823333333333, 55.86308333333333], [12.699858333333333, 55.770250000000004], [12.686658333333332, 55.673390000000005], [12.700478333333333, 55.585521666666665], [12.685583333333334, 55.502590000000005], [12.638141666666666, 55.40788166666667], [12.617536666666666, 55.313015], [12.766723333333335, 55.26777166666667], [13.01447, 55.23569666666666], [13.303831666666667, 55.21671333333334], [14.182791666666667, 55.16529666666667], [14.328468333333332, 55.20512], [14.459810000000001, 55.27708], [14.583915, 55.35171666666667], [14.725335, 55.40698666666666], [14.788705, 55.42632833333333], [14.941541666666666, 55.47174333333333], [15.097443333333333, 55.520878333333336], [15.252886666666665, 55.56505666666667], [15.428246666666666, 55.61193166666667]]}, "properties": {"label": "MELITO CARRIER", "mmsi": "273257120", "imo": "8920581", "name": "MELITO CARRIER", "shiptype": "", "first_seen_utc": "2026-01-12T09:54:47Z", "last_seen_utc": "2026-01-15T14:44:03Z", "destination": "RU LED", "eta": "{'Day': 18, 'Hour': 12, 'Minute': 0, 'Month': 1}", "display": "", "links": "<a href=\"https://www.vesselfinder.com/vessels?name=8920581\" target=\"_blank\" rel=\"noopener\">VesselFinder</a> | <a href=\"https://www.marinetraffic.com/en/ais/search/all?keyword=8920581\" target=\"_blank\" rel=\"noopener\">MarineTraffic</a>", "vf_url": "https://www.vesselfinder.com/vessels?name=8920581", "mst_url": "https://www.marinetraffic.com/en/ais/search/all?keyword=8920581", "method": "v3_2pass_track3d_fromru10d", "ru_seen_in_lookback": false, "in_monitor_on_day": true}}, {"type": "Feature", "geometry": {"type": "Point", "coordinates": [15.428246666666666, 55.61193166666667]}, "properties": {"label": "MELITO CARRIER", "mmsi": "273257120", "imo": "8920581", "name": "MELITO CARRIER", "shiptype": "", "first_seen_utc": "2026-01-12T09:54:47Z", "last_seen_utc": "2026-01-15T14:44:03Z", "destination": "RU LED", "eta": "{'Day': 18, 'Hour': 12, 'Minute': 0, 'Month': 1}", "display": "MELITO CARRIER (273257120)", "links": "<a href=\"https://www.vesselfinder.com/vessels?name=8920581\" target=\"_blank\" rel=\"noopener\">VesselFinder</a> | <a href=\"https://www.marinetraffic.com/en/ais/search/all?keyword=8920581\" target=\"_blank\" rel=\"noopener\">MarineTraffic</a>", "vf_url": "https://www.vesselfinder.com/vessels?name=8920581", "mst_url": "https://www.marinetraffic.com/en/ais/search/all?keyword=8920581", "method": "v3_2pass_track3d_fromru10d", "ru_seen_in_lookback": false, "in_monitor_on_day": true}}, {"type": "Feature", "geometry": {"type": "LineString", "coordinates": [[1.8423183333333335, 51.15042833333334], [1.9521799999999998, 51.19178333333333], [2.0648133333333334, 51.22692833333333], [2.1228716666666667, 51.29308], [2.133411666666667, 51.36983], [2.173598333333333, 51.44350833333333], [2.267233333333333, 51.512903333333334], [2.423958333333333, 51.631319999999995], [2.5337383333333334, 51.714076666666664], [2.62475, 51.87615166666667], [3.027835, 52.55760833333333], [7.995903333333334, 57.135236666666664], [8.089220000000001, 57.233365000000006], [8.176631666666667, 57.309713333333335], [8.340085, 57.35079666666666], [8.482708333333333, 57.39858666666667], [8.611261666666667, 57.45032833333333], [8.750181666666666, 57.49682], [8.884968333333335, 57.54548666666667], [9.054825, 57.610765], [9.256203333333334, 57.680701666666664], [9.403220000000001, 57.73052], [9.549168333333334, 57.779331666666664], [9.729144999999999, 57.804343333333335], [9.897783333333333, 57.805978333333336], [10.05476, 57.80953], [10.21489, 57.81010666666667], [10.373568333333333, 57.810465]]}, "properties": {"label": "ARIADNE", "mmsi": "273268690", "imo": "9397547", "name": "ARIADNE", "shiptype": "", "first_seen_utc": "2026-01-12T11:50:42Z", "last_seen_utc": "2026-01-15T04:09:42Z", "destination": "EGPSD>RUULU", "eta": "{'Day': 18, 'Hour': 15, 'Minute': 0, 'Month': 1}", "display": "", "links": "<a href=\"https://www.vesselfinder.com/vessels?name=9397547\" target=\"_blank\" rel=\"noopener\">VesselFinder</a> | <a href=\"https://www.marinetraffic.com/en/ais/search/all?keyword=9397547\" target=\"_blank\" rel=\"noopener\">MarineTraffic</a>", "vf_url": "https://www.vesselfinder.com/vessels?name=9397547", "mst_url": "https://www.marinetraffic.com/en/ais/search/all?keyword=9397547", "method": "v3_2pass_track3d_fromru10d", "ru_seen_in_lookback": false, "in_monitor_on_day": true}}, {"type": "Feature", "geometry": {"type": "Point", "coordinates": [10.373568333333333, 57.810465]}, "properties": {"label": "ARIADNE", "mmsi": "273268690", "imo": "9397547", "name": "ARIADNE", "shiptype": "", "first_seen_utc": "2026-01-12T11:50:42Z", "last_seen_utc": "2026-01-15T04:09:42Z", "destination": "EGPSD>RUULU", "eta": "{'Day': 18, 'Hour': 15, 'Minute': 0, 'Month': 1}", "display": "ARIADNE (273268690)", "links": "<a href=\"https://www.vesselfinder.com/vessels?name=9397547\" target=\"_blank\" rel=\"noopener\">VesselFinder</a> | <a href=\"https://www.marinetraffic.com/en/ais/search/all?keyword=9397547\" target=\"_blank\" rel=\"noopener\">MarineTraffic</a>", "vf_url": "https://www.vesselfinder.com/vessels?name=9397547", "mst_url": "https://www.marinetraffic.com/en/ais/search/all?keyword=9397547", "method": "v3_2pass_track3d_fromru10d", "ru_seen_in_lookback": false, "in_monitor_on_day": true}}, {"type": "Feature", "geometry": {"type": "LineString", "coordinates": [[-0.7473116666666667, 50.190711666666665], [-0.4348383333333333, 50.248981666666666], [-0.25905833333333333, 50.283543333333334], [1.3413416666666669, 50.68972333333333], [1.3914816666666667, 50.77215], [1.4355366666666667, 50.856275], [1.5930283333333333, 50.98978833333333], [1.6943483333333333, 51.05459], [1.7882033333333331, 51.11653], [1.8937466666666665, 51.166945000000005], [2.008391666666667, 51.209965000000004], [2.100601666666667, 51.261026666666666], [2.1321766666666666, 51.34003833333334], [2.4636283333333333, 51.66075333333333], [2.57401, 51.74926333333334], [2.635125, 51.85907666666667], [7.289808333333334, 56.832901666666665], [7.469938333333333, 57.014853333333335], [7.965310000000001, 57.273665]]}, "properties": {"label": "ONEGA", "mmsi": "273273930", "imo": "9384459", "name": "ONEGA", "shiptype": "", "first_seen_utc": "2026-01-13T00:13:03Z", "last_seen_utc": "2026-01-15T10:11:54Z", "destination": "RUKGD", "eta": "{'Day': 18, 'Hour': 20, 'Minute': 0, 'Month': 1}", "display": "", "links": "<a href=\"https://www.vesselfinder.com/vessels?name=9384459\" target=\"_blank\" rel=\"noopener\">VesselFinder</a> | <a href=\"https://www.marinetraffic.com/en/ais/search/all?keyword=9384459\" target=\"_blank\" rel=\"noopener\">MarineTraffic</a>", "vf_url": "https://www.vesselfinder.com/vessels?name=9384459", "mst_url": "https://www.marinetraffic.com/en/ais/search/all?keyword=9384459", "method": "v3_2pass_track3d_fromru10d", "ru_seen_in_lookback": false, "in_monitor_on_day": true}}, {"type": "Feature", "geometry": {"type": "Point", "coordinates": [7.965310000000001, 57.273665]}, "properties": {"label": "ONEGA", "mmsi": "273273930", "imo": "9384459", "name": "ONEGA", "shiptype": "", "first_seen_utc": "2026-01-13T00:13:03Z", "last_seen_utc": "2026-01-15T10:11:54Z", "destination": "RUKGD", "eta": "{'Day': 18, 'Hour': 20, 'Minute': 0, 'Month': 1}", "display": "ONEGA (273273930)", "links": "<a href=\"https://www.vesselfinder.com/vessels?name=9384459\" target=\"_blank\" rel=\"noopener\">VesselFinder</a> | <a href=\"https://www.marinetraffic.com/en/ais/search/all?keyword=9384459\" target=\"_blank\" rel=\"noopener\">MarineTraffic</a>", "vf_url": "https://www.vesselfinder.com/vessels?name=9384459", "mst_url": "https://www.marinetraffic.com/en/ais/search/all?keyword=9384459", "method": "v3_2pass_track3d_fromru10d", "ru_seen_in_lookback": false, "in_monitor_on_day": true}}]}