{"type": "FeatureCollection", "features": [{"type": "Feature", "geometry": {"type": "LineString", "coordinates": [[15.181063333333332, 55.59878666666667], [15.031018333333332, 55.558234999999996], [14.877303333333334, 55.51748833333333], [14.721486666666667, 55.47654]]}, "properties": {"label": "ELYTE", "mmsi": "667002017", "imo": "9345623", "name": "ELYTE", "shiptype": "", "first_seen_utc": "2025-12-28T04:44:40Z", "last_seen_utc": "2026-01-06T01:49:58Z", "destination": "SG SIN", "eta": "{'Day': 9, 'Hour': 12, 'Minute': 0, 'Month': 2}", "display": "", "links": "<a href=\"https://www.vesselfinder.com/vessels?name=9345623\" target=\"_blank\" rel=\"noopener\">VesselFinder</a> | <a href=\"https://www.marinetraffic.com/en/ais/search/all?keyword=9345623\" target=\"_blank\" rel=\"noopener\">MarineTraffic</a>", "vf_url": "https://www.vesselfinder.com/vessels?name=9345623", "mst_url": "https://www.marinetraffic.com/en/ais/search/all?keyword=9345623", "method": "v3_2pass_track3d_fromru10d", "ru_seen_in_lookback": true, "in_monitor_on_day": true}}, {"type": "Feature", "geometry": {"type": "Point", "coordinates": [14.721486666666667, 55.47654]}, "properties": {"label": "ELYTE", "mmsi": "667002017", "imo": "9345623", "name": "ELYTE", "shiptype": "", "first_seen_utc": "2025-12-28T04:44:40Z", "last_seen_utc": "2026-01-06T01:49:58Z", "destination": "SG SIN", "eta": "{'Day': 9, 'Hour': 12, 'Minute': 0, 'Month': 2}", "display": "ELYTE (667002017)", "links": "<a href=\"https://www.vesselfinder.com/vessels?name=9345623\" target=\"_blank\" rel=\"noopener\">VesselFinder</a> | <a href=\"https://www.marinetraffic.com/en/ais/search/all?keyword=9345623\" target=\"_blank\" rel=\"noopener\">MarineTraffic</a>", "vf_url": "https://www.vesselfinder.com/vessels?name=9345623", "mst_url": "https://www.marinetraffic.com/en/ais/search/all?keyword=9345623", "method": "v3_2pass_track3d_fromru10d", "ru_seen_in_lookback": true, "in_monitor_on_day": true}}, {"type": "Feature", "geometry": {"type": "LineString", "coordinates": [[14.940056666666667, 55.534705], [12.291466666666668, 54.606943333333334], [12.230538333333334, 54.52834166666666], [12.170241666666668, 54.4458], [12.010751666666666, 54.437981666666666], [11.84497, 54.442235], [11.672368333333333, 54.470196666666666]]}, "properties": {"label": "JEWEL", "mmsi": "374987000", "imo": "9419450", "name": "JEWEL", "shiptype": "", "first_seen_utc": "2025-12-29T02:24:25Z", "last_seen_utc": "2026-01-06T03:31:31Z", "destination": "EGPSD", "eta": "{'Day': 20, 'Hour': 20, 'Minute': 0, 'Month': 1}", "display": "", "links": "<a href=\"https://www.vesselfinder.com/vessels?name=9419450\" target=\"_blank\" rel=\"noopener\">VesselFinder</a> | <a href=\"https://www.marinetraffic.com/en/ais/search/all?keyword=9419450\" target=\"_blank\" rel=\"noopener\">MarineTraffic</a>", "vf_url": "https://www.vesselfinder.com/vessels?name=9419450", "mst_url": "https://www.marinetraffic.com/en/ais/search/all?keyword=9419450", "method": "v3_2pass_track3d_fromru10d", "ru_seen_in_lookback": true, "in_monitor_on_day": true}}, {"type": "Feature", "geometry": {"type": "Point", "coordinates": [11.672368333333333, 54.470196666666666]}, "properties": {"label": "JEWEL", "mmsi": "374987000", "imo": "9419450", "name": "JEWEL", "shiptype": "", "first_seen_utc": "2025-12-29T02:24:25Z", "last_seen_utc": "2026-01-06T03:31:31Z", "destination": "EGPSD", "eta": "{'Day': 20, 'Hour': 20, 'Minute': 0, 'Month': 1}", "display": "JEWEL (374987000)", "links": "<a href=\"https://www.vesselfinder.com/vessels?name=9419450\" target=\"_blank\" rel=\"noopener\">VesselFinder</a> | <a href=\"https://www.marinetraffic.com/en/ais/search/all?keyword=9419450\" target=\"_blank\" rel=\"noopener\">MarineTraffic</a>", "vf_url": "https://www.vesselfinder.com/vessels?name=9419450", "mst_url": "https://www.marinetraffic.com/en/ais/search/all?keyword=9419450", "method": "v3_2pass_track3d_fromru10d", "ru_seen_in_lookback": true, "in_monitor_on_day": true}}, {"type": "Feature", "geometry": {"type": "LineString", "coordinates": [[15.326901666666666, 55.649233333333335], [15.167981666666666, 55.61513333333333], [15.022446666666667, 55.57413833333333], [14.87824, 55.530705], [14.736656666666667, 55.48719333333334], [14.591243333333333, 55.440955], [14.487323333333334, 55.367055], [14.381408333333333, 55.289903333333335], [14.277815, 55.21645], [14.17165, 55.1406], [14.05572, 55.06724666666666], [12.255443333333334, 54.572145], [12.210871666666666, 54.497094999999995], [12.124925, 54.441495], [11.981975, 54.43815666666667], [11.83238, 54.44257833333334], [11.676803333333334, 54.45890333333333], [11.531658333333333, 54.497571666666666], [11.389086666666666, 54.53711833333333], [11.250456666666667, 54.576908333333336], [11.103755, 54.603105], [10.94966, 54.62003333333334], [10.81151, 54.667903333333335], [10.793096666666665, 54.749165], [10.836131666666667, 54.84390166666667], [10.89526, 54.94195833333333], [10.991815, 55.021065], [10.990595, 55.11766166666666], [11.075768333333334, 55.191541666666666], [11.068321666666666, 55.27535666666667], [10.832831666666667, 55.56995833333334], [10.785535000000001, 55.65857333333334], [10.807595, 55.749116666666666], [10.816646666666665, 55.842385], [10.905096666666667, 55.908575000000006]]}, "properties": {"label": "PIONER 1", "mmsi": "273271320", "imo": "9378618", "name": "PIONER 1", "shiptype": "", "first_seen_utc": "2025-12-29T09:09:40Z", "last_seen_utc": "2026-01-06T02:26:28Z", "destination": "SGSIN", "eta": "{'Day': 15, 'Hour': 18, 'Minute': 0, 'Month': 2}", "display": "", "links": "<a href=\"https://www.vesselfinder.com/vessels?name=9378618\" target=\"_blank\" rel=\"noopener\">VesselFinder</a> | <a href=\"https://www.marinetraffic.com/en/ais/search/all?keyword=9378618\" target=\"_blank\" rel=\"noopener\">MarineTraffic</a>", "vf_url": "https://www.vesselfinder.com/vessels?name=9378618", "mst_url": "https://www.marinetraffic.com/en/ais/search/all?keyword=9378618", "method": "v3_2pass_track3d_fromru10d", "ru_seen_in_lookback": true, "in_monitor_on_day": true}}, {"type": "Feature", "geometry": {"type": "Point", "coordinates": [10.905096666666667, 55.908575000000006]}, "properties": {"label": "PIONER 1", "mmsi": "273271320", "imo": "9378618", "name": "PIONER 1", "shiptype": "", "first_seen_utc": "2025-12-29T09:09:40Z", "last_seen_utc": "2026-01-06T02:26:28Z", "destination": "SGSIN", "eta": "{'Day': 15, 'Hour': 18, 'Minute': 0, 'Month': 2}", "display": "PIONER 1 (273271320)", "links": "<a href=\"https://www.vesselfinder.com/vessels?name=9378618\" target=\"_blank\" rel=\"noopener\">VesselFinder</a> | <a href=\"https://www.marinetraffic.com/en/ais/search/all?keyword=9378618\" target=\"_blank\" rel=\"noopener\">MarineTraffic</a>", "vf_url": "https://www.vesselfinder.com/vessels?name=9378618", "mst_url": "https://www.marinetraffic.com/en/ais/search/all?keyword=9378618", "method": "v3_2pass_track3d_fromru10d", "ru_seen_in_lookback": true, "in_monitor_on_day": true}}, {"type": "Feature", "geometry": {"type": "LineString", "coordinates": [[12.023098333333333, 54.443158333333336], [11.842929999999999, 54.443531666666665], [11.665446666666666, 54.466080000000005], [11.498648333333334, 54.5048], [11.34149, 54.5534], [11.182205000000002, 54.597521666666665], [11.004676666666667, 54.602830000000004]]}, "properties": {"label": "CARMA", "mmsi": "461000252", "imo": "9341081", "name": "CARMA", "shiptype": "", "first_seen_utc": "2025-12-29T17:03:23Z", "last_seen_utc": "2026-01-06T03:42:59Z", "destination": "EGPSD", "eta": "{'Day': 19, 'Hour': 18, 'Minute': 0, 'Month': 1}", "display": "", "links": "<a href=\"https://www.vesselfinder.com/vessels?name=9341081\" target=\"_blank\" rel=\"noopener\">VesselFinder</a> | <a href=\"https://www.marinetraffic.com/en/ais/search/all?keyword=9341081\" target=\"_blank\" rel=\"noopener\">MarineTraffic</a>", "vf_url": "https://www.vesselfinder.com/vessels?name=9341081", "mst_url": "https://www.marinetraffic.com/en/ais/search/all?keyword=9341081", "method": "v3_2pass_track3d_fromru10d", "ru_seen_in_lookback": true, "in_monitor_on_day": true}}, {"type": "Feature", "geometry": {"type": "Point", "coordinates": [11.004676666666667, 54.602830000000004]}, "properties": {"label": "CARMA", "mmsi": "461000252", "imo": "9341081", "name": "CARMA", "shiptype": "", "first_seen_utc": "2025-12-29T17:03:23Z", "last_seen_utc": "2026-01-06T03:42:59Z", "destination": "EGPSD", "eta": "{'Day': 19, 'Hour': 18, 'Minute': 0, 'Month': 1}", "display": "CARMA (461000252)", "links": "<a href=\"https://www.vesselfinder.com/vessels?name=9341081\" target=\"_blank\" rel=\"noopener\">VesselFinder</a> | <a href=\"https://www.marinetraffic.com/en/ais/search/all?keyword=9341081\" target=\"_blank\" rel=\"noopener\">MarineTraffic</a>", "vf_url": "https://www.vesselfinder.com/vessels?name=9341081", "mst_url": "https://www.marinetraffic.com/en/ais/search/all?keyword=9341081", "method": "v3_2pass_track3d_fromru10d", "ru_seen_in_lookback": true, "in_monitor_on_day": true}}, {"type": "Feature", "geometry": {"type": "LineString", "coordinates": [[15.17046, 55.60875], [15.022934999999999, 55.56929], [14.886178333333334, 55.53146666666667], [14.741710000000001, 55.49068], [12.348205, 54.630665], [12.251098333333335, 54.562331666666665], [12.203781666666666, 54.47842333333333], [12.101263333333332, 54.435251666666666], [11.952020000000001, 54.43465666666667], [11.797043333333333, 54.434158333333336], [11.654300000000001, 54.467975], [11.520166666666666, 54.510996666666664]]}, "properties": {"label": "ETHERA", "mmsi": "632001149", "imo": "9387279", "name": "ETHERA", "shiptype": "", "first_seen_utc": "2025-12-30T01:44:52Z", "last_seen_utc": "2026-01-06T03:55:00Z", "destination": "MOROCCO FOR ORDER", "eta": "{'Day': 14, 'Hour': 6, 'Minute': 0, 'Month': 1}", "display": "", "links": "<a href=\"https://www.vesselfinder.com/vessels?name=9387279\" target=\"_blank\" rel=\"noopener\">VesselFinder</a> | <a href=\"https://www.marinetraffic.com/en/ais/search/all?keyword=9387279\" target=\"_blank\" rel=\"noopener\">MarineTraffic</a>", "vf_url": "https://www.vesselfinder.com/vessels?name=9387279", "mst_url": "https://www.marinetraffic.com/en/ais/search/all?keyword=9387279", "method": "v3_2pass_track3d_fromru10d", "ru_seen_in_lookback": true, "in_monitor_on_day": true}}, {"type": "Feature", "geometry": {"type": "Point", "coordinates": [11.520166666666666, 54.510996666666664]}, "properties": {"label": "ETHERA", "mmsi": "632001149", "imo": "9387279", "name": "ETHERA", "shiptype": "", "first_seen_utc": "2025-12-30T01:44:52Z", "last_seen_utc": "2026-01-06T03:55:00Z", "destination": "MOROCCO FOR ORDER", "eta": "{'Day': 14, 'Hour': 6, 'Minute': 0, 'Month': 1}", "display": "ETHERA (632001149)", "links": "<a href=\"https://www.vesselfinder.com/vessels?name=9387279\" target=\"_blank\" rel=\"noopener\">VesselFinder</a> | <a href=\"https://www.marinetraffic.com/en/ais/search/all?keyword=9387279\" target=\"_blank\" rel=\"noopener\">MarineTraffic</a>", "vf_url": "https://www.vesselfinder.com/vessels?name=9387279", "mst_url": "https://www.marinetraffic.com/en/ais/search/all?keyword=9387279", "method": "v3_2pass_track3d_fromru10d", "ru_seen_in_lookback": true, "in_monitor_on_day": true}}, {"type": "Feature", "geometry": {"type": "LineString", "coordinates": [[15.214963333333333, 55.60614666666667], [15.010011666666665, 55.551204999999996], [14.854721666666668, 55.50401], [14.654113333333333, 55.44412833333333], [12.274951666666668, 54.59499666666667], [12.21247, 54.50311666666666]]}, "properties": {"label": "UTAKI", "mmsi": "667002334", "imo": "9262924", "name": "UTAKI", "shiptype": "", "first_seen_utc": "2025-12-30T05:19:33Z", "last_seen_utc": "2026-01-06T03:40:21Z", "destination": "PORT SAID EGYPT", "eta": "{'Day': 20, 'Hour': 8, 'Minute': 0, 'Month': 1}", "display": "", "links": "<a href=\"https://www.vesselfinder.com/vessels?name=9262924\" target=\"_blank\" rel=\"noopener\">VesselFinder</a> | <a href=\"https://www.marinetraffic.com/en/ais/search/all?keyword=9262924\" target=\"_blank\" rel=\"noopener\">MarineTraffic</a>", "vf_url": "https://www.vesselfinder.com/vessels?name=9262924", "mst_url": "https://www.marinetraffic.com/en/ais/search/all?keyword=9262924", "method": "v3_2pass_track3d_fromru10d", "ru_seen_in_lookback": true, "in_monitor_on_day": true}}, {"type": "Feature", "geometry": {"type": "Point", "coordinates": [12.21247, 54.50311666666666]}, "properties": {"label": "UTAKI", "mmsi": "667002334", "imo": "9262924", "name": "UTAKI", "shiptype": "", "first_seen_utc": "2025-12-30T05:19:33Z", "last_seen_utc": "2026-01-06T03:40:21Z", "destination": "PORT SAID EGYPT", "eta": "{'Day': 20, 'Hour': 8, 'Minute': 0, 'Month': 1}", "display": "UTAKI (667002334)", "links": "<a href=\"https://www.vesselfinder.com/vessels?name=9262924\" target=\"_blank\" rel=\"noopener\">VesselFinder</a> | <a href=\"https://www.marinetraffic.com/en/ais/search/all?keyword=9262924\" target=\"_blank\" rel=\"noopener\">MarineTraffic</a>", "vf_url": "https://www.vesselfinder.com/vessels?name=9262924", "mst_url": "https://www.marinetraffic.com/en/ais/search/all?keyword=9262924", "method": "v3_2pass_track3d_fromru10d", "ru_seen_in_lookback": true, "in_monitor_on_day": true}}, {"type": "Feature", "geometry": {"type": "LineString", "coordinates": [[4.000088333333333, 59.591973333333335], [4.002295, 59.485294999999994], [4.012021666666667, 59.379524999999994], [4.016871666666667, 59.275455], [4.011591666666667, 59.172398333333334], [4.005073333333333, 59.067175], [3.9976266666666667, 58.967816666666664], [3.9930499999999998, 58.868215], [3.9825016666666664, 58.77023166666667], [3.9722233333333334, 58.666290000000004], [3.9628883333333333, 58.56502166666667], [3.9525916666666663, 58.46433833333333], [3.9406899999999996, 58.35487], [2.072341666666667, 51.54237166666667], [1.9730349999999999, 51.45779166666667], [1.8945183333333333, 51.355871666666665], [1.8025, 51.25264], [1.6676066666666667, 51.15589], [1.511445, 51.062086666666666], [-0.48646, 50.40230833333333]]}, "properties": {"label": "MIRABEL", "mmsi": "461000255", "imo": "9511521", "name": "MIRABEL", "shiptype": "", "first_seen_utc": "2026-01-03T12:13:57Z", "last_seen_utc": "2026-01-06T03:37:34Z", "destination": "EGPSD", "eta": "{'Day': 16, 'Hour': 19, 'Minute': 0, 'Month': 1}", "display": "", "links": "<a href=\"https://www.vesselfinder.com/vessels?name=9511521\" target=\"_blank\" rel=\"noopener\">VesselFinder</a> | <a href=\"https://www.marinetraffic.com/en/ais/search/all?keyword=9511521\" target=\"_blank\" rel=\"noopener\">MarineTraffic</a>", "vf_url": "https://www.vesselfinder.com/vessels?name=9511521", "mst_url": "https://www.marinetraffic.com/en/ais/search/all?keyword=9511521", "method": "v3_2pass_track3d_fromru10d", "ru_seen_in_lookback": false, "in_monitor_on_day": true}}, {"type": "Feature", "geometry": {"type": "Point", "coordinates": [-0.48646, 50.40230833333333]}, "properties": {"label": "MIRABEL", "mmsi": "461000255", "imo": "9511521", "name": "MIRABEL", "shiptype": "", "first_seen_utc": "2026-01-03T12:13:57Z", "last_seen_utc": "2026-01-06T03:37:34Z", "destination": "EGPSD", "eta": "{'Day': 16, 'Hour': 19, 'Minute': 0, 'Month': 1}", "display": "MIRABEL (461000255)", "links": "<a href=\"https://www.vesselfinder.com/vessels?name=9511521\" target=\"_blank\" rel=\"noopener\">VesselFinder</a> | <a href=\"https://www.marinetraffic.com/en/ais/search/all?keyword=9511521\" target=\"_blank\" rel=\"noopener\">MarineTraffic</a>", "vf_url": "https://www.vesselfinder.com/vessels?name=9511521", "mst_url": "https://www.marinetraffic.com/en/ais/search/all?keyword=9511521", "method": "v3_2pass_track3d_fromru10d", "ru_seen_in_lookback": false, "in_monitor_on_day": true}}]}