{"type": "FeatureCollection", "features": [{"type": "Feature", "geometry": {"type": "LineString", "coordinates": [[10.970538333333334, 55.93599833333334], [10.890105, 55.88176], [10.806701666666667, 55.82854333333333], [10.803661666666667, 55.75879166666667], [10.779121666666667, 55.687525], [11.030065, 55.35515], [11.056396666666666, 55.284414999999996], [11.097073333333332, 55.21573166666667], [11.045856666666667, 55.15177333333334], [11.031628333333334, 55.078603333333334], [11.018229999999999, 55.004463333333334], [10.940198333333333, 54.946675], [10.882281666666668, 54.893085], [10.859425, 54.822705], [10.86555, 54.750440000000005], [10.88447, 54.69053833333333], [10.983476666666666, 54.648025], [11.085496666666668, 54.60727], [11.196453333333332, 54.574843333333334], [11.305148333333333, 54.54503], [11.415061666666666, 54.51121833333333], [11.528718333333334, 54.47900833333333], [11.636515000000001, 54.44501833333334], [11.750358333333333, 54.41748166666666], [11.874848333333334, 54.40931166666667], [11.994296666666665, 54.40923], [12.113401666666666, 54.40978], [12.209916666666667, 54.443239999999996], [14.242616666666667, 55.09737666666667], [14.331353333333334, 55.157606666666666], [14.417488333333333, 55.21453833333333], [14.495361666666668, 55.26951], [14.668623333333333, 55.389064999999995], [14.799991666666667, 55.42254666666667], [14.919891666666667, 55.453828333333334], [15.035425, 55.484426666666664], [15.314251666666667, 55.556720000000006], [18.573035, 55.243246666666664]]}, "properties": {"label": "ONEGA", "mmsi": "273273930", "imo": "9384459", "name": "ONEGA", "shiptype": "", "first_seen_utc": "2026-01-13T00:13:03Z", "last_seen_utc": "2026-01-18T08:25:23Z", "destination": "RUKGD", "eta": "{'Day': 18, 'Hour': 17, 'Minute': 0, 'Month': 1}", "display": "", "links": "<a href=\"https://www.vesselfinder.com/vessels?name=9384459\" target=\"_blank\" rel=\"noopener\">VesselFinder</a> | <a href=\"https://www.marinetraffic.com/en/ais/search/all?keyword=9384459\" target=\"_blank\" rel=\"noopener\">MarineTraffic</a>", "vf_url": "https://www.vesselfinder.com/vessels?name=9384459", "mst_url": "https://www.marinetraffic.com/en/ais/search/all?keyword=9384459", "method": "v3_2pass_track3d_fromru10d", "ru_seen_in_lookback": false, "in_monitor_on_day": true}}, {"type": "Feature", "geometry": {"type": "Point", "coordinates": [18.573035, 55.243246666666664]}, "properties": {"label": "ONEGA", "mmsi": "273273930", "imo": "9384459", "name": "ONEGA", "shiptype": "", "first_seen_utc": "2026-01-13T00:13:03Z", "last_seen_utc": "2026-01-18T08:25:23Z", "destination": "RUKGD", "eta": "{'Day': 18, 'Hour': 17, 'Minute': 0, 'Month': 1}", "display": "ONEGA (273273930)", "links": "<a href=\"https://www.vesselfinder.com/vessels?name=9384459\" target=\"_blank\" rel=\"noopener\">VesselFinder</a> | <a href=\"https://www.marinetraffic.com/en/ais/search/all?keyword=9384459\" target=\"_blank\" rel=\"noopener\">MarineTraffic</a>", "vf_url": "https://www.vesselfinder.com/vessels?name=9384459", "mst_url": "https://www.marinetraffic.com/en/ais/search/all?keyword=9384459", "method": "v3_2pass_track3d_fromru10d", "ru_seen_in_lookback": false, "in_monitor_on_day": true}}, {"type": "Feature", "geometry": {"type": "LineString", "coordinates": [[10.836948333333334, 55.564658333333334], [10.786025, 55.657668333333326], [10.807346666666666, 55.759096666666665], [10.812306666666666, 55.865028333333335], [10.940225, 55.915996666666665], [11.095893333333333, 56.05327333333333], [11.096738333333333, 56.147155], [10.42373, 57.851425], [10.234571666666666, 57.846111666666665], [10.05239, 57.84197833333334], [9.877225000000001, 57.839818333333334], [9.702580000000001, 57.837943333333335], [9.531335, 57.82944166666667], [9.390545, 57.780805], [9.248948333333335, 57.729078333333334], [9.10897, 57.679415], [8.967606666666667, 57.632145], [8.824148333333333, 57.584770000000006], [8.679045, 57.537638333333334], [8.531026666666667, 57.494661666666666], [8.384533333333334, 57.455641666666665], [8.241615, 57.405836666666666], [8.099803333333334, 57.355455], [7.956943333333333, 57.30520166666667], [7.806768333333333, 57.252568333333336], [7.666293333333333, 57.19364666666667], [7.529836666666667, 57.12567333333333], [7.396998333333333, 57.054365], [7.265203333333333, 56.98144166666667], [7.138961666666666, 56.90988333333333], [7.01033, 56.83703166666667], [6.921366666666667, 56.74551333333333], [6.844288333333334, 56.653578333333336], [2.720113333333333, 52.242203333333336], [2.6368050000000003, 52.11219833333334], [2.576165, 51.99452833333333], [2.5104633333333335, 51.861335000000004]]}, "properties": {"label": "MYSTERY", "mmsi": "667001245", "imo": "9332834", "name": "MYSTERY", "shiptype": "", "first_seen_utc": "2026-01-15T00:04:37Z", "last_seen_utc": "2026-01-18T09:05:55Z", "destination": "FOR ORDER", "eta": "{'Day': 29, 'Hour': 15, 'Minute': 0, 'Month': 1}", "display": "", "links": "<a href=\"https://www.vesselfinder.com/vessels?name=9332834\" target=\"_blank\" rel=\"noopener\">VesselFinder</a> | <a href=\"https://www.marinetraffic.com/en/ais/search/all?keyword=9332834\" target=\"_blank\" rel=\"noopener\">MarineTraffic</a>", "vf_url": "https://www.vesselfinder.com/vessels?name=9332834", "mst_url": "https://www.marinetraffic.com/en/ais/search/all?keyword=9332834", "method": "v3_2pass_track3d_fromru10d", "ru_seen_in_lookback": false, "in_monitor_on_day": true}}, {"type": "Feature", "geometry": {"type": "Point", "coordinates": [2.5104633333333335, 51.861335000000004]}, "properties": {"label": "MYSTERY", "mmsi": "667001245", "imo": "9332834", "name": "MYSTERY", "shiptype": "", "first_seen_utc": "2026-01-15T00:04:37Z", "last_seen_utc": "2026-01-18T09:05:55Z", "destination": "FOR ORDER", "eta": "{'Day': 29, 'Hour': 15, 'Minute': 0, 'Month': 1}", "display": "MYSTERY (667001245)", "links": "<a href=\"https://www.vesselfinder.com/vessels?name=9332834\" target=\"_blank\" rel=\"noopener\">VesselFinder</a> | <a href=\"https://www.marinetraffic.com/en/ais/search/all?keyword=9332834\" target=\"_blank\" rel=\"noopener\">MarineTraffic</a>", "vf_url": "https://www.vesselfinder.com/vessels?name=9332834", "mst_url": "https://www.marinetraffic.com/en/ais/search/all?keyword=9332834", "method": "v3_2pass_track3d_fromru10d", "ru_seen_in_lookback": false, "in_monitor_on_day": true}}, {"type": "Feature", "geometry": {"type": "LineString", "coordinates": [[-0.36938, 50.262215], [-0.20754833333333333, 50.290643333333335], [1.2596683333333334, 50.665481666666665], [1.3795933333333332, 50.750099999999996], [1.4308716666666668, 50.861515000000004], [1.5135366666666668, 50.966748333333335], [1.6363316666666667, 51.063635], [1.751655, 51.16573], [1.8817716666666666, 51.264959999999995], [2.0121083333333334, 51.358441666666664], [2.14599, 51.458661666666664], [7.315273333333334, 56.932183333333334], [7.4500850000000005, 57.01175333333333], [7.619515000000001, 57.07774666666667], [7.817136666666667, 57.15560833333333], [7.992231666666667, 57.225858333333335], [8.183953333333333, 57.28758666666667], [8.361413333333333, 57.36168833333333], [8.540836666666667, 57.42783], [8.723053333333333, 57.490705000000005], [8.899705, 57.54799833333333], [9.080551666666667, 57.60762666666667], [9.261365000000001, 57.67164666666667], [9.440641666666666, 57.73839833333333], [9.637541666666667, 57.791185000000006], [9.842630000000002, 57.80251166666667], [10.057875, 57.797893333333334], [10.261668333333335, 57.79222333333333], [10.47618, 57.80005666666667], [12.350846666666666, 56.19987666666667], [12.464191666666666, 56.142248333333335]]}, "properties": {"label": "THRON", "mmsi": "613271404", "imo": "9404948", "name": "THRON", "shiptype": "", "first_seen_utc": "2026-01-16T01:05:15Z", "last_seen_utc": "2026-01-18T09:07:46Z", "destination": "FOR ORDER", "eta": "{'Day': 20, 'Hour': 22, 'Minute': 0, 'Month': 1}", "display": "", "links": "<a href=\"https://www.vesselfinder.com/vessels?name=9404948\" target=\"_blank\" rel=\"noopener\">VesselFinder</a> | <a href=\"https://www.marinetraffic.com/en/ais/search/all?keyword=9404948\" target=\"_blank\" rel=\"noopener\">MarineTraffic</a>", "vf_url": "https://www.vesselfinder.com/vessels?name=9404948", "mst_url": "https://www.marinetraffic.com/en/ais/search/all?keyword=9404948", "method": "v3_2pass_track3d_fromru10d", "ru_seen_in_lookback": false, "in_monitor_on_day": true}}, {"type": "Feature", "geometry": {"type": "Point", "coordinates": [12.464191666666666, 56.142248333333335]}, "properties": {"label": "THRON", "mmsi": "613271404", "imo": "9404948", "name": "THRON", "shiptype": "", "first_seen_utc": "2026-01-16T01:05:15Z", "last_seen_utc": "2026-01-18T09:07:46Z", "destination": "FOR ORDER", "eta": "{'Day': 20, 'Hour': 22, 'Minute': 0, 'Month': 1}", "display": "THRON (613271404)", "links": "<a href=\"https://www.vesselfinder.com/vessels?name=9404948\" target=\"_blank\" rel=\"noopener\">VesselFinder</a> | <a href=\"https://www.marinetraffic.com/en/ais/search/all?keyword=9404948\" target=\"_blank\" rel=\"noopener\">MarineTraffic</a>", "vf_url": "https://www.vesselfinder.com/vessels?name=9404948", "mst_url": "https://www.marinetraffic.com/en/ais/search/all?keyword=9404948", "method": "v3_2pass_track3d_fromru10d", "ru_seen_in_lookback": false, "in_monitor_on_day": true}}, {"type": "Feature", "geometry": {"type": "LineString", "coordinates": [[1.24596, 50.64087833333333], [1.3626316666666667, 50.70764166666667], [1.41262, 50.804685], [1.4594333333333334, 50.91448166666667], [1.5592816666666667, 51.01007333333334], [1.670525, 51.10454666666667], [1.78795, 51.19774833333334], [1.9100966666666668, 51.284725], [2.03045, 51.37055333333333], [2.1632583333333333, 51.45144833333333], [2.4760483333333334, 51.68712666666667], [6.890653333333334, 56.40081333333333], [7.004498333333333, 56.746905], [7.058796666666667, 56.86575666666667], [7.208254999999999, 56.942906666666666], [7.4144483333333335, 57.053014999999995], [7.561138333333333, 57.12621333333333], [7.719208333333333, 57.19696], [7.864625, 57.27360833333333], [8.01909, 57.352695000000004], [8.18022, 57.425415], [8.373361666666666, 57.478696666666664], [8.559686666666666, 57.526381666666666], [8.746711666666666, 57.572543333333336], [8.944873333333334, 57.621030000000005], [9.132903333333333, 57.66894666666667], [9.322560000000001, 57.717515000000006], [9.522036666666667, 57.75850833333333], [9.716695, 57.78586833333333], [9.913136666666666, 57.787596666666666], [10.140568333333333, 57.790058333333334], [10.316883333333333, 57.792503333333336], [10.445523333333334, 57.79456833333334]]}, "properties": {"label": "ONEIROI", "mmsi": "352002241", "imo": "9390587", "name": "ONEIROI", "shiptype": "", "first_seen_utc": "2026-01-16T06:58:40Z", "last_seen_utc": "2026-01-18T03:41:21Z", "destination": "BLTC FR ORDRS", "eta": "{'Day': 21, 'Hour': 15, 'Minute': 0, 'Month': 1}", "display": "", "links": "<a href=\"https://www.vesselfinder.com/vessels?name=9390587\" target=\"_blank\" rel=\"noopener\">VesselFinder</a> | <a href=\"https://www.marinetraffic.com/en/ais/search/all?keyword=9390587\" target=\"_blank\" rel=\"noopener\">MarineTraffic</a>", "vf_url": "https://www.vesselfinder.com/vessels?name=9390587", "mst_url": "https://www.marinetraffic.com/en/ais/search/all?keyword=9390587", "method": "v3_2pass_track3d_fromru10d", "ru_seen_in_lookback": false, "in_monitor_on_day": true}}, {"type": "Feature", "geometry": {"type": "Point", "coordinates": [10.445523333333334, 57.79456833333334]}, "properties": {"label": "ONEIROI", "mmsi": "352002241", "imo": "9390587", "name": "ONEIROI", "shiptype": "", "first_seen_utc": "2026-01-16T06:58:40Z", "last_seen_utc": "2026-01-18T03:41:21Z", "destination": "BLTC FR ORDRS", "eta": "{'Day': 21, 'Hour': 15, 'Minute': 0, 'Month': 1}", "display": "ONEIROI (352002241)", "links": "<a href=\"https://www.vesselfinder.com/vessels?name=9390587\" target=\"_blank\" rel=\"noopener\">VesselFinder</a> | <a href=\"https://www.marinetraffic.com/en/ais/search/all?keyword=9390587\" target=\"_blank\" rel=\"noopener\">MarineTraffic</a>", "vf_url": "https://www.vesselfinder.com/vessels?name=9390587", "mst_url": "https://www.marinetraffic.com/en/ais/search/all?keyword=9390587", "method": "v3_2pass_track3d_fromru10d", "ru_seen_in_lookback": false, "in_monitor_on_day": true}}]}