{"type": "FeatureCollection", "features": [{"type": "Feature", "geometry": {"type": "LineString", "coordinates": [[15.326901666666666, 55.649233333333335], [15.167981666666666, 55.61513333333333], [15.022446666666667, 55.57413833333333], [14.87824, 55.530705], [14.736656666666667, 55.48719333333334], [14.591243333333333, 55.440955], [14.487323333333334, 55.367055], [14.381408333333333, 55.289903333333335], [14.277815, 55.21645], [14.17165, 55.1406], [14.05572, 55.06724666666666], [12.255443333333334, 54.572145], [12.210871666666666, 54.497094999999995], [12.124925, 54.441495], [11.981975, 54.43815666666667], [11.83238, 54.44257833333334], [11.676803333333334, 54.45890333333333], [11.531658333333333, 54.497571666666666], [11.389086666666666, 54.53711833333333], [11.250456666666667, 54.576908333333336], [11.103755, 54.603105], [10.94966, 54.62003333333334], [10.81151, 54.667903333333335], [10.793096666666665, 54.749165], [10.836131666666667, 54.84390166666667], [10.89526, 54.94195833333333], [10.991815, 55.021065], [10.990595, 55.11766166666666], [11.075768333333334, 55.191541666666666], [11.068321666666666, 55.27535666666667], [10.832831666666667, 55.56995833333334], [10.785535000000001, 55.65857333333334], [10.807595, 55.749116666666666], [10.816646666666665, 55.842385], [10.905096666666667, 55.908575000000006]]}, "properties": {"label": "PIONER 1", "mmsi": "273271320", "imo": "9378618", "name": "PIONER 1", "shiptype": "", "first_seen_utc": "2025-12-29T09:09:40Z", "last_seen_utc": "2026-01-06T02:26:28Z", "destination": "SGSIN", "eta": "{'Day': 15, 'Hour': 18, 'Minute': 0, 'Month': 2}", "display": "", "links": "<a href=\"https://www.vesselfinder.com/vessels?name=9378618\" target=\"_blank\" rel=\"noopener\">VesselFinder</a> | <a href=\"https://www.marinetraffic.com/en/ais/search/all?keyword=9378618\" target=\"_blank\" rel=\"noopener\">MarineTraffic</a>", "vf_url": "https://www.vesselfinder.com/vessels?name=9378618", "mst_url": "https://www.marinetraffic.com/en/ais/search/all?keyword=9378618", "method": "v3_2pass_track3d_fromru10d", "ru_seen_in_lookback": true, "in_monitor_on_day": true}}, {"type": "Feature", "geometry": {"type": "Point", "coordinates": [10.905096666666667, 55.908575000000006]}, "properties": {"label": "PIONER 1", "mmsi": "273271320", "imo": "9378618", "name": "PIONER 1", "shiptype": "", "first_seen_utc": "2025-12-29T09:09:40Z", "last_seen_utc": "2026-01-06T02:26:28Z", "destination": "SGSIN", "eta": "{'Day': 15, 'Hour': 18, 'Minute': 0, 'Month': 2}", "display": "PIONER 1 (273271320)", "links": "<a href=\"https://www.vesselfinder.com/vessels?name=9378618\" target=\"_blank\" rel=\"noopener\">VesselFinder</a> | <a href=\"https://www.marinetraffic.com/en/ais/search/all?keyword=9378618\" target=\"_blank\" rel=\"noopener\">MarineTraffic</a>", "vf_url": "https://www.vesselfinder.com/vessels?name=9378618", "mst_url": "https://www.marinetraffic.com/en/ais/search/all?keyword=9378618", "method": "v3_2pass_track3d_fromru10d", "ru_seen_in_lookback": true, "in_monitor_on_day": true}}, {"type": "Feature", "geometry": {"type": "LineString", "coordinates": [[8.394051666666666, 57.44945833333334], [8.240466666666666, 57.393076666666666], [8.104165, 57.33405333333334], [7.973688333333333, 57.26185666666667], [7.840446666666667, 57.185575], [2.1154333333333333, 51.60406833333333], [1.999655, 51.52952666666667], [1.8922033333333335, 51.458668333333335], [1.83213, 51.373628333333336], [1.7942883333333335, 51.29025166666667], [1.728615, 51.21796666666667], [1.6356883333333334, 51.16820666666667], [1.5364483333333332, 51.114095], [1.4303649999999999, 51.051485], [1.2971383333333333, 50.98234], [-0.3805616666666667, 50.44500333333334], [-0.51357, 50.42657166666667], [-0.6597416666666667, 50.405145], [-0.80438, 50.379125], [-0.9499483333333333, 50.35069333333333], [-1.2200933333333335, 50.3032]]}, "properties": {"label": "MYS ZHELANIYA", "mmsi": "273216130", "imo": "9366110", "name": "MYS ZHELANIYA", "shiptype": "", "first_seen_utc": "2026-01-02T14:36:02Z", "last_seen_utc": "2026-01-06T01:23:03Z", "destination": "EG PSD", "eta": "{'Day': 19, 'Hour': 0, 'Minute': 0, 'Month': 1}", "display": "", "links": "<a href=\"https://www.vesselfinder.com/vessels?name=9366110\" target=\"_blank\" rel=\"noopener\">VesselFinder</a> | <a href=\"https://www.marinetraffic.com/en/ais/search/all?keyword=9366110\" target=\"_blank\" rel=\"noopener\">MarineTraffic</a>", "vf_url": "https://www.vesselfinder.com/vessels?name=9366110", "mst_url": "https://www.marinetraffic.com/en/ais/search/all?keyword=9366110", "method": "v3_2pass_track3d_fromru10d", "ru_seen_in_lookback": false, "in_monitor_on_day": true}}, {"type": "Feature", "geometry": {"type": "Point", "coordinates": [-1.2200933333333335, 50.3032]}, "properties": {"label": "MYS ZHELANIYA", "mmsi": "273216130", "imo": "9366110", "name": "MYS ZHELANIYA", "shiptype": "", "first_seen_utc": "2026-01-02T14:36:02Z", "last_seen_utc": "2026-01-06T01:23:03Z", "destination": "EG PSD", "eta": "{'Day': 19, 'Hour': 0, 'Minute': 0, 'Month': 1}", "display": "MYS ZHELANIYA (273216130)", "links": "<a href=\"https://www.vesselfinder.com/vessels?name=9366110\" target=\"_blank\" rel=\"noopener\">VesselFinder</a> | <a href=\"https://www.marinetraffic.com/en/ais/search/all?keyword=9366110\" target=\"_blank\" rel=\"noopener\">MarineTraffic</a>", "vf_url": "https://www.vesselfinder.com/vessels?name=9366110", "mst_url": "https://www.marinetraffic.com/en/ais/search/all?keyword=9366110", "method": "v3_2pass_track3d_fromru10d", "ru_seen_in_lookback": false, "in_monitor_on_day": true}}, {"type": "Feature", "geometry": {"type": "LineString", "coordinates": [[10.934883333333334, 54.93255333333333], [11.028605, 55.002673333333334], [11.047966666666667, 55.09396], [11.078203333333333, 55.182471666666665], [11.078858333333333, 55.267201666666665], [11.041146666666666, 55.35922], [10.832195, 55.58168333333333], [10.793553333333334, 55.67266666666667], [10.810685000000001, 55.761981666666664], [10.855933333333333, 55.84820333333333], [9.540726666666666, 57.826795], [9.366508333333334, 57.81925833333333], [9.198638333333333, 57.81099166666667], [9.020351666666667, 57.80160166666667], [8.857236666666667, 57.78752], [8.680575000000001, 57.774255000000004], [8.490563333333334, 57.76170166666667], [8.298776666666667, 57.74977666666667], [8.098501666666667, 57.74957], [7.903454999999999, 57.748245], [7.714666666666667, 57.74387], [7.524085, 57.74193833333333], [7.3303899999999995, 57.742938333333335], [7.13236, 57.75058666666666], [6.93321, 57.75832833333333], [6.736876666666666, 57.763749999999995], [6.557863333333333, 57.79681166666667], [6.399165, 57.85973333333333], [6.245918333333334, 57.92534], [6.097898333333333, 57.992735], [5.952848333333334, 58.06183166666666], [5.81529, 58.13610333333334], [5.67653, 58.21299833333333], [5.5436700000000005, 58.287940000000006], [4.950895, 58.60448833333333], [4.822848333333334, 58.668393333333334], [4.694171666666667, 58.73193833333333], [4.575521666666666, 58.797201666666666], [4.465318333333333, 58.861673333333336], [4.345281666666667, 58.926788333333334], [4.220745, 58.99369166666667], [4.175426666666667, 59.08101833333333], [4.175521666666667, 59.171745], [4.17769, 59.26199], [4.176158333333333, 59.35336333333333], [4.170063333333333, 59.44315166666667], [4.171811666666667, 59.539273333333334], [4.17054, 59.629805000000005], [4.172045, 59.718788333333336], [4.170453333333334, 59.808861666666665], [4.173055, 59.902775], [4.163173333333334, 59.99901833333333], [4.15501, 60.09466666666666], [4.14142, 60.190738333333336], [4.12606, 60.28758666666667], [4.1092466666666665, 60.38299833333333], [4.100676666666667, 60.47606666666666], [4.0940449999999995, 60.56447166666667], [4.07772, 60.654091666666666], [4.047256666666667, 60.745565000000006], [4.039968333333333, 60.838645], [4.041731666666666, 60.931621666666665], [4.047693333333333, 61.02310333333333], [4.048096666666667, 61.112698333333334], [4.050658333333334, 61.20113], [4.04139, 61.287668333333336]]}, "properties": {"label": "KAPITAN DURACHENKO", "mmsi": "273431440", "imo": "9108336", "name": "KAPITAN DURACHENKO", "shiptype": "", "first_seen_utc": "2026-01-03T08:39:39Z", "last_seen_utc": "2026-01-06T03:32:32Z", "destination": "TROMSE", "eta": "{'Day': 9, 'Hour': 8, 'Minute': 0, 'Month': 1}", "display": "", "links": "<a href=\"https://www.vesselfinder.com/vessels?name=9108336\" target=\"_blank\" rel=\"noopener\">VesselFinder</a> | <a href=\"https://www.marinetraffic.com/en/ais/search/all?keyword=9108336\" target=\"_blank\" rel=\"noopener\">MarineTraffic</a>", "vf_url": "https://www.vesselfinder.com/vessels?name=9108336", "mst_url": "https://www.marinetraffic.com/en/ais/search/all?keyword=9108336", "method": "v3_2pass_track3d_fromru10d", "ru_seen_in_lookback": false, "in_monitor_on_day": true}}, {"type": "Feature", "geometry": {"type": "Point", "coordinates": [4.04139, 61.287668333333336]}, "properties": {"label": "KAPITAN DURACHENKO", "mmsi": "273431440", "imo": "9108336", "name": "KAPITAN DURACHENKO", "shiptype": "", "first_seen_utc": "2026-01-03T08:39:39Z", "last_seen_utc": "2026-01-06T03:32:32Z", "destination": "TROMSE", "eta": "{'Day': 9, 'Hour': 8, 'Minute': 0, 'Month': 1}", "display": "KAPITAN DURACHENKO (273431440)", "links": "<a href=\"https://www.vesselfinder.com/vessels?name=9108336\" target=\"_blank\" rel=\"noopener\">VesselFinder</a> | <a href=\"https://www.marinetraffic.com/en/ais/search/all?keyword=9108336\" target=\"_blank\" rel=\"noopener\">MarineTraffic</a>", "vf_url": "https://www.vesselfinder.com/vessels?name=9108336", "mst_url": "https://www.marinetraffic.com/en/ais/search/all?keyword=9108336", "method": "v3_2pass_track3d_fromru10d", "ru_seen_in_lookback": false, "in_monitor_on_day": true}}, {"type": "Feature", "geometry": {"type": "LineString", "coordinates": [[4.025266666666666, 61.40111666666667], [4.0247166666666665, 61.30016666666667], [4.016516666666667, 61.199949999999994], [4.007016666666667, 61.1196], [3.997, 61.039433333333335], [4.002883333333333, 60.959399999999995], [4.008366666666666, 60.86581666666667], [4.019966666666667, 60.76005], [4.021583333333333, 60.65646666666667], [4.01785, 60.54943333333333], [4.02275, 60.443133333333336], [4.024, 60.341649999999994], [4.0207999999999995, 60.24225], [4.02, 60.14156666666667], [4.023333333333333, 60.04241666666667], [4.028766666666667, 59.94233333333333], [4.0289166666666665, 59.84578333333333], [4.028416666666667, 59.74508333333333], [4.020883333333333, 59.648199999999996], [4.012933333333334, 59.54635], [4.016283333333333, 59.44506666666667], [4.019583333333333, 59.34386666666667], [4.015016666666667, 59.23921666666667], [4.0122333333333335, 59.13066666666667], [4.0083166666666665, 59.02361666666666], [4.078433333333333, 58.94095], [4.210416666666666, 58.86966666666667], [4.342333333333333, 58.80108333333333], [4.481916666666667, 58.729749999999996], [4.616083333333333, 58.6556], [4.738216666666667, 58.5816], [4.864066666666667, 58.507933333333334], [4.990466666666666, 58.44338333333334], [5.12, 58.377449999999996], [5.24995, 58.312583333333336], [5.3896500000000005, 58.25006666666666], [5.5253, 58.19265], [5.663316666666666, 58.13113333333333], [5.798633333333333, 58.06933333333333], [5.925316666666666, 58.014966666666666], [6.057766666666667, 57.95503333333333], [6.197100000000001, 57.89353333333334], [6.335666666666667, 57.83475], [6.471733333333333, 57.775616666666664], [6.6186, 57.727650000000004], [6.796216666666667, 57.72046666666667], [6.9713666666666665, 57.71255], [7.1390666666666664, 57.706066666666665], [7.301433333333334, 57.70251666666666], [7.457483333333333, 57.699283333333334], [7.60905, 57.69265], [7.758883333333333, 57.68771666666667], [7.90785, 57.686816666666665], [8.065966666666666, 57.695883333333335], [8.23185, 57.706583333333334], [8.388866666666667, 57.718783333333334], [8.555733333333334, 57.72091666666667], [8.744366666666668, 57.726800000000004], [8.942933333333334, 57.737049999999996], [9.18085, 57.748133333333335], [10.257633333333333, 57.79495], [10.88585, 55.879133333333336], [10.809233333333333, 55.82338333333333], [10.801816666666667, 55.756816666666666]]}, "properties": {"label": "ARARAT", "mmsi": "273434350", "imo": "9171187", "name": "ARARAT", "shiptype": "", "first_seen_utc": "2026-01-03T21:19:15Z", "last_seen_utc": "2026-01-06T03:55:15Z", "destination": "RUULU", "eta": "{'Day': 10, 'Hour': 12, 'Minute': 0, 'Month': 1}", "display": "", "links": "<a href=\"https://www.vesselfinder.com/vessels?name=9171187\" target=\"_blank\" rel=\"noopener\">VesselFinder</a> | <a href=\"https://www.marinetraffic.com/en/ais/search/all?keyword=9171187\" target=\"_blank\" rel=\"noopener\">MarineTraffic</a>", "vf_url": "https://www.vesselfinder.com/vessels?name=9171187", "mst_url": "https://www.marinetraffic.com/en/ais/search/all?keyword=9171187", "method": "v3_2pass_track3d_fromru10d", "ru_seen_in_lookback": false, "in_monitor_on_day": true}}, {"type": "Feature", "geometry": {"type": "Point", "coordinates": [10.801816666666667, 55.756816666666666]}, "properties": {"label": "ARARAT", "mmsi": "273434350", "imo": "9171187", "name": "ARARAT", "shiptype": "", "first_seen_utc": "2026-01-03T21:19:15Z", "last_seen_utc": "2026-01-06T03:55:15Z", "destination": "RUULU", "eta": "{'Day': 10, 'Hour': 12, 'Minute': 0, 'Month': 1}", "display": "ARARAT (273434350)", "links": "<a href=\"https://www.vesselfinder.com/vessels?name=9171187\" target=\"_blank\" rel=\"noopener\">VesselFinder</a> | <a href=\"https://www.marinetraffic.com/en/ais/search/all?keyword=9171187\" target=\"_blank\" rel=\"noopener\">MarineTraffic</a>", "vf_url": "https://www.vesselfinder.com/vessels?name=9171187", "mst_url": "https://www.marinetraffic.com/en/ais/search/all?keyword=9171187", "method": "v3_2pass_track3d_fromru10d", "ru_seen_in_lookback": false, "in_monitor_on_day": true}}, {"type": "Feature", "geometry": {"type": "LineString", "coordinates": [[4.013533333333333, 61.994816666666665], [4.00915, 61.905483333333336], [4.00785, 61.8173], [4.007133333333333, 61.731183333333334], [4.004333333333333, 61.64533333333333], [4.008666666666667, 61.55898333333334], [4.0178, 61.470400000000005], [4.0361666666666665, 61.3804], [4.035416666666666, 61.2901], [4.032016666666666, 61.201116666666664], [4.020216666666666, 61.112716666666664], [4.010166666666667, 61.02735], [4.00815, 60.945033333333335], [4.0155666666666665, 60.86011666666666], [4.00935, 60.77375], [4.00245, 60.685399999999994], [3.9977, 60.59578333333333], [4.003066666666666, 60.50393333333333], [4.001366666666667, 60.41438333333333], [4.0013, 60.32333333333334], [3.9977333333333336, 60.23453333333334], [4.00115, 60.14425000000001], [3.9979333333333336, 60.05265], [3.998816666666667, 59.962149999999994], [3.998283333333333, 59.86965], [3.993933333333333, 59.77611666666667], [3.9962, 59.684216666666664], [3.9986, 59.597566666666665], [3.9986, 59.51428333333333], [3.9891666666666667, 59.44736666666667], [3.9988333333333332, 59.389583333333334], [3.9974833333333333, 59.33515], [3.9883, 59.27956666666667], [3.9884, 59.226416666666665], [3.9912666666666667, 59.1691], [3.992633333333333, 59.114533333333334], [3.9917666666666665, 59.057649999999995], [3.9872666666666663, 59.00358333333334], [3.9888833333333333, 58.9494], [3.9899833333333334, 58.89208333333333], [3.9922666666666666, 58.83423333333334], [3.991316666666667, 58.7748], [3.9891666666666667, 58.7168], [3.9908333333333332, 58.65618333333334], [3.9886666666666666, 58.59308333333333], [3.9895833333333335, 58.53208333333334], [3.9884333333333335, 58.4642], [3.9765333333333337, 58.422783333333335], [3.9681833333333336, 58.492916666666666], [3.9760666666666666, 58.55453333333333], [3.9667000000000003, 58.61043333333334], [3.95395, 58.66608333333333], [3.9504499999999996, 58.72748333333333], [3.94905, 58.78855], [3.94025, 58.84983333333333], [3.9293166666666663, 58.91245], [3.9215166666666668, 58.977133333333335], [3.9149833333333333, 59.03778333333333], [3.90705, 59.1047], [3.905733333333333, 59.1776], [3.903233333333333, 59.2506], [3.90215, 59.325050000000005], [3.9053166666666663, 59.400666666666666], [3.9007, 59.467650000000006], [3.908533333333333, 59.7429], [3.91425, 59.81451666666667], [3.9126166666666666, 59.87351666666667], [3.9113333333333333, 59.9338], [3.91525, 59.9945], [3.912383333333333, 60.0546], [3.9114833333333334, 60.11416666666666], [3.9188166666666664, 60.17205], [3.9209666666666667, 60.23191666666666], [3.9196999999999997, 60.29161666666666], [3.9238833333333334, 60.35248333333333], [3.9330333333333334, 60.4154], [3.93425, 60.476816666666664], [3.9335166666666668, 60.538783333333335], [3.9360666666666666, 60.602333333333334], [3.937316666666667, 60.661449999999995], [3.9328166666666666, 60.72185], [3.9286833333333333, 60.780566666666665], [3.9188666666666667, 60.84225], [3.91905, 60.90586666666666], [3.9198999999999997, 60.96873333333333], [3.92085, 61.03181666666667], [3.9170666666666665, 61.09535], [3.9191999999999996, 61.15781666666667], [3.9593166666666666, 61.16158333333333], [4.00125, 61.1051], [4.002033333333333, 61.05216666666667], [4.004383333333333, 61.00371666666667], [4.0085, 60.95556666666666], [4.002633333333333, 60.90646666666667], [4.007216666666666, 60.86228333333334], [4.0422666666666665, 60.822916666666664]]}, "properties": {"label": "SIYANIE SEVERA", "mmsi": "273398650", "imo": "9250385", "name": "SIYANIE SEVERA", "shiptype": "", "first_seen_utc": "2026-01-04T00:36:46Z", "last_seen_utc": "2026-01-06T03:58:45Z", "destination": "SFAX", "eta": "{'Day': 18, 'Hour': 12, 'Minute': 0, 'Month': 1}", "display": "", "links": "<a href=\"https://www.vesselfinder.com/vessels?name=9250385\" target=\"_blank\" rel=\"noopener\">VesselFinder</a> | <a href=\"https://www.marinetraffic.com/en/ais/search/all?keyword=9250385\" target=\"_blank\" rel=\"noopener\">MarineTraffic</a>", "vf_url": "https://www.vesselfinder.com/vessels?name=9250385", "mst_url": "https://www.marinetraffic.com/en/ais/search/all?keyword=9250385", "method": "v3_2pass_track3d_fromru10d", "ru_seen_in_lookback": false, "in_monitor_on_day": true}}, {"type": "Feature", "geometry": {"type": "Point", "coordinates": [4.0422666666666665, 60.822916666666664]}, "properties": {"label": "SIYANIE SEVERA", "mmsi": "273398650", "imo": "9250385", "name": "SIYANIE SEVERA", "shiptype": "", "first_seen_utc": "2026-01-04T00:36:46Z", "last_seen_utc": "2026-01-06T03:58:45Z", "destination": "SFAX", "eta": "{'Day': 18, 'Hour': 12, 'Minute': 0, 'Month': 1}", "display": "SIYANIE SEVERA (273398650)", "links": "<a href=\"https://www.vesselfinder.com/vessels?name=9250385\" target=\"_blank\" rel=\"noopener\">VesselFinder</a> | <a href=\"https://www.marinetraffic.com/en/ais/search/all?keyword=9250385\" target=\"_blank\" rel=\"noopener\">MarineTraffic</a>", "vf_url": "https://www.vesselfinder.com/vessels?name=9250385", "mst_url": "https://www.marinetraffic.com/en/ais/search/all?keyword=9250385", "method": "v3_2pass_track3d_fromru10d", "ru_seen_in_lookback": false, "in_monitor_on_day": true}}, {"type": "Feature", "geometry": {"type": "LineString", "coordinates": [[-0.2816916666666666, 50.271229999999996], [1.2608716666666666, 50.648705]]}, "properties": {"label": "273271850", "mmsi": "273271850", "imo": "", "name": "", "shiptype": "", "first_seen_utc": "2026-01-05T23:04:47Z", "last_seen_utc": "2026-01-06T03:55:16Z", "destination": "", "eta": "", "display": "", "links": "<a href=\"https://www.vesselfinder.com/vessels?name=273271850\" target=\"_blank\" rel=\"noopener\">VesselFinder</a> | <a href=\"https://www.marinetraffic.com/en/ais/search/all?keyword=273271850\" target=\"_blank\" rel=\"noopener\">MarineTraffic</a>", "vf_url": "https://www.vesselfinder.com/vessels?name=273271850", "mst_url": "https://www.marinetraffic.com/en/ais/search/all?keyword=273271850", "method": "v3_2pass_track3d_fromru10d", "ru_seen_in_lookback": false, "in_monitor_on_day": true}}, {"type": "Feature", "geometry": {"type": "Point", "coordinates": [1.2608716666666666, 50.648705]}, "properties": {"label": "273271850", "mmsi": "273271850", "imo": "", "name": "", "shiptype": "", "first_seen_utc": "2026-01-05T23:04:47Z", "last_seen_utc": "2026-01-06T03:55:16Z", "destination": "", "eta": "", "display": "273271850 (273271850)", "links": "<a href=\"https://www.vesselfinder.com/vessels?name=273271850\" target=\"_blank\" rel=\"noopener\">VesselFinder</a> | <a href=\"https://www.marinetraffic.com/en/ais/search/all?keyword=273271850\" target=\"_blank\" rel=\"noopener\">MarineTraffic</a>", "vf_url": "https://www.vesselfinder.com/vessels?name=273271850", "mst_url": "https://www.marinetraffic.com/en/ais/search/all?keyword=273271850", "method": "v3_2pass_track3d_fromru10d", "ru_seen_in_lookback": false, "in_monitor_on_day": true}}]}