{"type": "FeatureCollection", "features": [{"type": "Feature", "geometry": {"type": "LineString", "coordinates": [[28.515486666666668, 59.89708333333333], [15.408811666666667, 55.66444833333333], [15.228248333333333, 55.63397166666667], [15.065850000000001, 55.58801166666667], [14.906255, 55.54206333333333], [14.746145, 55.49592666666667], [14.578223333333334, 55.44723666666666], [14.456816666666667, 55.358595], [14.341355, 55.2731]]}, "properties": {"label": "PIONEER", "mmsi": "273254770", "imo": "9255282", "name": "PIONEER", "shiptype": "", "first_seen_utc": "2026-01-02T00:28:40Z", "last_seen_utc": "2026-01-11T03:36:25Z", "destination": "RUS SAB", "eta": "{'Day': 23, 'Hour': 12, 'Minute': 0, 'Month': 1}", "display": "", "links": "<a href=\"https://www.vesselfinder.com/vessels?name=9255282\" target=\"_blank\" rel=\"noopener\">VesselFinder</a> | <a href=\"https://www.marinetraffic.com/en/ais/search/all?keyword=9255282\" target=\"_blank\" rel=\"noopener\">MarineTraffic</a>", "vf_url": "https://www.vesselfinder.com/vessels?name=9255282", "mst_url": "https://www.marinetraffic.com/en/ais/search/all?keyword=9255282", "method": "v3_2pass_track3d_fromru10d", "ru_seen_in_lookback": true, "in_monitor_on_day": true}}, {"type": "Feature", "geometry": {"type": "Point", "coordinates": [14.341355, 55.2731]}, "properties": {"label": "PIONEER", "mmsi": "273254770", "imo": "9255282", "name": "PIONEER", "shiptype": "", "first_seen_utc": "2026-01-02T00:28:40Z", "last_seen_utc": "2026-01-11T03:36:25Z", "destination": "RUS SAB", "eta": "{'Day': 23, 'Hour': 12, 'Minute': 0, 'Month': 1}", "display": "PIONEER (273254770)", "links": "<a href=\"https://www.vesselfinder.com/vessels?name=9255282\" target=\"_blank\" rel=\"noopener\">VesselFinder</a> | <a href=\"https://www.marinetraffic.com/en/ais/search/all?keyword=9255282\" target=\"_blank\" rel=\"noopener\">MarineTraffic</a>", "vf_url": "https://www.vesselfinder.com/vessels?name=9255282", "mst_url": "https://www.marinetraffic.com/en/ais/search/all?keyword=9255282", "method": "v3_2pass_track3d_fromru10d", "ru_seen_in_lookback": true, "in_monitor_on_day": true}}, {"type": "Feature", "geometry": {"type": "LineString", "coordinates": [[18.9804, 54.911836666666666], [15.237105000000001, 55.556088333333335], [14.96871, 55.567773333333335], [14.814498333333335, 55.531153333333336], [14.685258333333334, 55.493309999999994], [12.22798, 54.56042333333333], [12.211198333333334, 54.482965], [12.12082, 54.44177666666667], [11.993533333333334, 54.44112666666667], [11.859945000000002, 54.440145], [11.739216666666666, 54.453375], [11.624873333333333, 54.485663333333335], [11.504303333333333, 54.518350000000005], [11.386013333333333, 54.55083333333334], [11.264193333333333, 54.58555], [11.14428, 54.62098666666667], [11.03122, 54.658593333333336], [10.914783333333332, 54.696405], [10.877396666666668, 54.768386666666665], [10.883205, 54.855824999999996], [10.940873333333334, 54.936875], [11.029711666666666, 55.00005833333333], [11.042326666666666, 55.079029999999996], [11.056078333333334, 55.149723333333334]]}, "properties": {"label": "ANABAR", "mmsi": "273435910", "imo": "9194012", "name": "ANABAR", "shiptype": "", "first_seen_utc": "2026-01-03T10:39:50Z", "last_seen_utc": "2026-01-11T03:54:31Z", "destination": "RU MMK", "eta": "{'Day': 17, 'Hour': 1, 'Minute': 0, 'Month': 1}", "display": "", "links": "<a href=\"https://www.vesselfinder.com/vessels?name=9194012\" target=\"_blank\" rel=\"noopener\">VesselFinder</a> | <a href=\"https://www.marinetraffic.com/en/ais/search/all?keyword=9194012\" target=\"_blank\" rel=\"noopener\">MarineTraffic</a>", "vf_url": "https://www.vesselfinder.com/vessels?name=9194012", "mst_url": "https://www.marinetraffic.com/en/ais/search/all?keyword=9194012", "method": "v3_2pass_track3d_fromru10d", "ru_seen_in_lookback": true, "in_monitor_on_day": true}}, {"type": "Feature", "geometry": {"type": "Point", "coordinates": [11.056078333333334, 55.149723333333334]}, "properties": {"label": "ANABAR", "mmsi": "273435910", "imo": "9194012", "name": "ANABAR", "shiptype": "", "first_seen_utc": "2026-01-03T10:39:50Z", "last_seen_utc": "2026-01-11T03:54:31Z", "destination": "RU MMK", "eta": "{'Day': 17, 'Hour': 1, 'Minute': 0, 'Month': 1}", "display": "ANABAR (273435910)", "links": "<a href=\"https://www.vesselfinder.com/vessels?name=9194012\" target=\"_blank\" rel=\"noopener\">VesselFinder</a> | <a href=\"https://www.marinetraffic.com/en/ais/search/all?keyword=9194012\" target=\"_blank\" rel=\"noopener\">MarineTraffic</a>", "vf_url": "https://www.vesselfinder.com/vessels?name=9194012", "mst_url": "https://www.marinetraffic.com/en/ais/search/all?keyword=9194012", "method": "v3_2pass_track3d_fromru10d", "ru_seen_in_lookback": true, "in_monitor_on_day": true}}, {"type": "Feature", "geometry": {"type": "LineString", "coordinates": [[15.363511666666666, 55.61350166666667], [15.184043333333333, 55.593475], [15.013293333333333, 55.547291666666666], [14.841116666666666, 55.5084], [14.604989999999999, 55.44039333333333], [14.466583333333334, 55.34239166666667], [14.230598333333335, 55.17358166666667], [12.258511666666667, 54.594255], [12.217863333333334, 54.52329833333333], [12.137168333333333, 54.445816666666666], [11.966108333333333, 54.448141666666665], [11.79304, 54.45701833333333], [11.625271666666666, 54.48535666666667], [11.467076666666665, 54.528486666666666], [11.306705, 54.570861666666666], [11.138663333333334, 54.605955], [10.9603, 54.61931666666667], [10.804456666666665, 54.673030000000004], [10.80699, 54.768805], [10.837175, 54.86443166666666], [10.877893333333333, 54.934650000000005], [11.022785, 55.00231333333333], [11.044115, 55.10720333333334], [11.097383333333333, 55.201710000000006], [11.054788333333333, 55.293800000000005]]}, "properties": {"label": "JUPITER", "mmsi": "273265590", "imo": "9397535", "name": "JUPITER", "shiptype": "", "first_seen_utc": "2026-01-04T21:17:52Z", "last_seen_utc": "2026-01-11T03:12:15Z", "destination": "EGPSD", "eta": "{'Day': 24, 'Hour': 17, 'Minute': 0, 'Month': 1}", "display": "", "links": "<a href=\"https://www.vesselfinder.com/vessels?name=9397535\" target=\"_blank\" rel=\"noopener\">VesselFinder</a> | <a href=\"https://www.marinetraffic.com/en/ais/search/all?keyword=9397535\" target=\"_blank\" rel=\"noopener\">MarineTraffic</a>", "vf_url": "https://www.vesselfinder.com/vessels?name=9397535", "mst_url": "https://www.marinetraffic.com/en/ais/search/all?keyword=9397535", "method": "v3_2pass_track3d_fromru10d", "ru_seen_in_lookback": true, "in_monitor_on_day": true}}, {"type": "Feature", "geometry": {"type": "Point", "coordinates": [11.054788333333333, 55.293800000000005]}, "properties": {"label": "JUPITER", "mmsi": "273265590", "imo": "9397535", "name": "JUPITER", "shiptype": "", "first_seen_utc": "2026-01-04T21:17:52Z", "last_seen_utc": "2026-01-11T03:12:15Z", "destination": "EGPSD", "eta": "{'Day': 24, 'Hour': 17, 'Minute': 0, 'Month': 1}", "display": "JUPITER (273265590)", "links": "<a href=\"https://www.vesselfinder.com/vessels?name=9397535\" target=\"_blank\" rel=\"noopener\">VesselFinder</a> | <a href=\"https://www.marinetraffic.com/en/ais/search/all?keyword=9397535\" target=\"_blank\" rel=\"noopener\">MarineTraffic</a>", "vf_url": "https://www.vesselfinder.com/vessels?name=9397535", "mst_url": "https://www.marinetraffic.com/en/ais/search/all?keyword=9397535", "method": "v3_2pass_track3d_fromru10d", "ru_seen_in_lookback": true, "in_monitor_on_day": true}}]}