{"type": "FeatureCollection", "features": [{"type": "Feature", "geometry": {"type": "LineString", "coordinates": [[2.1028283333333335, 51.55913833333333], [1.983675, 51.480605], [1.9117933333333332, 51.407273333333336], [1.8479533333333333, 51.324994999999994], [1.7705133333333334, 51.24520666666667], [1.68042, 51.175693333333335], [1.6021283333333334, 51.114345], [1.5131383333333335, 51.05369333333333]]}, "properties": {"label": "SIERRA", "mmsi": "613007200", "imo": "9522324", "name": "SIERRA", "shiptype": "", "first_seen_utc": "2025-12-31T06:03:20Z", "last_seen_utc": "2026-01-08T10:03:14Z", "destination": "SGSIN", "eta": "{'Day': 9, 'Hour': 12, 'Minute': 10, 'Month': 2}", "display": "", "links": "<a href=\"https://www.vesselfinder.com/vessels?name=9522324\" target=\"_blank\" rel=\"noopener\">VesselFinder</a> | <a href=\"https://www.marinetraffic.com/en/ais/search/all?keyword=9522324\" target=\"_blank\" rel=\"noopener\">MarineTraffic</a>", "vf_url": "https://www.vesselfinder.com/vessels?name=9522324", "mst_url": "https://www.marinetraffic.com/en/ais/search/all?keyword=9522324", "method": "v3_2pass_track3d_fromru10d", "ru_seen_in_lookback": true, "in_monitor_on_day": true}}, {"type": "Feature", "geometry": {"type": "Point", "coordinates": [1.5131383333333335, 51.05369333333333]}, "properties": {"label": "SIERRA", "mmsi": "613007200", "imo": "9522324", "name": "SIERRA", "shiptype": "", "first_seen_utc": "2025-12-31T06:03:20Z", "last_seen_utc": "2026-01-08T10:03:14Z", "destination": "SGSIN", "eta": "{'Day': 9, 'Hour': 12, 'Minute': 10, 'Month': 2}", "display": "SIERRA (613007200)", "links": "<a href=\"https://www.vesselfinder.com/vessels?name=9522324\" target=\"_blank\" rel=\"noopener\">VesselFinder</a> | <a href=\"https://www.marinetraffic.com/en/ais/search/all?keyword=9522324\" target=\"_blank\" rel=\"noopener\">MarineTraffic</a>", "vf_url": "https://www.vesselfinder.com/vessels?name=9522324", "mst_url": "https://www.marinetraffic.com/en/ais/search/all?keyword=9522324", "method": "v3_2pass_track3d_fromru10d", "ru_seen_in_lookback": true, "in_monitor_on_day": true}}, {"type": "Feature", "geometry": {"type": "LineString", "coordinates": [[15.181063333333332, 55.59878666666667], [15.031018333333332, 55.558234999999996], [14.877303333333334, 55.51748833333333], [14.721486666666667, 55.47654], [12.279478333333333, 54.594], [12.214225, 54.51158833333333], [12.151086666666666, 54.44235666666667], [12.007143333333334, 54.444665], [11.85206, 54.44836333333333], [11.695235, 54.461815], [11.542735, 54.497863333333335], [11.384988333333332, 54.53968166666667], [11.238705000000001, 54.578520000000005], [11.088955, 54.606750000000005], [10.935865, 54.62431166666667], [10.802471666666666, 54.680126666666666], [10.806033333333334, 54.76871666666667], [10.839318333333333, 54.86215833333333], [10.882311666666668, 54.93536833333334], [10.984811666666667, 55.00478333333333], [10.989851666666668, 55.10464], [11.068048333333333, 55.187981666666666], [11.065845, 55.27946833333333], [10.831728333333333, 55.57295], [10.789333333333333, 55.66803], [10.813315, 55.765679999999996], [10.814151666666667, 55.876189999999994], [10.495470000000001, 57.846345], [9.850165, 57.85220833333334], [9.665926666666667, 57.84214833333333], [9.481021666666667, 57.80670833333333], [9.318053333333333, 57.758556666666664], [9.159043333333333, 57.71085333333333], [9.003333333333334, 57.664765], [8.854486666666666, 57.61902666666666], [8.700343333333333, 57.572829999999996], [8.541416666666667, 57.52695666666667], [8.387363333333333, 57.48257], [8.22443, 57.433616666666666], [8.060318333333333, 57.394238333333334], [7.889036666666667, 57.36439666666667], [7.717163333333334, 57.32894666666667], [7.556536666666667, 57.29057666666667], [7.385133333333333, 57.24995166666667], [7.219245, 57.210035], [7.058400000000001, 57.16852666666667], [6.902243333333333, 57.12876333333334], [6.737615, 57.088861666666666], [5.88906, 56.62820333333333], [5.8915766666666665, 56.53208333333334], [5.89287, 56.242623333333334]]}, "properties": {"label": "ELYTE", "mmsi": "667002017", "imo": "9345623", "name": "ELYTE", "shiptype": "", "first_seen_utc": "2026-01-01T13:00:52Z", "last_seen_utc": "2026-01-08T06:26:08Z", "destination": "SG SIN", "eta": "{'Day': 9, 'Hour': 12, 'Minute': 0, 'Month': 2}", "display": "", "links": "<a href=\"https://www.vesselfinder.com/vessels?name=9345623\" target=\"_blank\" rel=\"noopener\">VesselFinder</a> | <a href=\"https://www.marinetraffic.com/en/ais/search/all?keyword=9345623\" target=\"_blank\" rel=\"noopener\">MarineTraffic</a>", "vf_url": "https://www.vesselfinder.com/vessels?name=9345623", "mst_url": "https://www.marinetraffic.com/en/ais/search/all?keyword=9345623", "method": "v3_2pass_track3d_fromru10d", "ru_seen_in_lookback": true, "in_monitor_on_day": true}}, {"type": "Feature", "geometry": {"type": "Point", "coordinates": [5.89287, 56.242623333333334]}, "properties": {"label": "ELYTE", "mmsi": "667002017", "imo": "9345623", "name": "ELYTE", "shiptype": "", "first_seen_utc": "2026-01-01T13:00:52Z", "last_seen_utc": "2026-01-08T06:26:08Z", "destination": "SG SIN", "eta": "{'Day': 9, 'Hour': 12, 'Minute': 0, 'Month': 2}", "display": "ELYTE (667002017)", "links": "<a href=\"https://www.vesselfinder.com/vessels?name=9345623\" target=\"_blank\" rel=\"noopener\">VesselFinder</a> | <a href=\"https://www.marinetraffic.com/en/ais/search/all?keyword=9345623\" target=\"_blank\" rel=\"noopener\">MarineTraffic</a>", "vf_url": "https://www.vesselfinder.com/vessels?name=9345623", "mst_url": "https://www.marinetraffic.com/en/ais/search/all?keyword=9345623", "method": "v3_2pass_track3d_fromru10d", "ru_seen_in_lookback": true, "in_monitor_on_day": true}}, {"type": "Feature", "geometry": {"type": "LineString", "coordinates": [[15.367893333333335, 55.655633333333334], [15.194526666666667, 55.627399999999994], [14.984161666666667, 55.56496], [14.829113333333334, 55.516515], [14.676121666666667, 55.471070000000005], [14.535419999999998, 55.418335], [14.435711666666666, 55.347076666666666], [14.298098333333334, 55.23081], [14.199185, 55.15084], [12.283471666666665, 54.605884999999994], [12.240886666666666, 54.56831], [12.209125, 54.484545000000004], [12.080836666666666, 54.438356666666664], [11.896573333333333, 54.44019], [11.730158333333332, 54.455000000000005], [11.577208333333335, 54.48869333333334], [11.406901666666666, 54.53478500000001], [11.231213333333333, 54.58298333333333], [11.051218333333333, 54.59992666666667], [10.882728333333334, 54.642846666666664], [10.778988333333333, 54.72065666666666], [10.834178333333334, 54.81977666666667], [10.867223333333333, 54.912146666666665], [10.968250000000001, 54.97412166666666]]}, "properties": {"label": "MAINI", "mmsi": "613003573", "imo": "9319870", "name": "MAINI", "shiptype": "", "first_seen_utc": "2026-01-03T13:58:46Z", "last_seen_utc": "2026-01-08T16:01:08Z", "destination": "EG PSD", "eta": "{'Day': 21, 'Hour': 12, 'Minute': 0, 'Month': 1}", "display": "", "links": "<a href=\"https://www.vesselfinder.com/vessels?name=9319870\" target=\"_blank\" rel=\"noopener\">VesselFinder</a> | <a href=\"https://www.marinetraffic.com/en/ais/search/all?keyword=9319870\" target=\"_blank\" rel=\"noopener\">MarineTraffic</a>", "vf_url": "https://www.vesselfinder.com/vessels?name=9319870", "mst_url": "https://www.marinetraffic.com/en/ais/search/all?keyword=9319870", "method": "v3_2pass_track3d_fromru10d", "ru_seen_in_lookback": true, "in_monitor_on_day": true}}, {"type": "Feature", "geometry": {"type": "Point", "coordinates": [10.968250000000001, 54.97412166666666]}, "properties": {"label": "MAINI", "mmsi": "613003573", "imo": "9319870", "name": "MAINI", "shiptype": "", "first_seen_utc": "2026-01-03T13:58:46Z", "last_seen_utc": "2026-01-08T16:01:08Z", "destination": "EG PSD", "eta": "{'Day': 21, 'Hour': 12, 'Minute': 0, 'Month': 1}", "display": "MAINI (613003573)", "links": "<a href=\"https://www.vesselfinder.com/vessels?name=9319870\" target=\"_blank\" rel=\"noopener\">VesselFinder</a> | <a href=\"https://www.marinetraffic.com/en/ais/search/all?keyword=9319870\" target=\"_blank\" rel=\"noopener\">MarineTraffic</a>", "vf_url": "https://www.vesselfinder.com/vessels?name=9319870", "mst_url": "https://www.marinetraffic.com/en/ais/search/all?keyword=9319870", "method": "v3_2pass_track3d_fromru10d", "ru_seen_in_lookback": true, "in_monitor_on_day": true}}, {"type": "Feature", "geometry": {"type": "LineString", "coordinates": [[15.622166666666667, 55.68723333333333], [15.310166666666667, 55.64268333333334], [15.1632, 55.60171666666667], [15.001149999999999, 55.55428333333334], [14.853833333333334, 55.510533333333335], [14.705183333333334, 55.46568333333333], [14.5684, 55.41535], [14.368566666666668, 55.27803333333333], [14.243183333333333, 55.192750000000004], [12.272699999999999, 54.61878333333333], [12.229916666666666, 54.5421], [12.179416666666667, 54.45115], [12.013933333333334, 54.44488333333334], [11.842783333333333, 54.4462], [11.676233333333332, 54.46523333333334], [11.516, 54.509116666666664], [11.354066666666666, 54.55121666666666], [11.188283333333334, 54.592666666666666], [11.016699999999998, 54.60436666666667], [10.860383333333335, 54.65091666666667], [10.783283333333333, 54.73573333333333], [10.836016666666666, 54.8346], [10.872316666666668, 54.92108333333333], [10.978250000000001, 54.995916666666666], [10.990233333333332, 55.0942], [11.0514, 55.181666666666665], [11.0741, 55.26526666666667], [11.03725, 55.37195], [10.8641, 55.52703333333333], [10.791566666666666, 55.62565], [10.800766666666668, 55.730016666666664], [10.817166666666667, 55.8412], [10.91225, 55.9107], [10.49575, 57.85574999999999], [10.296366666666668, 57.85538333333333], [10.101183333333333, 57.85281666666666], [9.91795, 57.85366666666666], [9.728583333333335, 57.85415], [9.542833333333334, 57.853433333333335], [9.3659, 57.82723333333333], [9.19055, 57.77793333333333], [9.022833333333333, 57.7319], [8.861583333333334, 57.687850000000005], [8.7022, 57.645966666666666], [8.542333333333334, 57.60438333333333], [8.378266666666667, 57.56016666666667]]}, "properties": {"label": "SEA OWL I", "mmsi": "620800094", "imo": "9321172", "name": "SEA OWL I", "shiptype": "", "first_seen_utc": "2026-01-04T05:45:14Z", "last_seen_utc": "2026-01-08T15:49:06Z", "destination": "FOR ORDER", "eta": "{'Day': 14, 'Hour': 13, 'Minute': 0, 'Month': 1}", "display": "", "links": "<a href=\"https://www.vesselfinder.com/vessels?name=9321172\" target=\"_blank\" rel=\"noopener\">VesselFinder</a> | <a href=\"https://www.marinetraffic.com/en/ais/search/all?keyword=9321172\" target=\"_blank\" rel=\"noopener\">MarineTraffic</a>", "vf_url": "https://www.vesselfinder.com/vessels?name=9321172", "mst_url": "https://www.marinetraffic.com/en/ais/search/all?keyword=9321172", "method": "v3_2pass_track3d_fromru10d", "ru_seen_in_lookback": true, "in_monitor_on_day": true}}, {"type": "Feature", "geometry": {"type": "Point", "coordinates": [8.378266666666667, 57.56016666666667]}, "properties": {"label": "SEA OWL I", "mmsi": "620800094", "imo": "9321172", "name": "SEA OWL I", "shiptype": "", "first_seen_utc": "2026-01-04T05:45:14Z", "last_seen_utc": "2026-01-08T15:49:06Z", "destination": "FOR ORDER", "eta": "{'Day': 14, 'Hour': 13, 'Minute': 0, 'Month': 1}", "display": "SEA OWL I (620800094)", "links": "<a href=\"https://www.vesselfinder.com/vessels?name=9321172\" target=\"_blank\" rel=\"noopener\">VesselFinder</a> | <a href=\"https://www.marinetraffic.com/en/ais/search/all?keyword=9321172\" target=\"_blank\" rel=\"noopener\">MarineTraffic</a>", "vf_url": "https://www.vesselfinder.com/vessels?name=9321172", "mst_url": "https://www.marinetraffic.com/en/ais/search/all?keyword=9321172", "method": "v3_2pass_track3d_fromru10d", "ru_seen_in_lookback": true, "in_monitor_on_day": true}}, {"type": "Feature", "geometry": {"type": "LineString", "coordinates": [[15.264299999999999, 55.598483333333334], [15.033816666666667, 55.552366666666664], [14.884816666666667, 55.50901666666667], [14.691383333333333, 55.4547], [14.4109, 55.30636666666667], [12.321766666666667, 54.6182], [12.24465, 54.54868333333333], [12.18875, 54.455850000000005], [12.02605, 54.44123333333334], [11.847816666666667, 54.43723333333333], [11.677366666666668, 54.45751666666667], [11.517033333333334, 54.501], [11.355733333333335, 54.548033333333336], [11.191416666666667, 54.59395], [11.020366666666666, 54.59791666666667], [10.86585, 54.649833333333326], [10.777133333333333, 54.72441666666667], [10.834333333333332, 54.82165], [10.862116666666667, 54.90946666666667], [10.950133333333333, 54.964733333333335], [10.993699999999999, 55.06131666666667], [11.004766666666665, 55.16336666666667], [11.099566666666668, 55.23283333333333], [11.038, 55.34271666666667], [10.865016666666666, 55.52373333333333], [10.8021, 55.614850000000004], [10.79915, 55.71015], [10.817583333333333, 55.807766666666666], [10.868416666666667, 55.899300000000004]]}, "properties": {"label": "PATE", "mmsi": "667002026", "imo": "9338905", "name": "PATE", "shiptype": "", "first_seen_utc": "2026-01-04T08:45:47Z", "last_seen_utc": "2026-01-08T14:48:22Z", "destination": "PORT SAID", "eta": "{'Day': 21, 'Hour': 23, 'Minute': 0, 'Month': 1}", "display": "", "links": "<a href=\"https://www.vesselfinder.com/vessels?name=9338905\" target=\"_blank\" rel=\"noopener\">VesselFinder</a> | <a href=\"https://www.marinetraffic.com/en/ais/search/all?keyword=9338905\" target=\"_blank\" rel=\"noopener\">MarineTraffic</a>", "vf_url": "https://www.vesselfinder.com/vessels?name=9338905", "mst_url": "https://www.marinetraffic.com/en/ais/search/all?keyword=9338905", "method": "v3_2pass_track3d_fromru10d", "ru_seen_in_lookback": true, "in_monitor_on_day": true}}, {"type": "Feature", "geometry": {"type": "Point", "coordinates": [10.868416666666667, 55.899300000000004]}, "properties": {"label": "PATE", "mmsi": "667002026", "imo": "9338905", "name": "PATE", "shiptype": "", "first_seen_utc": "2026-01-04T08:45:47Z", "last_seen_utc": "2026-01-08T14:48:22Z", "destination": "PORT SAID", "eta": "{'Day': 21, 'Hour': 23, 'Minute': 0, 'Month': 1}", "display": "PATE (667002026)", "links": "<a href=\"https://www.vesselfinder.com/vessels?name=9338905\" target=\"_blank\" rel=\"noopener\">VesselFinder</a> | <a href=\"https://www.marinetraffic.com/en/ais/search/all?keyword=9338905\" target=\"_blank\" rel=\"noopener\">MarineTraffic</a>", "vf_url": "https://www.vesselfinder.com/vessels?name=9338905", "mst_url": "https://www.marinetraffic.com/en/ais/search/all?keyword=9338905", "method": "v3_2pass_track3d_fromru10d", "ru_seen_in_lookback": true, "in_monitor_on_day": true}}, {"type": "Feature", "geometry": {"type": "LineString", "coordinates": [[1.2608716666666666, 50.648705], [1.393055, 50.71857833333333], [1.42309, 50.82274833333334], [1.4804016666666666, 50.925125], [1.5870199999999999, 51.00958333333333], [1.71973, 51.07521], [1.84703, 51.13887], [1.9838133333333334, 51.19123666666667], [2.098996666666667, 51.254958333333335], [2.150205, 51.346601666666665], [2.19923, 51.43711833333334], [2.476, 51.681898333333336], [2.5836266666666665, 51.77782166666667], [7.161666666666666, 56.970078333333326], [7.443121666666667, 57.07036666666667], [7.60782, 57.120149999999995], [7.804353333333333, 57.18283833333333], [8.20468, 57.29819], [8.564601666666666, 57.416270000000004], [8.85306, 57.52169833333333], [9.168895, 57.631385], [9.368445000000001, 57.696515], [9.635283333333332, 57.788855], [9.851130000000001, 57.79703333333334], [10.06176, 57.80325666666667], [10.305956666666667, 57.810015], [10.981475, 55.945555], [10.855756666666668, 55.86359], [10.79976, 55.77066166666667], [10.772393333333333, 55.64427166666667]]}, "properties": {"label": "PLUTON", "mmsi": "273271850", "imo": "9288746", "name": "PLUTON", "shiptype": "", "first_seen_utc": "2026-01-05T23:04:47Z", "last_seen_utc": "2026-01-08T14:29:32Z", "destination": "BALTICSEA FOR ORDERS", "eta": "{'Day': 11, 'Hour': 6, 'Minute': 0, 'Month': 1}", "display": "", "links": "<a href=\"https://www.vesselfinder.com/vessels?name=9288746\" target=\"_blank\" rel=\"noopener\">VesselFinder</a> | <a href=\"https://www.marinetraffic.com/en/ais/search/all?keyword=9288746\" target=\"_blank\" rel=\"noopener\">MarineTraffic</a>", "vf_url": "https://www.vesselfinder.com/vessels?name=9288746", "mst_url": "https://www.marinetraffic.com/en/ais/search/all?keyword=9288746", "method": "v3_2pass_track3d_fromru10d", "ru_seen_in_lookback": false, "in_monitor_on_day": true}}, {"type": "Feature", "geometry": {"type": "Point", "coordinates": [10.772393333333333, 55.64427166666667]}, "properties": {"label": "PLUTON", "mmsi": "273271850", "imo": "9288746", "name": "PLUTON", "shiptype": "", "first_seen_utc": "2026-01-05T23:04:47Z", "last_seen_utc": "2026-01-08T14:29:32Z", "destination": "BALTICSEA FOR ORDERS", "eta": "{'Day': 11, 'Hour': 6, 'Minute': 0, 'Month': 1}", "display": "PLUTON (273271850)", "links": "<a href=\"https://www.vesselfinder.com/vessels?name=9288746\" target=\"_blank\" rel=\"noopener\">VesselFinder</a> | <a href=\"https://www.marinetraffic.com/en/ais/search/all?keyword=9288746\" target=\"_blank\" rel=\"noopener\">MarineTraffic</a>", "vf_url": "https://www.vesselfinder.com/vessels?name=9288746", "mst_url": "https://www.marinetraffic.com/en/ais/search/all?keyword=9288746", "method": "v3_2pass_track3d_fromru10d", "ru_seen_in_lookback": false, "in_monitor_on_day": true}}]}