{"type": "FeatureCollection", "features": [{"type": "Feature", "geometry": {"type": "LineString", "coordinates": [[15.228248333333333, 55.63397166666667], [15.065850000000001, 55.58801166666667], [14.906255, 55.54206333333333], [14.746145, 55.49592666666667], [14.578223333333334, 55.44723666666666], [14.456816666666667, 55.358595], [14.341355, 55.2731], [14.229718333333333, 55.19106166666666], [12.212533333333333, 54.55782833333333], [12.146383333333334, 54.45665666666666], [11.974958333333332, 54.438586666666666], [11.799823333333334, 54.43371166666667], [11.637571666666666, 54.47230833333333], [11.474471666666666, 54.516036666666665], [11.303663333333333, 54.56172], [11.129871666666666, 54.60485166666667], [10.948766666666668, 54.62011666666667], [10.785076666666667, 54.679563333333334], [10.824216666666667, 54.79139833333333], [10.863526666666667, 54.91281], [10.989946666666667, 54.99933], [10.991428333333333, 55.10765666666667], [11.079008333333332, 55.19316833333333], [11.062488333333333, 55.28839333333334], [10.835186666666667, 55.569975], [10.788855000000002, 55.674078333333334], [10.812945000000001, 55.78101166666667], [10.894723333333333, 55.874763333333334], [11.052048333333333, 55.99093166666667], [10.496638333333333, 57.845105], [10.300456666666665, 57.840603333333334], [10.106591666666667, 57.83603166666667], [9.90474, 57.83040666666667], [9.694853333333333, 57.82308333333334], [9.507088333333334, 57.81630500000001], [9.311681666666667, 57.811924999999995], [9.113908333333335, 57.808236666666666], [8.933468333333334, 57.813613333333336], [8.76207, 57.79983], [8.592606666666667, 57.795395], [8.430128333333334, 57.79129833333333], [8.255328333333333, 57.786595000000005], [8.074415, 57.78265333333333], [7.898463333333334, 57.78201333333333], [7.718823333333333, 57.78548], [7.544925, 57.788785], [7.364173333333333, 57.79231666666667], [7.170190000000001, 57.795975], [6.971355, 57.79988166666667], [6.779121666666667, 57.803583333333336], [6.6037, 57.82281166666667], [6.457890000000001, 57.89001833333334], [6.304946666666667, 57.960546666666666], [6.156596666666667, 58.028855], [5.999415, 58.101911666666666], [5.835285, 58.17925833333334], [5.669101666666666, 58.24847833333333], [5.507575, 58.32654166666667], [5.354486666666667, 58.39608333333333], [5.211436666666667, 58.47236], [5.072563333333333, 58.547605], [4.922663333333333, 58.62887333333333], [4.769191666666667, 58.711675], [4.6224799999999995, 58.79072333333333], [4.474856666666667, 58.87029], [4.326556666666666, 58.94976333333333]]}, "properties": {"label": "PIONEER", "mmsi": "273254770", "imo": "9255282", "name": "PIONEER", "shiptype": "", "first_seen_utc": "2026-01-04T00:16:32Z", "last_seen_utc": "2026-01-13T03:33:30Z", "destination": "RUS SAB", "eta": "{'Day': 23, 'Hour': 12, 'Minute': 0, 'Month': 1}", "display": "", "links": "<a href=\"https://www.vesselfinder.com/vessels?name=9255282\" target=\"_blank\" rel=\"noopener\">VesselFinder</a> | <a href=\"https://www.marinetraffic.com/en/ais/search/all?keyword=9255282\" target=\"_blank\" rel=\"noopener\">MarineTraffic</a>", "vf_url": "https://www.vesselfinder.com/vessels?name=9255282", "mst_url": "https://www.marinetraffic.com/en/ais/search/all?keyword=9255282", "method": "v3_2pass_track3d_fromru10d", "ru_seen_in_lookback": true, "in_monitor_on_day": true}}, {"type": "Feature", "geometry": {"type": "Point", "coordinates": [4.326556666666666, 58.94976333333333]}, "properties": {"label": "PIONEER", "mmsi": "273254770", "imo": "9255282", "name": "PIONEER", "shiptype": "", "first_seen_utc": "2026-01-04T00:16:32Z", "last_seen_utc": "2026-01-13T03:33:30Z", "destination": "RUS SAB", "eta": "{'Day': 23, 'Hour': 12, 'Minute': 0, 'Month': 1}", "display": "PIONEER (273254770)", "links": "<a href=\"https://www.vesselfinder.com/vessels?name=9255282\" target=\"_blank\" rel=\"noopener\">VesselFinder</a> | <a href=\"https://www.marinetraffic.com/en/ais/search/all?keyword=9255282\" target=\"_blank\" rel=\"noopener\">MarineTraffic</a>", "vf_url": "https://www.vesselfinder.com/vessels?name=9255282", "mst_url": "https://www.marinetraffic.com/en/ais/search/all?keyword=9255282", "method": "v3_2pass_track3d_fromru10d", "ru_seen_in_lookback": true, "in_monitor_on_day": true}}, {"type": "Feature", "geometry": {"type": "LineString", "coordinates": [[10.494188333333334, 57.85776], [10.299885, 57.853653333333334], [10.106286666666668, 57.85311333333333], [9.901271666666666, 57.85019], [9.704875, 57.844813333333335], [9.526251666666667, 57.84113833333333], [9.350446666666667, 57.796791666666664], [9.17031, 57.752608333333335], [8.986559999999999, 57.70686833333333], [8.798283333333334, 57.662063333333336], [8.622628333333333, 57.61934333333333], [8.44601, 57.575093333333335], [8.267109999999999, 57.52480166666667], [8.090955, 57.48023], [7.908308333333333, 57.43129333333333], [7.7529200000000005, 57.37692333333334], [7.612591666666666, 57.315176666666666], [7.469328333333333, 57.25544], [3.4213666666666667, 53.25102166666667], [3.3683466666666666, 53.15571666666666], [3.3146433333333336, 53.05190666666667], [3.2653016666666668, 52.95677333333333]]}, "properties": {"label": "NASLEDIE", "mmsi": "273279840", "imo": "9293002", "name": "NASLEDIE", "shiptype": "", "first_seen_utc": "2026-01-04T04:11:19Z", "last_seen_utc": "2026-01-13T03:52:37Z", "destination": "SINGAPORE", "eta": "{'Day': 10, 'Hour': 10, 'Minute': 0, 'Month': 2}", "display": "", "links": "<a href=\"https://www.vesselfinder.com/vessels?name=9293002\" target=\"_blank\" rel=\"noopener\">VesselFinder</a> | <a href=\"https://www.marinetraffic.com/en/ais/search/all?keyword=9293002\" target=\"_blank\" rel=\"noopener\">MarineTraffic</a>", "vf_url": "https://www.vesselfinder.com/vessels?name=9293002", "mst_url": "https://www.marinetraffic.com/en/ais/search/all?keyword=9293002", "method": "v3_2pass_track3d_fromru10d", "ru_seen_in_lookback": true, "in_monitor_on_day": true}}, {"type": "Feature", "geometry": {"type": "Point", "coordinates": [3.2653016666666668, 52.95677333333333]}, "properties": {"label": "NASLEDIE", "mmsi": "273279840", "imo": "9293002", "name": "NASLEDIE", "shiptype": "", "first_seen_utc": "2026-01-04T04:11:19Z", "last_seen_utc": "2026-01-13T03:52:37Z", "destination": "SINGAPORE", "eta": "{'Day': 10, 'Hour': 10, 'Minute': 0, 'Month': 2}", "display": "NASLEDIE (273279840)", "links": "<a href=\"https://www.vesselfinder.com/vessels?name=9293002\" target=\"_blank\" rel=\"noopener\">VesselFinder</a> | <a href=\"https://www.marinetraffic.com/en/ais/search/all?keyword=9293002\" target=\"_blank\" rel=\"noopener\">MarineTraffic</a>", "vf_url": "https://www.vesselfinder.com/vessels?name=9293002", "mst_url": "https://www.marinetraffic.com/en/ais/search/all?keyword=9293002", "method": "v3_2pass_track3d_fromru10d", "ru_seen_in_lookback": true, "in_monitor_on_day": true}}, {"type": "Feature", "geometry": {"type": "Point", "coordinates": [15.306181666666667, 55.64754333333334]}, "properties": {"label": "ARCADIA", "mmsi": "461000247", "imo": "9413573", "name": "ARCADIA", "shiptype": "", "first_seen_utc": "2026-01-04T12:41:03Z", "last_seen_utc": "2026-01-13T03:57:04Z", "destination": "RUULU", "eta": "{'Day': 8, 'Hour': 3, 'Minute': 0, 'Month': 1}", "display": "ARCADIA (461000247)", "links": "<a href=\"https://www.vesselfinder.com/vessels?name=9413573\" target=\"_blank\" rel=\"noopener\">VesselFinder</a> | <a href=\"https://www.marinetraffic.com/en/ais/search/all?keyword=9413573\" target=\"_blank\" rel=\"noopener\">MarineTraffic</a>", "vf_url": "https://www.vesselfinder.com/vessels?name=9413573", "mst_url": "https://www.marinetraffic.com/en/ais/search/all?keyword=9413573", "method": "v3_2pass_track3d_fromru10d", "ru_seen_in_lookback": true, "in_monitor_on_day": true}}, {"type": "Feature", "geometry": {"type": "LineString", "coordinates": [[9.21239, 57.689750000000004], [9.050880000000001, 57.63941666666666], [8.870801666666667, 57.57601833333333], [8.68935, 57.512305], [8.501135, 57.44869833333333], [8.31519, 57.38393], [8.130001666666667, 57.31863], [7.949866666666667, 57.25347], [7.770716666666667, 57.18601666666667], [7.596708333333334, 57.121855], [7.425783333333333, 57.05086666666667], [7.3030100000000004, 56.956588333333336], [2.160343333333333, 51.612100000000005], [2.05062, 51.52703833333333], [1.9480216666666665, 51.444763333333334], [1.8749383333333334, 51.354288333333336], [1.8039383333333334, 51.26741833333333], [1.71671, 51.19593666666666], [1.6154283333333335, 51.139826666666664], [1.5310549999999998, 51.08017666666667], [1.4396383333333334, 51.021965], [1.2791516666666667, 50.901335], [-0.09612166666666666, 50.48563333333333], [-0.27734666666666663, 50.454445], [-0.4301333333333333, 50.42769333333333], [-0.5750133333333333, 50.399906666666666], [-0.7149916666666667, 50.372659999999996], [-0.8530583333333334, 50.34426333333333]]}, "properties": {"label": "ORYX", "mmsi": "314001139", "imo": "9250737", "name": "ORYX", "shiptype": "", "first_seen_utc": "2026-01-06T07:26:38Z", "last_seen_utc": "2026-01-13T03:16:07Z", "destination": "TR ALI", "eta": "{'Day': 22, 'Hour': 5, 'Minute': 0, 'Month': 1}", "display": "", "links": "<a href=\"https://www.vesselfinder.com/vessels?name=9250737\" target=\"_blank\" rel=\"noopener\">VesselFinder</a> | <a href=\"https://www.marinetraffic.com/en/ais/search/all?keyword=9250737\" target=\"_blank\" rel=\"noopener\">MarineTraffic</a>", "vf_url": "https://www.vesselfinder.com/vessels?name=9250737", "mst_url": "https://www.marinetraffic.com/en/ais/search/all?keyword=9250737", "method": "v3_2pass_track3d_fromru10d", "ru_seen_in_lookback": true, "in_monitor_on_day": true}}, {"type": "Feature", "geometry": {"type": "Point", "coordinates": [-0.8530583333333334, 50.34426333333333]}, "properties": {"label": "ORYX", "mmsi": "314001139", "imo": "9250737", "name": "ORYX", "shiptype": "", "first_seen_utc": "2026-01-06T07:26:38Z", "last_seen_utc": "2026-01-13T03:16:07Z", "destination": "TR ALI", "eta": "{'Day': 22, 'Hour': 5, 'Minute': 0, 'Month': 1}", "display": "ORYX (314001139)", "links": "<a href=\"https://www.vesselfinder.com/vessels?name=9250737\" target=\"_blank\" rel=\"noopener\">VesselFinder</a> | <a href=\"https://www.marinetraffic.com/en/ais/search/all?keyword=9250737\" target=\"_blank\" rel=\"noopener\">MarineTraffic</a>", "vf_url": "https://www.vesselfinder.com/vessels?name=9250737", "mst_url": "https://www.marinetraffic.com/en/ais/search/all?keyword=9250737", "method": "v3_2pass_track3d_fromru10d", "ru_seen_in_lookback": true, "in_monitor_on_day": true}}, {"type": "Feature", "geometry": {"type": "LineString", "coordinates": [[15.418971666666666, 55.66701333333333], [15.247455, 55.625930000000004], [15.077918333333335, 55.577194999999996], [14.912004999999999, 55.528778333333335], [14.719253333333334, 55.478314999999995], [14.533199999999999, 55.39908666666667], [14.413343333333334, 55.309195], [14.149783333333334, 55.122475], [12.26057, 54.59231833333333], [12.216953333333333, 54.51233666666667], [12.12482, 54.43899], [11.952526666666667, 54.438478333333336], [11.782536666666665, 54.44398666666667], [11.623635, 54.47687166666666], [11.468063333333333, 54.51892], [11.304408333333333, 54.56341666666666], [11.137411666666667, 54.605375], [10.960793333333333, 54.619703333333334], [10.801781666666667, 54.67062], [10.807328333333334, 54.76905333333333], [10.840298333333333, 54.87919], [10.959660000000001, 54.96948833333333], [10.996298333333334, 55.074023333333336], [11.00972, 55.16425666666667], [11.09975, 55.22853833333333], [11.007010000000001, 55.39814833333333], [10.828211666666666, 55.57664666666667], [10.790693333333333, 55.68366666666667], [10.816266666666667, 55.788064999999996], [10.95522, 55.91985], [10.484576666666667, 57.85313333333333], [9.967791666666667, 57.85231666666667], [9.702621666666666, 57.84991], [9.526458333333332, 57.81645666666667], [9.338298333333334, 57.756883333333334], [9.187251666666667, 57.707501666666666], [9.035956666666667, 57.657900000000005], [8.868895, 57.60765833333333], [8.70994, 57.55478166666667], [8.549695000000002, 57.501423333333335], [8.409830000000001, 57.455358333333336], [8.263461666666666, 57.407925], [8.118508333333333, 57.362535], [7.974751666666666, 57.31758166666667], [7.854801666666666, 57.258345], [7.759846666666666, 57.18608666666667], [7.613571666666667, 57.07823666666666]]}, "properties": {"label": "ALMOND", "mmsi": "273276930", "imo": "9385142", "name": "ALMOND", "shiptype": "", "first_seen_utc": "2026-01-07T21:26:30Z", "last_seen_utc": "2026-01-13T03:08:07Z", "destination": "GIBRALTAR FOR ORDERS", "eta": "{'Day': 18, 'Hour': 13, 'Minute': 0, 'Month': 1}", "display": "", "links": "<a href=\"https://www.vesselfinder.com/vessels?name=9385142\" target=\"_blank\" rel=\"noopener\">VesselFinder</a> | <a href=\"https://www.marinetraffic.com/en/ais/search/all?keyword=9385142\" target=\"_blank\" rel=\"noopener\">MarineTraffic</a>", "vf_url": "https://www.vesselfinder.com/vessels?name=9385142", "mst_url": "https://www.marinetraffic.com/en/ais/search/all?keyword=9385142", "method": "v3_2pass_track3d_fromru10d", "ru_seen_in_lookback": true, "in_monitor_on_day": true}}, {"type": "Feature", "geometry": {"type": "Point", "coordinates": [7.613571666666667, 57.07823666666666]}, "properties": {"label": "ALMOND", "mmsi": "273276930", "imo": "9385142", "name": "ALMOND", "shiptype": "", "first_seen_utc": "2026-01-07T21:26:30Z", "last_seen_utc": "2026-01-13T03:08:07Z", "destination": "GIBRALTAR FOR ORDERS", "eta": "{'Day': 18, 'Hour': 13, 'Minute': 0, 'Month': 1}", "display": "ALMOND (273276930)", "links": "<a href=\"https://www.vesselfinder.com/vessels?name=9385142\" target=\"_blank\" rel=\"noopener\">VesselFinder</a> | <a href=\"https://www.marinetraffic.com/en/ais/search/all?keyword=9385142\" target=\"_blank\" rel=\"noopener\">MarineTraffic</a>", "vf_url": "https://www.vesselfinder.com/vessels?name=9385142", "mst_url": "https://www.marinetraffic.com/en/ais/search/all?keyword=9385142", "method": "v3_2pass_track3d_fromru10d", "ru_seen_in_lookback": true, "in_monitor_on_day": true}}, {"type": "Feature", "geometry": {"type": "LineString", "coordinates": [[7.490286666666666, 57.090605], [7.639528333333333, 57.162295], [7.8107516666666665, 57.225366666666666], [7.950073333333333, 57.30588], [8.09587, 57.380539999999996], [8.263936666666668, 57.44163666666667], [8.444790000000001, 57.48477666666667], [8.631545, 57.526041666666664], [8.842358333333333, 57.569451666666666], [9.029651666666666, 57.61038], [9.214058333333332, 57.64736333333334], [9.398968333333332, 57.68825833333334], [9.581386666666667, 57.72743833333333], [9.766651666666666, 57.766715], [9.942393333333333, 57.79577333333334], [10.124043333333333, 57.80110333333334], [10.30243, 57.80729833333333], [10.482656666666665, 57.81163166666667], [10.972038333333334, 55.938228333333335], [10.873498333333334, 55.872139999999995], [10.802523333333333, 55.805275], [10.794076666666665, 55.72437], [10.77194, 55.64277833333333], [10.822538333333334, 55.56805833333333], [10.98836, 55.40441333333333], [11.02983, 55.33365333333334], [11.077086666666666, 55.25796833333333], [11.065601666666668, 55.18410666666667], [11.037783333333334, 55.11678166666666], [11.02618, 55.03308833333333], [10.966513333333333, 54.96089], [10.881978333333333, 54.89614666666667], [10.857871666666666, 54.818945], [10.85755, 54.729956666666666], [10.943985, 54.66824999999999], [11.074675000000001, 54.61447166666667], [11.21692, 54.56652333333333], [11.366636666666666, 54.527073333333334], [11.51085, 54.489785], [11.665461666666666, 54.445726666666665], [11.82727, 54.411588333333334], [12.001288333333333, 54.409315], [12.172271666666667, 54.41711333333333]]}, "properties": {"label": "NERO", "mmsi": "574005510", "imo": "9374868", "name": "NERO", "shiptype": "", "first_seen_utc": "2026-01-09T14:51:37Z", "last_seen_utc": "2026-01-13T00:18:25Z", "destination": "TALLIN", "eta": "{'Day': 14, 'Hour': 20, 'Minute': 0, 'Month': 1}", "display": "", "links": "<a href=\"https://www.vesselfinder.com/vessels?name=9374868\" target=\"_blank\" rel=\"noopener\">VesselFinder</a> | <a href=\"https://www.marinetraffic.com/en/ais/search/all?keyword=9374868\" target=\"_blank\" rel=\"noopener\">MarineTraffic</a>", "vf_url": "https://www.vesselfinder.com/vessels?name=9374868", "mst_url": "https://www.marinetraffic.com/en/ais/search/all?keyword=9374868", "method": "v3_2pass_track3d_fromru10d", "ru_seen_in_lookback": false, "in_monitor_on_day": true}}, {"type": "Feature", "geometry": {"type": "Point", "coordinates": [12.172271666666667, 54.41711333333333]}, "properties": {"label": "NERO", "mmsi": "574005510", "imo": "9374868", "name": "NERO", "shiptype": "", "first_seen_utc": "2026-01-09T14:51:37Z", "last_seen_utc": "2026-01-13T00:18:25Z", "destination": "TALLIN", "eta": "{'Day': 14, 'Hour': 20, 'Minute': 0, 'Month': 1}", "display": "NERO (574005510)", "links": "<a href=\"https://www.vesselfinder.com/vessels?name=9374868\" target=\"_blank\" rel=\"noopener\">VesselFinder</a> | <a href=\"https://www.marinetraffic.com/en/ais/search/all?keyword=9374868\" target=\"_blank\" rel=\"noopener\">MarineTraffic</a>", "vf_url": "https://www.vesselfinder.com/vessels?name=9374868", "mst_url": "https://www.marinetraffic.com/en/ais/search/all?keyword=9374868", "method": "v3_2pass_track3d_fromru10d", "ru_seen_in_lookback": false, "in_monitor_on_day": true}}, {"type": "Feature", "geometry": {"type": "LineString", "coordinates": [[4.011925, 61.85070666666666], [4.01273, 61.77469833333334], [4.024171666666667, 61.700066666666665], [4.022685, 61.62741166666667], [4.018786666666666, 61.553845], [4.01839, 61.48203], [4.024196666666667, 61.409796666666665], [4.026833333333333, 61.33788833333333], [4.026108333333333, 61.26861833333333], [4.022566666666667, 61.200645], [4.015521666666666, 61.13100833333333], [4.003331666666667, 61.058458333333334], [3.99188, 60.98558833333333], [3.980145, 60.913286666666664], [3.9690466666666664, 60.84352166666667], [3.9702083333333333, 60.775605000000006], [3.97902, 60.70898833333333], [3.9854616666666667, 60.643163333333334], [3.991585, 60.579044999999994], [3.997505, 60.51371166666667], [4.003525, 60.45207666666667], [4.007571666666666, 60.395685], [3.9950783333333333, 60.34415333333333], [3.9807816666666667, 60.30347166666666], [3.981063333333333, 60.263614999999994], [3.9869333333333334, 60.2211], [3.9934516666666666, 60.183345], [3.9939833333333334, 60.153014999999996], [3.9958650000000002, 60.135686666666665], [4.000545, 60.120536666666666], [4.000966666666667, 60.105125], [3.997185, 60.09412333333333], [3.99669, 60.082591666666666], [3.9991, 60.07364666666667], [3.9988433333333333, 60.067069999999994], [3.9958066666666667, 60.06136333333333], [3.9912983333333334, 60.05161333333333], [3.98581, 60.04465166666667], [3.977185, 60.040486666666666], [3.9688149999999998, 60.031905], [3.9599100000000003, 60.026091666666666], [3.950213333333333, 60.023313333333334], [3.9404933333333334, 60.0203], [3.9347966666666663, 60.01645833333334], [3.9308633333333334, 60.013124999999995], [3.9232266666666664, 60.015858333333334], [3.9198749999999998, 60.014835], [3.914195, 60.013956666666665], [3.907465, 60.014336666666665], [3.8991949999999997, 60.013553333333334], [3.894881666666667, 60.01537333333333], [3.8851966666666664, 60.017961666666665], [3.8750483333333334, 60.016510000000004], [3.8621966666666667, 60.01777166666667], [3.8590633333333333, 60.01951333333333], [3.8599616666666665, 60.015465], [3.861135, 60.012640000000005], [3.862835, 60.011425], [3.8651216666666666, 60.01401166666667], [3.87245, 60.01357333333333], [3.8785233333333333, 60.01472166666667], [3.875538333333333, 60.01080666666667], [3.873255, 60.010045], [3.8707333333333334, 60.00853666666667], [3.87215, 60.005723333333336], [3.867985, 60.00174666666667], [3.8599566666666667, 59.99708666666667], [3.8526083333333334, 59.98927666666667], [3.8442366666666667, 59.98461666666667], [3.8462616666666665, 59.98110666666666], [3.8495350000000004, 59.973904999999995], [3.85286, 59.96492833333333], [3.857766666666667, 59.957930000000005], [3.8626633333333333, 59.945335], [3.8609416666666667, 59.942325], [3.8470633333333333, 59.935478333333336], [3.8329283333333333, 59.92549333333333], [3.8240516666666666, 59.91039166666667], [3.819976666666667, 59.896391666666666], [3.823421666666667, 59.873900000000006], [3.8306183333333332, 59.84632333333333], [3.8286616666666666, 59.82450666666667], [3.8279, 59.801855], [3.8317883333333334, 59.77947666666667], [3.83622, 59.75031833333333], [3.8387366666666667, 59.72286999999999], [3.840035, 59.693911666666665], [3.8428016666666664, 59.659681666666664], [3.840335, 59.63019333333333], [3.838925, 59.59921666666666], [3.834568333333333, 59.57003833333333], [3.8367833333333334, 59.53817], [3.843348333333333, 59.501401666666666], [3.848655, 59.46738833333333], [3.8524499999999997, 59.432293333333334], [3.8538349999999997, 59.39685833333333], [3.8587316666666664, 59.311445000000006], [3.86746, 59.271499999999996], [3.879233333333333, 59.22767666666667]]}, "properties": {"label": "CAMEL", "mmsi": "461000253", "imo": "9341079", "name": "CAMEL", "shiptype": "", "first_seen_utc": "2026-01-10T23:13:59Z", "last_seen_utc": "2026-01-13T03:51:20Z", "destination": "EGPSD", "eta": "{'Day': 23, 'Hour': 6, 'Minute': 0, 'Month': 1}", "display": "", "links": "<a href=\"https://www.vesselfinder.com/vessels?name=9341079\" target=\"_blank\" rel=\"noopener\">VesselFinder</a> | <a href=\"https://www.marinetraffic.com/en/ais/search/all?keyword=9341079\" target=\"_blank\" rel=\"noopener\">MarineTraffic</a>", "vf_url": "https://www.vesselfinder.com/vessels?name=9341079", "mst_url": "https://www.marinetraffic.com/en/ais/search/all?keyword=9341079", "method": "v3_2pass_track3d_fromru10d", "ru_seen_in_lookback": false, "in_monitor_on_day": true}}, {"type": "Feature", "geometry": {"type": "Point", "coordinates": [3.879233333333333, 59.22767666666667]}, "properties": {"label": "CAMEL", "mmsi": "461000253", "imo": "9341079", "name": "CAMEL", "shiptype": "", "first_seen_utc": "2026-01-10T23:13:59Z", "last_seen_utc": "2026-01-13T03:51:20Z", "destination": "EGPSD", "eta": "{'Day': 23, 'Hour': 6, 'Minute': 0, 'Month': 1}", "display": "CAMEL (461000253)", "links": "<a href=\"https://www.vesselfinder.com/vessels?name=9341079\" target=\"_blank\" rel=\"noopener\">VesselFinder</a> | <a href=\"https://www.marinetraffic.com/en/ais/search/all?keyword=9341079\" target=\"_blank\" rel=\"noopener\">MarineTraffic</a>", "vf_url": "https://www.vesselfinder.com/vessels?name=9341079", "mst_url": "https://www.marinetraffic.com/en/ais/search/all?keyword=9341079", "method": "v3_2pass_track3d_fromru10d", "ru_seen_in_lookback": false, "in_monitor_on_day": true}}, {"type": "Feature", "geometry": {"type": "LineString", "coordinates": [[-0.8446333333333332, 50.170566666666666], [-0.6083666666666667, 50.21006666666666], [-0.42805, 50.23966666666667], [-0.2481, 50.26865], [1.3472166666666667, 50.69028333333333], [1.4206, 50.80491666666667], [1.4854833333333335, 50.92901666666667], [1.6238166666666667, 51.02735], [1.7815166666666669, 51.123349999999995], [1.9581333333333333, 51.20086666666667], [2.1090166666666668, 51.2813], [2.1808666666666667, 51.40311666666666], [2.2742999999999998, 51.519149999999996], [2.396866666666667, 51.627583333333334], [2.520866666666667, 51.7359], [2.6025833333333335, 51.85245], [7.489850000000001, 56.98158333333333], [7.623966666666666, 57.08721666666667], [7.7747166666666665, 57.154133333333334], [7.944983333333334, 57.20823333333333], [8.12095, 57.269416666666665], [8.326166666666667, 57.34325], [8.489133333333333, 57.40273333333334], [8.675533333333334, 57.46671666666667], [8.83965, 57.52001666666667], [9.001633333333332, 57.584966666666666]]}, "properties": {"label": "DISCOVERY", "mmsi": "461000239", "imo": "9316127", "name": "DISCOVERY", "shiptype": "", "first_seen_utc": "2026-01-11T07:03:15Z", "last_seen_utc": "2026-01-13T03:57:01Z", "destination": "FOR ORDER", "eta": "{'Day': 17, 'Hour': 6, 'Minute': 0, 'Month': 1}", "display": "", "links": "<a href=\"https://www.vesselfinder.com/vessels?name=9316127\" target=\"_blank\" rel=\"noopener\">VesselFinder</a> | <a href=\"https://www.marinetraffic.com/en/ais/search/all?keyword=9316127\" target=\"_blank\" rel=\"noopener\">MarineTraffic</a>", "vf_url": "https://www.vesselfinder.com/vessels?name=9316127", "mst_url": "https://www.marinetraffic.com/en/ais/search/all?keyword=9316127", "method": "v3_2pass_track3d_fromru10d", "ru_seen_in_lookback": false, "in_monitor_on_day": true}}, {"type": "Feature", "geometry": {"type": "Point", "coordinates": [9.001633333333332, 57.584966666666666]}, "properties": {"label": "DISCOVERY", "mmsi": "461000239", "imo": "9316127", "name": "DISCOVERY", "shiptype": "", "first_seen_utc": "2026-01-11T07:03:15Z", "last_seen_utc": "2026-01-13T03:57:01Z", "destination": "FOR ORDER", "eta": "{'Day': 17, 'Hour': 6, 'Minute': 0, 'Month': 1}", "display": "DISCOVERY (461000239)", "links": "<a href=\"https://www.vesselfinder.com/vessels?name=9316127\" target=\"_blank\" rel=\"noopener\">VesselFinder</a> | <a href=\"https://www.marinetraffic.com/en/ais/search/all?keyword=9316127\" target=\"_blank\" rel=\"noopener\">MarineTraffic</a>", "vf_url": "https://www.vesselfinder.com/vessels?name=9316127", "mst_url": "https://www.marinetraffic.com/en/ais/search/all?keyword=9316127", "method": "v3_2pass_track3d_fromru10d", "ru_seen_in_lookback": false, "in_monitor_on_day": true}}, {"type": "Feature", "geometry": {"type": "LineString", "coordinates": [[15.262096666666668, 55.610081666666666], [14.980393333333334, 55.533366666666666], [14.802586666666667, 55.485800000000005], [14.568076666666666, 55.411903333333335], [14.469488333333334, 55.32983333333333], [14.367574999999999, 55.24923666666667], [14.251981666666667, 55.163468333333334], [12.387464999999999, 54.650101666666664], [12.269233333333334, 54.602441666666664], [12.220365, 54.52200333333334], [12.147166666666667, 54.446395], [11.983675, 54.445335], [11.819148333333334, 54.449131666666666], [11.665273333333333, 54.47571833333333], [11.513625, 54.5114], [11.351355000000002, 54.551225], [11.185901666666666, 54.59844666666667], [11.025743333333333, 54.64835166666667], [10.866285, 54.68681166666667], [10.803168333333334, 54.76102], [10.837358333333333, 54.86843], [10.940823333333332, 54.961365], [11.021456666666667, 55.0557], [11.053088333333333, 55.15908], [11.081933333333334, 55.254673333333336], [11.041271666666667, 55.358965], [10.830181666666666, 55.578085], [10.796028333333334, 55.686524999999996], [10.824333333333334, 55.798253333333335], [10.920358333333333, 55.892471666666665], [9.706873333333334, 57.84477833333334], [9.549290000000001, 57.833931666666665]]}, "properties": {"label": "CHARIOT TIDE", "mmsi": "650000265", "imo": "9323376", "name": "CHARIOT TIDE", "shiptype": "", "first_seen_utc": "2026-01-11T13:19:31Z", "last_seen_utc": "2026-01-13T03:37:35Z", "destination": "TANGIER- MOROCCO", "eta": "{'Day': 21, 'Hour': 12, 'Minute': 5, 'Month': 1}", "display": "", "links": "<a href=\"https://www.vesselfinder.com/vessels?name=9323376\" target=\"_blank\" rel=\"noopener\">VesselFinder</a> | <a href=\"https://www.marinetraffic.com/en/ais/search/all?keyword=9323376\" target=\"_blank\" rel=\"noopener\">MarineTraffic</a>", "vf_url": "https://www.vesselfinder.com/vessels?name=9323376", "mst_url": "https://www.marinetraffic.com/en/ais/search/all?keyword=9323376", "method": "v3_2pass_track3d_fromru10d", "ru_seen_in_lookback": false, "in_monitor_on_day": true}}, {"type": "Feature", "geometry": {"type": "Point", "coordinates": [9.549290000000001, 57.833931666666665]}, "properties": {"label": "CHARIOT TIDE", "mmsi": "650000265", "imo": "9323376", "name": "CHARIOT TIDE", "shiptype": "", "first_seen_utc": "2026-01-11T13:19:31Z", "last_seen_utc": "2026-01-13T03:37:35Z", "destination": "TANGIER- MOROCCO", "eta": "{'Day': 21, 'Hour': 12, 'Minute': 5, 'Month': 1}", "display": "CHARIOT TIDE (650000265)", "links": "<a href=\"https://www.vesselfinder.com/vessels?name=9323376\" target=\"_blank\" rel=\"noopener\">VesselFinder</a> | <a href=\"https://www.marinetraffic.com/en/ais/search/all?keyword=9323376\" target=\"_blank\" rel=\"noopener\">MarineTraffic</a>", "vf_url": "https://www.vesselfinder.com/vessels?name=9323376", "mst_url": "https://www.marinetraffic.com/en/ais/search/all?keyword=9323376", "method": "v3_2pass_track3d_fromru10d", "ru_seen_in_lookback": false, "in_monitor_on_day": true}}, {"type": "Feature", "geometry": {"type": "LineString", "coordinates": [[-0.9637266666666666, 50.16714666666667], [-0.52567, 50.24598666666667], [-0.36088333333333333, 50.27465666666667], [-0.20134833333333332, 50.30256333333333], [-0.008705, 50.33349666666666], [1.2919550000000002, 50.677213333333334], [1.369875, 50.7653], [1.4210916666666666, 50.86652], [1.4999116666666665, 50.960613333333335], [1.6201316666666665, 51.04040666666666], [1.7423616666666668, 51.11635666666667], [1.8792900000000001, 51.171640000000004], [2.021395, 51.21722666666667], [2.110475, 51.290926666666664], [2.1675, 51.37999], [2.22357, 51.46540666666667], [2.4029833333333332, 51.61928], [2.483058333333333, 51.690690000000004], [2.556545, 51.76569666666667], [2.6007733333333336, 51.84841333333333], [2.62305, 51.95220666666667], [2.6492383333333334, 52.040486666666666], [2.6805433333333335, 52.13304], [3.1447783333333335, 52.699306666666665], [3.227411666666667, 52.78749333333334], [3.4426116666666666, 53.07769333333333], [3.7189833333333335, 53.452733333333335], [4.221293333333334, 53.71044]]}, "properties": {"label": "CETUS", "mmsi": "667002291", "imo": "9418482", "name": "CETUS", "shiptype": "", "first_seen_utc": "2026-01-12T00:41:55Z", "last_seen_utc": "2026-01-13T03:15:45Z", "destination": "SKAGEN FOR ORDER", "eta": "{'Day': 13, 'Hour': 18, 'Minute': 0, 'Month': 1}", "display": "", "links": "<a href=\"https://www.vesselfinder.com/vessels?name=9418482\" target=\"_blank\" rel=\"noopener\">VesselFinder</a> | <a href=\"https://www.marinetraffic.com/en/ais/search/all?keyword=9418482\" target=\"_blank\" rel=\"noopener\">MarineTraffic</a>", "vf_url": "https://www.vesselfinder.com/vessels?name=9418482", "mst_url": "https://www.marinetraffic.com/en/ais/search/all?keyword=9418482", "method": "v3_2pass_track3d_fromru10d", "ru_seen_in_lookback": false, "in_monitor_on_day": true}}, {"type": "Feature", "geometry": {"type": "Point", "coordinates": [4.221293333333334, 53.71044]}, "properties": {"label": "CETUS", "mmsi": "667002291", "imo": "9418482", "name": "CETUS", "shiptype": "", "first_seen_utc": "2026-01-12T00:41:55Z", "last_seen_utc": "2026-01-13T03:15:45Z", "destination": "SKAGEN FOR ORDER", "eta": "{'Day': 13, 'Hour': 18, 'Minute': 0, 'Month': 1}", "display": "CETUS (667002291)", "links": "<a href=\"https://www.vesselfinder.com/vessels?name=9418482\" target=\"_blank\" rel=\"noopener\">VesselFinder</a> | <a href=\"https://www.marinetraffic.com/en/ais/search/all?keyword=9418482\" target=\"_blank\" rel=\"noopener\">MarineTraffic</a>", "vf_url": "https://www.vesselfinder.com/vessels?name=9418482", "mst_url": "https://www.marinetraffic.com/en/ais/search/all?keyword=9418482", "method": "v3_2pass_track3d_fromru10d", "ru_seen_in_lookback": false, "in_monitor_on_day": true}}, {"type": "Feature", "geometry": {"type": "LineString", "coordinates": [[-0.9214683333333333, 50.11673833333334], [-0.7352916666666667, 50.14408], [-0.5575466666666667, 50.182339999999996], [-0.37946833333333335, 50.221243333333334], [-0.206445, 50.25936333333333], [0.06759, 50.319401666666664], [1.3011083333333333, 50.66230333333333], [1.3839216666666667, 50.75425166666666], [1.4343533333333334, 50.86620166666667], [1.5245116666666665, 50.96839], [1.6316166666666667, 51.06599833333333], [1.7355966666666667, 51.15148666666666], [1.8484466666666668, 51.232265], [1.976175, 51.297165], [2.0933366666666666, 51.366994999999996], [2.183803333333333, 51.45240666666667], [2.3361216666666667, 51.56757], [2.4488933333333334, 51.65115], [2.552835, 51.737395], [2.6185899999999998, 51.83267333333333], [2.6576483333333334, 51.95216666666667], [3.55722, 53.21121333333333], [3.6625966666666665, 53.35663], [3.7380833333333334, 53.45610666666666], [3.94525, 53.58197500000001]]}, "properties": {"label": "ODUNE", "mmsi": "667002337", "imo": "9229374", "name": "ODUNE", "shiptype": "", "first_seen_utc": "2026-01-12T04:51:51Z", "last_seen_utc": "2026-01-13T03:54:25Z", "destination": "GULF OF FINLAND", "eta": "{'Day': 17, 'Hour': 17, 'Minute': 0, 'Month': 1}", "display": "", "links": "<a href=\"https://www.vesselfinder.com/vessels?name=9229374\" target=\"_blank\" rel=\"noopener\">VesselFinder</a> | <a href=\"https://www.marinetraffic.com/en/ais/search/all?keyword=9229374\" target=\"_blank\" rel=\"noopener\">MarineTraffic</a>", "vf_url": "https://www.vesselfinder.com/vessels?name=9229374", "mst_url": "https://www.marinetraffic.com/en/ais/search/all?keyword=9229374", "method": "v3_2pass_track3d_fromru10d", "ru_seen_in_lookback": false, "in_monitor_on_day": true}}, {"type": "Feature", "geometry": {"type": "Point", "coordinates": [3.94525, 53.58197500000001]}, "properties": {"label": "ODUNE", "mmsi": "667002337", "imo": "9229374", "name": "ODUNE", "shiptype": "", "first_seen_utc": "2026-01-12T04:51:51Z", "last_seen_utc": "2026-01-13T03:54:25Z", "destination": "GULF OF FINLAND", "eta": "{'Day': 17, 'Hour': 17, 'Minute': 0, 'Month': 1}", "display": "ODUNE (667002337)", "links": "<a href=\"https://www.vesselfinder.com/vessels?name=9229374\" target=\"_blank\" rel=\"noopener\">VesselFinder</a> | <a href=\"https://www.marinetraffic.com/en/ais/search/all?keyword=9229374\" target=\"_blank\" rel=\"noopener\">MarineTraffic</a>", "vf_url": "https://www.vesselfinder.com/vessels?name=9229374", "mst_url": "https://www.marinetraffic.com/en/ais/search/all?keyword=9229374", "method": "v3_2pass_track3d_fromru10d", "ru_seen_in_lookback": false, "in_monitor_on_day": true}}, {"type": "Feature", "geometry": {"type": "LineString", "coordinates": [[-0.974135, 50.12135333333333], [-0.790875, 50.14676833333333], [-0.642145, 50.172775], [-0.49308833333333335, 50.20046833333333], [-0.34030166666666667, 50.22906166666667], [-0.179245, 50.25951166666667], [-0.015121666666666667, 50.290911666666666], [0.14647500000000002, 50.32194333333334], [1.2615966666666667, 50.63415833333333], [1.3691133333333334, 50.72729666666667], [1.4249066666666665, 50.845018333333336], [1.4978416666666667, 50.95912], [1.6450833333333332, 51.03729], [1.7977716666666665, 51.117], [1.95848, 51.19177333333334], [2.115441666666667, 51.261026666666666], [2.1013883333333334, 51.37060833333333], [2.1726433333333333, 51.47408166666666], [2.3049749999999998, 51.567035000000004], [2.430365, 51.65764166666667], [2.5456783333333335, 51.751545], [2.6486050000000003, 51.853856666666665], [2.6723733333333333, 51.97011833333333], [2.8252866666666665, 52.320281666666666], [3.2647233333333334, 52.79225833333333], [3.3423683333333334, 52.904495], [3.403286666666667, 53.007595], [3.473675, 53.12462333333334], [3.5480033333333334, 53.22159333333333]]}, "properties": {"label": "GEFEST", "mmsi": "273272850", "imo": "9319882", "name": "GEFEST", "shiptype": "", "first_seen_utc": "2026-01-12T07:11:50Z", "last_seen_utc": "2026-01-13T03:54:15Z", "destination": "DK AUU", "eta": "{'Day': 15, 'Hour': 8, 'Minute': 0, 'Month': 1}", "display": "", "links": "<a href=\"https://www.vesselfinder.com/vessels?name=9319882\" target=\"_blank\" rel=\"noopener\">VesselFinder</a> | <a href=\"https://www.marinetraffic.com/en/ais/search/all?keyword=9319882\" target=\"_blank\" rel=\"noopener\">MarineTraffic</a>", "vf_url": "https://www.vesselfinder.com/vessels?name=9319882", "mst_url": "https://www.marinetraffic.com/en/ais/search/all?keyword=9319882", "method": "v3_2pass_track3d_fromru10d", "ru_seen_in_lookback": false, "in_monitor_on_day": true}}, {"type": "Feature", "geometry": {"type": "Point", "coordinates": [3.5480033333333334, 53.22159333333333]}, "properties": {"label": "GEFEST", "mmsi": "273272850", "imo": "9319882", "name": "GEFEST", "shiptype": "", "first_seen_utc": "2026-01-12T07:11:50Z", "last_seen_utc": "2026-01-13T03:54:15Z", "destination": "DK AUU", "eta": "{'Day': 15, 'Hour': 8, 'Minute': 0, 'Month': 1}", "display": "GEFEST (273272850)", "links": "<a href=\"https://www.vesselfinder.com/vessels?name=9319882\" target=\"_blank\" rel=\"noopener\">VesselFinder</a> | <a href=\"https://www.marinetraffic.com/en/ais/search/all?keyword=9319882\" target=\"_blank\" rel=\"noopener\">MarineTraffic</a>", "vf_url": "https://www.vesselfinder.com/vessels?name=9319882", "mst_url": "https://www.marinetraffic.com/en/ais/search/all?keyword=9319882", "method": "v3_2pass_track3d_fromru10d", "ru_seen_in_lookback": false, "in_monitor_on_day": true}}, {"type": "Feature", "geometry": {"type": "LineString", "coordinates": [[-1.2283, 50.1023], [-1.05325, 50.13153333333333], [-0.8300166666666667, 50.16963333333333], [-0.6719833333333334, 50.19446666666667], [-0.5057833333333334, 50.22255], [-0.34258333333333335, 50.25021666666667], [-0.17205, 50.27948333333333], [1.2456, 50.64175], [1.3701166666666666, 50.72298333333333], [1.4292666666666667, 50.83936666666667], [1.5160333333333333, 50.95436666666667], [1.6529333333333334, 51.04945], [1.7521, 51.15913333333333], [1.8762333333333332, 51.248783333333336], [1.9944833333333334, 51.338033333333335], [2.111466666666667, 51.4199], [2.2464, 51.52356666666667], [2.4133666666666667, 51.64106666666667], [2.5250333333333335, 51.71998333333333], [2.6379333333333337, 51.7994], [2.6750166666666666, 51.953250000000004], [2.7605500000000003, 52.230133333333335], [2.9129333333333336, 52.40581666666667], [3.009666666666667, 52.521166666666666]]}, "properties": {"label": "WHITE CONDOR I", "mmsi": "307026000", "imo": "9255244", "name": "WHITE CONDOR I", "shiptype": "", "first_seen_utc": "2026-01-12T09:26:55Z", "last_seen_utc": "2026-01-13T03:33:28Z", "destination": "EETLL", "eta": "{'Day': 17, 'Hour': 6, 'Minute': 0, 'Month': 1}", "display": "", "links": "<a href=\"https://www.vesselfinder.com/vessels?name=9255244\" target=\"_blank\" rel=\"noopener\">VesselFinder</a> | <a href=\"https://www.marinetraffic.com/en/ais/search/all?keyword=9255244\" target=\"_blank\" rel=\"noopener\">MarineTraffic</a>", "vf_url": "https://www.vesselfinder.com/vessels?name=9255244", "mst_url": "https://www.marinetraffic.com/en/ais/search/all?keyword=9255244", "method": "v3_2pass_track3d_fromru10d", "ru_seen_in_lookback": false, "in_monitor_on_day": true}}, {"type": "Feature", "geometry": {"type": "Point", "coordinates": [3.009666666666667, 52.521166666666666]}, "properties": {"label": "WHITE CONDOR I", "mmsi": "307026000", "imo": "9255244", "name": "WHITE CONDOR I", "shiptype": "", "first_seen_utc": "2026-01-12T09:26:55Z", "last_seen_utc": "2026-01-13T03:33:28Z", "destination": "EETLL", "eta": "{'Day': 17, 'Hour': 6, 'Minute': 0, 'Month': 1}", "display": "WHITE CONDOR I (307026000)", "links": "<a href=\"https://www.vesselfinder.com/vessels?name=9255244\" target=\"_blank\" rel=\"noopener\">VesselFinder</a> | <a href=\"https://www.marinetraffic.com/en/ais/search/all?keyword=9255244\" target=\"_blank\" rel=\"noopener\">MarineTraffic</a>", "vf_url": "https://www.vesselfinder.com/vessels?name=9255244", "mst_url": "https://www.marinetraffic.com/en/ais/search/all?keyword=9255244", "method": "v3_2pass_track3d_fromru10d", "ru_seen_in_lookback": false, "in_monitor_on_day": true}}, {"type": "Feature", "geometry": {"type": "LineString", "coordinates": [[-1.152435, 50.134710000000005], [-0.6942816666666667, 50.20159666666667], [-0.5341116666666667, 50.22788333333333], [-0.37054, 50.255158333333334], [-0.180535, 50.28950333333333], [0.0044666666666666665, 50.32488333333333], [1.3089633333333335, 50.665705], [1.3717233333333332, 50.737595000000006], [1.4091833333333335, 50.81992833333334], [1.45598, 50.918425], [1.548225, 50.98475166666666], [1.6383783333333333, 51.04177166666667], [1.7359250000000002, 51.10424166666667], [1.8423183333333335, 51.15042833333334], [1.9521799999999998, 51.19178333333333], [2.0648133333333334, 51.22692833333333], [2.1228716666666667, 51.29308], [2.133411666666667, 51.36983], [2.173598333333333, 51.44350833333333], [2.267233333333333, 51.512903333333334]]}, "properties": {"label": "ARIADNE", "mmsi": "273268690", "imo": "9397547", "name": "ARIADNE", "shiptype": "", "first_seen_utc": "2026-01-12T11:50:42Z", "last_seen_utc": "2026-01-13T03:22:22Z", "destination": "EGPSD>RUULU", "eta": "{'Day': 18, 'Hour': 9, 'Minute': 0, 'Month': 1}", "display": "", "links": "<a href=\"https://www.vesselfinder.com/vessels?name=9397547\" target=\"_blank\" rel=\"noopener\">VesselFinder</a> | <a href=\"https://www.marinetraffic.com/en/ais/search/all?keyword=9397547\" target=\"_blank\" rel=\"noopener\">MarineTraffic</a>", "vf_url": "https://www.vesselfinder.com/vessels?name=9397547", "mst_url": "https://www.marinetraffic.com/en/ais/search/all?keyword=9397547", "method": "v3_2pass_track3d_fromru10d", "ru_seen_in_lookback": false, "in_monitor_on_day": true}}, {"type": "Feature", "geometry": {"type": "Point", "coordinates": [2.267233333333333, 51.512903333333334]}, "properties": {"label": "ARIADNE", "mmsi": "273268690", "imo": "9397547", "name": "ARIADNE", "shiptype": "", "first_seen_utc": "2026-01-12T11:50:42Z", "last_seen_utc": "2026-01-13T03:22:22Z", "destination": "EGPSD>RUULU", "eta": "{'Day': 18, 'Hour': 9, 'Minute': 0, 'Month': 1}", "display": "ARIADNE (273268690)", "links": "<a href=\"https://www.vesselfinder.com/vessels?name=9397547\" target=\"_blank\" rel=\"noopener\">VesselFinder</a> | <a href=\"https://www.marinetraffic.com/en/ais/search/all?keyword=9397547\" target=\"_blank\" rel=\"noopener\">MarineTraffic</a>", "vf_url": "https://www.vesselfinder.com/vessels?name=9397547", "mst_url": "https://www.marinetraffic.com/en/ais/search/all?keyword=9397547", "method": "v3_2pass_track3d_fromru10d", "ru_seen_in_lookback": false, "in_monitor_on_day": true}}, {"type": "Feature", "geometry": {"type": "LineString", "coordinates": [[-0.7309066666666666, 50.22735333333333], [-0.5237516666666667, 50.26329333333333], [-0.31437000000000004, 50.29264666666666], [-0.101825, 50.32372833333333], [0.18789666666666666, 50.373630000000006], [1.295655, 50.68334], [1.3961166666666667, 50.79951166666667], [1.4666283333333332, 50.93613166666667], [1.5919199999999998, 51.05462333333333], [1.7347350000000001, 51.162535000000005], [1.8720299999999999, 51.26688], [2.0073733333333332, 51.367515000000004], [2.4012366666666667, 51.64073333333333], [2.5594233333333336, 51.743538333333326], [2.6031199999999997, 51.88416666666667], [3.0118366666666665, 52.54380166666667]]}, "properties": {"label": "LISTIGA", "mmsi": "667002323", "imo": "9292838", "name": "LISTIGA", "shiptype": "", "first_seen_utc": "2026-01-12T13:34:28Z", "last_seen_utc": "2026-01-13T03:40:48Z", "destination": "GOF", "eta": "{'Day': 17, 'Hour': 8, 'Minute': 0, 'Month': 1}", "display": "", "links": "<a href=\"https://www.vesselfinder.com/vessels?name=9292838\" target=\"_blank\" rel=\"noopener\">VesselFinder</a> | <a href=\"https://www.marinetraffic.com/en/ais/search/all?keyword=9292838\" target=\"_blank\" rel=\"noopener\">MarineTraffic</a>", "vf_url": "https://www.vesselfinder.com/vessels?name=9292838", "mst_url": "https://www.marinetraffic.com/en/ais/search/all?keyword=9292838", "method": "v3_2pass_track3d_fromru10d", "ru_seen_in_lookback": false, "in_monitor_on_day": true}}, {"type": "Feature", "geometry": {"type": "Point", "coordinates": [3.0118366666666665, 52.54380166666667]}, "properties": {"label": "LISTIGA", "mmsi": "667002323", "imo": "9292838", "name": "LISTIGA", "shiptype": "", "first_seen_utc": "2026-01-12T13:34:28Z", "last_seen_utc": "2026-01-13T03:40:48Z", "destination": "GOF", "eta": "{'Day': 17, 'Hour': 8, 'Minute': 0, 'Month': 1}", "display": "LISTIGA (667002323)", "links": "<a href=\"https://www.vesselfinder.com/vessels?name=9292838\" target=\"_blank\" rel=\"noopener\">VesselFinder</a> | <a href=\"https://www.marinetraffic.com/en/ais/search/all?keyword=9292838\" target=\"_blank\" rel=\"noopener\">MarineTraffic</a>", "vf_url": "https://www.vesselfinder.com/vessels?name=9292838", "mst_url": "https://www.marinetraffic.com/en/ais/search/all?keyword=9292838", "method": "v3_2pass_track3d_fromru10d", "ru_seen_in_lookback": false, "in_monitor_on_day": true}}]}