{"type": "FeatureCollection", "features": [{"type": "Feature", "geometry": {"type": "LineString", "coordinates": [[15.326901666666666, 55.649233333333335], [15.167981666666666, 55.61513333333333], [15.022446666666667, 55.57413833333333], [14.87824, 55.530705], [14.736656666666667, 55.48719333333334], [14.591243333333333, 55.440955], [14.487323333333334, 55.367055], [14.381408333333333, 55.289903333333335], [14.277815, 55.21645], [14.17165, 55.1406], [14.05572, 55.06724666666666], [12.255443333333334, 54.572145], [12.210871666666666, 54.497094999999995], [12.124925, 54.441495], [11.981975, 54.43815666666667], [11.83238, 54.44257833333334], [11.676803333333334, 54.45890333333333]]}, "properties": {"label": "PIONER 1", "mmsi": "273271320", "imo": "9378618", "name": "PIONER 1", "shiptype": "", "first_seen_utc": "2025-12-27T01:38:49Z", "last_seen_utc": "2026-01-05T15:57:09Z", "destination": "SGSIN", "eta": "{'Day': 15, 'Hour': 18, 'Minute': 0, 'Month': 2}", "display": "", "links": "<a href=\"https://www.vesselfinder.com/vessels?name=9378618\" target=\"_blank\" rel=\"noopener\">VesselFinder</a> | <a href=\"https://www.marinetraffic.com/en/ais/search/all?keyword=9378618\" target=\"_blank\" rel=\"noopener\">MarineTraffic</a>", "vf_url": "https://www.vesselfinder.com/vessels?name=9378618", "mst_url": "https://www.marinetraffic.com/en/ais/search/all?keyword=9378618", "method": "v3_2pass_track3d_fromru10d", "ru_seen_in_lookback": true, "in_monitor_on_day": true}}, {"type": "Feature", "geometry": {"type": "Point", "coordinates": [11.676803333333334, 54.45890333333333]}, "properties": {"label": "PIONER 1", "mmsi": "273271320", "imo": "9378618", "name": "PIONER 1", "shiptype": "", "first_seen_utc": "2025-12-27T01:38:49Z", "last_seen_utc": "2026-01-05T15:57:09Z", "destination": "SGSIN", "eta": "{'Day': 15, 'Hour': 18, 'Minute': 0, 'Month': 2}", "display": "PIONER 1 (273271320)", "links": "<a href=\"https://www.vesselfinder.com/vessels?name=9378618\" target=\"_blank\" rel=\"noopener\">VesselFinder</a> | <a href=\"https://www.marinetraffic.com/en/ais/search/all?keyword=9378618\" target=\"_blank\" rel=\"noopener\">MarineTraffic</a>", "vf_url": "https://www.vesselfinder.com/vessels?name=9378618", "mst_url": "https://www.marinetraffic.com/en/ais/search/all?keyword=9378618", "method": "v3_2pass_track3d_fromru10d", "ru_seen_in_lookback": true, "in_monitor_on_day": true}}, {"type": "Feature", "geometry": {"type": "LineString", "coordinates": [[19.958633333333335, 54.79848666666667], [19.681155, 54.70283333333334], [19.678608333333333, 54.702345], [19.677938333333334, 54.701548333333335], [19.953016666666667, 54.798570000000005], [20.040025, 54.879425], [19.57485666666667, 54.57693833333334], [19.580761666666668, 54.58867333333333], [20.040290000000002, 54.8831], [19.6796, 54.70259166666666], [19.678366666666665, 54.70254333333333], [19.685403333333333, 54.70374833333334], [20.04044, 54.879198333333335], [20.043453333333332, 54.87398333333333], [19.908108333333335, 54.434815], [19.901643333333332, 54.434023333333336]]}, "properties": {"label": "ZAMOSKVORECHYE", "mmsi": "273259100", "imo": "8721129", "name": "ZAMOSKVORECHYE", "shiptype": "", "first_seen_utc": "2025-12-27T10:57:54Z", "last_seen_utc": "2026-01-05T04:56:16Z", "destination": "KALININGRAD", "eta": "{'Day': 30, 'Hour': 12, 'Minute': 0, 'Month': 12}", "display": "", "links": "<a href=\"https://www.vesselfinder.com/vessels?name=8721129\" target=\"_blank\" rel=\"noopener\">VesselFinder</a> | <a href=\"https://www.marinetraffic.com/en/ais/search/all?keyword=8721129\" target=\"_blank\" rel=\"noopener\">MarineTraffic</a>", "vf_url": "https://www.vesselfinder.com/vessels?name=8721129", "mst_url": "https://www.marinetraffic.com/en/ais/search/all?keyword=8721129", "method": "v3_2pass_track3d_fromru10d", "ru_seen_in_lookback": true, "in_monitor_on_day": true}}, {"type": "Feature", "geometry": {"type": "Point", "coordinates": [19.901643333333332, 54.434023333333336]}, "properties": {"label": "ZAMOSKVORECHYE", "mmsi": "273259100", "imo": "8721129", "name": "ZAMOSKVORECHYE", "shiptype": "", "first_seen_utc": "2025-12-27T10:57:54Z", "last_seen_utc": "2026-01-05T04:56:16Z", "destination": "KALININGRAD", "eta": "{'Day': 30, 'Hour': 12, 'Minute': 0, 'Month': 12}", "display": "ZAMOSKVORECHYE (273259100)", "links": "<a href=\"https://www.vesselfinder.com/vessels?name=8721129\" target=\"_blank\" rel=\"noopener\">VesselFinder</a> | <a href=\"https://www.marinetraffic.com/en/ais/search/all?keyword=8721129\" target=\"_blank\" rel=\"noopener\">MarineTraffic</a>", "vf_url": "https://www.vesselfinder.com/vessels?name=8721129", "mst_url": "https://www.marinetraffic.com/en/ais/search/all?keyword=8721129", "method": "v3_2pass_track3d_fromru10d", "ru_seen_in_lookback": true, "in_monitor_on_day": true}}, {"type": "Feature", "geometry": {"type": "LineString", "coordinates": [[7.552733333333333, 57.034125], [7.644988333333333, 57.10979833333333], [7.791300000000001, 57.16259166666667], [7.978801666666667, 57.233601666666665], [8.124686666666667, 57.28761333333333], [8.288148333333334, 57.341768333333334], [8.439743333333332, 57.391709999999996], [8.585695, 57.44182166666667], [8.728771666666667, 57.49267333333333], [8.876301666666667, 57.540321666666664], [9.20477, 57.64208833333333], [9.410971666666667, 57.723643333333335], [9.55546, 57.76285166666666], [9.711761666666666, 57.794085], [9.875506666666666, 57.80571333333333], [10.04721, 57.81041166666667], [10.268088333333333, 57.80918833333333], [10.431455, 57.80749333333333], [12.390015, 56.19958999999999], [12.42285, 56.16067666666667], [12.476151666666668, 56.13601333333334], [12.546328333333333, 56.101530000000004], [12.648608333333334, 56.03752333333333], [12.655393333333334, 55.94950166666667], [12.675366666666667, 55.86368166666667], [12.691593333333334, 55.773505], [12.684845, 55.684455], [12.697531666666666, 55.61308833333333], [12.665058333333333, 55.291129999999995], [12.840058333333333, 55.25260166666667], [13.009818333333333, 55.23601833333333]]}, "properties": {"label": "UNIVERSAL", "mmsi": "273271630", "imo": "9384306", "name": "UNIVERSAL", "shiptype": "", "first_seen_utc": "2026-01-01T14:05:51Z", "last_seen_utc": "2026-01-05T12:59:22Z", "destination": "FOR ORDERS", "eta": "{'Day': 8, 'Hour': 1, 'Minute': 0, 'Month': 1}", "display": "", "links": "<a href=\"https://www.vesselfinder.com/vessels?name=9384306\" target=\"_blank\" rel=\"noopener\">VesselFinder</a> | <a href=\"https://www.marinetraffic.com/en/ais/search/all?keyword=9384306\" target=\"_blank\" rel=\"noopener\">MarineTraffic</a>", "vf_url": "https://www.vesselfinder.com/vessels?name=9384306", "mst_url": "https://www.marinetraffic.com/en/ais/search/all?keyword=9384306", "method": "v3_2pass_track3d_fromru10d", "ru_seen_in_lookback": false, "in_monitor_on_day": true}}, {"type": "Feature", "geometry": {"type": "Point", "coordinates": [13.009818333333333, 55.23601833333333]}, "properties": {"label": "UNIVERSAL", "mmsi": "273271630", "imo": "9384306", "name": "UNIVERSAL", "shiptype": "", "first_seen_utc": "2026-01-01T14:05:51Z", "last_seen_utc": "2026-01-05T12:59:22Z", "destination": "FOR ORDERS", "eta": "{'Day': 8, 'Hour': 1, 'Minute': 0, 'Month': 1}", "display": "UNIVERSAL (273271630)", "links": "<a href=\"https://www.vesselfinder.com/vessels?name=9384306\" target=\"_blank\" rel=\"noopener\">VesselFinder</a> | <a href=\"https://www.marinetraffic.com/en/ais/search/all?keyword=9384306\" target=\"_blank\" rel=\"noopener\">MarineTraffic</a>", "vf_url": "https://www.vesselfinder.com/vessels?name=9384306", "mst_url": "https://www.marinetraffic.com/en/ais/search/all?keyword=9384306", "method": "v3_2pass_track3d_fromru10d", "ru_seen_in_lookback": false, "in_monitor_on_day": true}}, {"type": "Feature", "geometry": {"type": "LineString", "coordinates": [[10.488859999999999, 58.00069333333333], [10.043675, 57.93172166666667], [9.860341666666667, 57.88977333333333], [9.671531666666668, 57.845215], [9.492343333333334, 57.80046333333333], [9.316906666666666, 57.760081666666665], [9.138783333333333, 57.71083333333333], [8.969054999999999, 57.651489999999995], [8.811618333333334, 57.597030000000004], [8.657815, 57.542633333333335], [8.241821666666667, 57.395046666666666], [2.1041266666666667, 51.59792166666667], [1.9901783333333334, 51.52366166666666], [1.8844933333333331, 51.453430000000004], [1.8323416666666668, 51.36737166666667], [1.7872166666666667, 51.28286833333333], [1.717295, 51.21219833333334], [1.6219333333333334, 51.16175666666666]]}, "properties": {"label": "SPARTA IV", "mmsi": "273413440", "imo": "9743033", "name": "SPARTA IV", "shiptype": "", "first_seen_utc": "2026-01-02T13:57:01Z", "last_seen_utc": "2026-01-05T14:58:10Z", "destination": "EG PSD", "eta": "{'Day': 19, 'Hour': 0, 'Minute': 0, 'Month': 1}", "display": "", "links": "<a href=\"https://www.vesselfinder.com/vessels?name=9743033\" target=\"_blank\" rel=\"noopener\">VesselFinder</a> | <a href=\"https://www.marinetraffic.com/en/ais/search/all?keyword=9743033\" target=\"_blank\" rel=\"noopener\">MarineTraffic</a>", "vf_url": "https://www.vesselfinder.com/vessels?name=9743033", "mst_url": "https://www.marinetraffic.com/en/ais/search/all?keyword=9743033", "method": "v3_2pass_track3d_fromru10d", "ru_seen_in_lookback": false, "in_monitor_on_day": true}}, {"type": "Feature", "geometry": {"type": "Point", "coordinates": [1.6219333333333334, 51.16175666666666]}, "properties": {"label": "SPARTA IV", "mmsi": "273413440", "imo": "9743033", "name": "SPARTA IV", "shiptype": "", "first_seen_utc": "2026-01-02T13:57:01Z", "last_seen_utc": "2026-01-05T14:58:10Z", "destination": "EG PSD", "eta": "{'Day': 19, 'Hour': 0, 'Minute': 0, 'Month': 1}", "display": "SPARTA IV (273413440)", "links": "<a href=\"https://www.vesselfinder.com/vessels?name=9743033\" target=\"_blank\" rel=\"noopener\">VesselFinder</a> | <a href=\"https://www.marinetraffic.com/en/ais/search/all?keyword=9743033\" target=\"_blank\" rel=\"noopener\">MarineTraffic</a>", "vf_url": "https://www.vesselfinder.com/vessels?name=9743033", "mst_url": "https://www.marinetraffic.com/en/ais/search/all?keyword=9743033", "method": "v3_2pass_track3d_fromru10d", "ru_seen_in_lookback": false, "in_monitor_on_day": true}}, {"type": "Feature", "geometry": {"type": "LineString", "coordinates": [[10.449698333333334, 58.000591666666665], [10.248123333333332, 57.981184999999996], [10.00243, 57.91994833333333], [9.760036666666668, 57.86591166666666], [9.569346666666666, 57.817548333333335], [9.249978333333333, 57.74213833333333], [9.075153333333333, 57.687646666666666], [8.904478333333333, 57.62872333333333], [8.740375, 57.57135666666667], [8.583536666666667, 57.51596], [8.394051666666666, 57.44945833333334], [8.240466666666666, 57.393076666666666], [8.104165, 57.33405333333334], [7.973688333333333, 57.26185666666667], [7.840446666666667, 57.185575], [2.1154333333333333, 51.60406833333333], [1.999655, 51.52952666666667], [1.8922033333333335, 51.458668333333335], [1.83213, 51.373628333333336], [1.7942883333333335, 51.29025166666667], [1.728615, 51.21796666666667], [1.6356883333333334, 51.16820666666667], [1.5364483333333332, 51.114095], [1.4303649999999999, 51.051485]]}, "properties": {"label": "MYS ZHELANIYA", "mmsi": "273216130", "imo": "9366110", "name": "MYS ZHELANIYA", "shiptype": "", "first_seen_utc": "2026-01-02T14:36:02Z", "last_seen_utc": "2026-01-05T16:02:15Z", "destination": "EG PSD", "eta": "{'Day': 19, 'Hour': 0, 'Minute': 0, 'Month': 1}", "display": "", "links": "<a href=\"https://www.vesselfinder.com/vessels?name=9366110\" target=\"_blank\" rel=\"noopener\">VesselFinder</a> | <a href=\"https://www.marinetraffic.com/en/ais/search/all?keyword=9366110\" target=\"_blank\" rel=\"noopener\">MarineTraffic</a>", "vf_url": "https://www.vesselfinder.com/vessels?name=9366110", "mst_url": "https://www.marinetraffic.com/en/ais/search/all?keyword=9366110", "method": "v3_2pass_track3d_fromru10d", "ru_seen_in_lookback": false, "in_monitor_on_day": true}}, {"type": "Feature", "geometry": {"type": "Point", "coordinates": [1.4303649999999999, 51.051485]}, "properties": {"label": "MYS ZHELANIYA", "mmsi": "273216130", "imo": "9366110", "name": "MYS ZHELANIYA", "shiptype": "", "first_seen_utc": "2026-01-02T14:36:02Z", "last_seen_utc": "2026-01-05T16:02:15Z", "destination": "EG PSD", "eta": "{'Day': 19, 'Hour': 0, 'Minute': 0, 'Month': 1}", "display": "MYS ZHELANIYA (273216130)", "links": "<a href=\"https://www.vesselfinder.com/vessels?name=9366110\" target=\"_blank\" rel=\"noopener\">VesselFinder</a> | <a href=\"https://www.marinetraffic.com/en/ais/search/all?keyword=9366110\" target=\"_blank\" rel=\"noopener\">MarineTraffic</a>", "vf_url": "https://www.vesselfinder.com/vessels?name=9366110", "mst_url": "https://www.marinetraffic.com/en/ais/search/all?keyword=9366110", "method": "v3_2pass_track3d_fromru10d", "ru_seen_in_lookback": false, "in_monitor_on_day": true}}, {"type": "Feature", "geometry": {"type": "LineString", "coordinates": [[3.9890916666666665, 59.77708166666666], [3.9914616666666665, 59.68360333333333], [3.9895916666666666, 59.58777833333333], [3.9988916666666667, 59.495495], [4.008593333333334, 59.400459999999995], [4.021028333333333, 59.318933333333334], [4.017328333333333, 59.24395333333334], [4.012861666666667, 59.16793166666666], [4.01181, 59.09676833333333], [4.010825, 59.02300833333334], [4.087218333333333, 58.96391666666667], [4.184216666666667, 58.91087], [4.2800883333333335, 58.8566], [4.382425, 58.800775], [4.48567, 58.74574500000001], [4.592356666666666, 58.68937833333334], [4.701886666666667, 58.63024], [4.807681666666666, 58.572163333333336], [4.910646666666667, 58.51215333333334], [5.01961, 58.45621166666667], [5.13112, 58.401156666666665], [5.2387033333333335, 58.34418333333333], [5.342411666666666, 58.286849999999994], [5.445971666666667, 58.23308166666666], [5.548398333333334, 58.182961666666664], [5.6540799999999996, 58.13110166666667], [5.7612016666666666, 58.07776333333334], [5.871283333333333, 58.02819833333333], [5.983203333333334, 57.977738333333335], [6.098344999999999, 57.93062833333333], [6.211496666666666, 57.88147], [6.32228, 57.83078666666667], [6.429995, 57.77952166666667], [6.536903333333333, 57.732816666666665], [6.667306666666667, 57.71697166666667], [6.798578333333333, 57.71174166666666], [6.937704999999999, 57.709228333333336], [7.080261666666667, 57.707591666666666], [7.221376666666667, 57.70579166666666], [7.358594999999999, 57.700025], [7.496766666666667, 57.695116666666664], [7.6345833333333335, 57.688065], [7.774828333333334, 57.68024333333334], [7.91735, 57.67948333333333], [8.055028333333333, 57.68717166666667], [8.19228, 57.69065], [8.333961666666665, 57.69542], [8.477528333333334, 57.70123666666667], [8.620181666666667, 57.70805666666667], [8.775866666666667, 57.718446666666665], [8.934636666666668, 57.72634666666667], [9.094331666666667, 57.733465], [9.251936666666667, 57.74187833333334], [10.938655, 55.91381333333333], [10.830058333333334, 55.84307666666667], [10.800189999999999, 55.762298333333334], [10.774166666666668, 55.671715], [11.045058333333333, 55.294513333333335], [11.09878, 55.21634666666667], [11.041703333333334, 55.14247], [11.02565, 55.05645833333333], [10.993008333333334, 54.977455], [10.894678333333333, 54.916905], [10.861608333333333, 54.83983666666666], [10.864155, 54.758975], [10.905821666666666, 54.685273333333335]]}, "properties": {"label": "YANTARNYY", "mmsi": "273523400", "imo": "8607232", "name": "YANTARNYY", "shiptype": "", "first_seen_utc": "2026-01-02T17:32:22Z", "last_seen_utc": "2026-01-05T15:58:58Z", "destination": "RU LED", "eta": "{'Day': 8, 'Hour': 12, 'Minute': 0, 'Month': 1}", "display": "", "links": "<a href=\"https://www.vesselfinder.com/vessels?name=8607232\" target=\"_blank\" rel=\"noopener\">VesselFinder</a> | <a href=\"https://www.marinetraffic.com/en/ais/search/all?keyword=8607232\" target=\"_blank\" rel=\"noopener\">MarineTraffic</a>", "vf_url": "https://www.vesselfinder.com/vessels?name=8607232", "mst_url": "https://www.marinetraffic.com/en/ais/search/all?keyword=8607232", "method": "v3_2pass_track3d_fromru10d", "ru_seen_in_lookback": false, "in_monitor_on_day": true}}, {"type": "Feature", "geometry": {"type": "Point", "coordinates": [10.905821666666666, 54.685273333333335]}, "properties": {"label": "YANTARNYY", "mmsi": "273523400", "imo": "8607232", "name": "YANTARNYY", "shiptype": "", "first_seen_utc": "2026-01-02T17:32:22Z", "last_seen_utc": "2026-01-05T15:58:58Z", "destination": "RU LED", "eta": "{'Day': 8, 'Hour': 12, 'Minute': 0, 'Month': 1}", "display": "YANTARNYY (273523400)", "links": "<a href=\"https://www.vesselfinder.com/vessels?name=8607232\" target=\"_blank\" rel=\"noopener\">VesselFinder</a> | <a href=\"https://www.marinetraffic.com/en/ais/search/all?keyword=8607232\" target=\"_blank\" rel=\"noopener\">MarineTraffic</a>", "vf_url": "https://www.vesselfinder.com/vessels?name=8607232", "mst_url": "https://www.marinetraffic.com/en/ais/search/all?keyword=8607232", "method": "v3_2pass_track3d_fromru10d", "ru_seen_in_lookback": false, "in_monitor_on_day": true}}, {"type": "Feature", "geometry": {"type": "LineString", "coordinates": [[3.8096966666666665, 59.552535], [3.8466933333333335, 59.456071666666666], [3.8886816666666664, 59.35819166666667], [3.94267, 59.258945000000004], [3.9871433333333335, 59.15663666666667], [4.025353333333333, 59.05656166666667], [4.094108333333334, 58.97040666666667], [4.204821666666667, 58.90128666666667], [4.322743333333333, 58.830000000000005], [4.451745, 58.758093333333335], [4.58284, 58.68667333333334], [4.715931666666666, 58.61249833333333], [4.840958333333333, 58.534864999999996], [4.974803333333333, 58.46037], [5.109215000000001, 58.39335833333334], [5.2447816666666665, 58.326305000000005], [5.379533333333333, 58.25674333333333], [5.51649, 58.19397166666667], [5.64864, 58.13489166666667], [5.7836549999999995, 58.073186666666665], [5.9228700000000005, 58.01295833333334], [6.065986666666666, 57.94803], [6.211248333333333, 57.8825], [6.350905, 57.81861166666667], [6.491491666666667, 57.75385000000001], [6.654780000000001, 57.717706666666665], [6.845086666666666, 57.71237], [7.031965, 57.70925], [7.210871666666667, 57.706538333333334], [7.386815, 57.70291333333333], [7.561423333333334, 57.70030833333333], [7.734648333333333, 57.69757333333334], [7.9025783333333335, 57.702335], [8.074766666666667, 57.71099666666667], [8.245614999999999, 57.72083166666666], [8.414845, 57.731365], [8.5863, 57.74169833333334], [8.764483333333335, 57.75310666666667], [8.953190000000001, 57.76177333333333], [9.1444, 57.768526666666666], [9.382391666666667, 57.788358333333335], [9.870196666666667, 57.80046], [10.128513333333332, 57.80365166666666], [10.304058333333334, 57.8045], [10.48569, 57.80578333333334], [10.946776666666667, 55.91793166666666], [10.833551666666667, 55.84509833333333], [10.79917, 55.750115], [11.031243333333332, 55.353653333333334], [11.074375, 55.25758166666667], [11.054221666666667, 55.17033333333333], [11.032694999999999, 55.07161166666666], [10.992809999999999, 54.97839166666667], [10.88619, 54.898498333333336], [10.863565, 54.80253166666667], [10.872738333333333, 54.70832], [10.998131666666666, 54.652185], [11.135391666666667, 54.601635], [11.271218333333334, 54.552955], [11.418579999999999, 54.505779999999994], [11.568821666666667, 54.45558166666667], [11.723980000000001, 54.414586666666665], [11.892204999999999, 54.41023333333333], [12.065798333333333, 54.410158333333335], [12.218525, 54.44695333333333]]}, "properties": {"label": "KARELIA", "mmsi": "273297700", "imo": "8908131", "name": "KARELIA", "shiptype": "", "first_seen_utc": "2026-01-02T19:25:14Z", "last_seen_utc": "2026-01-05T08:08:53Z", "destination": "SAINT PETERSBURG", "eta": "{'Day': 8, 'Hour': 23, 'Minute': 0, 'Month': 1}", "display": "", "links": "<a href=\"https://www.vesselfinder.com/vessels?name=8908131\" target=\"_blank\" rel=\"noopener\">VesselFinder</a> | <a href=\"https://www.marinetraffic.com/en/ais/search/all?keyword=8908131\" target=\"_blank\" rel=\"noopener\">MarineTraffic</a>", "vf_url": "https://www.vesselfinder.com/vessels?name=8908131", "mst_url": "https://www.marinetraffic.com/en/ais/search/all?keyword=8908131", "method": "v3_2pass_track3d_fromru10d", "ru_seen_in_lookback": false, "in_monitor_on_day": true}}, {"type": "Feature", "geometry": {"type": "Point", "coordinates": [12.218525, 54.44695333333333]}, "properties": {"label": "KARELIA", "mmsi": "273297700", "imo": "8908131", "name": "KARELIA", "shiptype": "", "first_seen_utc": "2026-01-02T19:25:14Z", "last_seen_utc": "2026-01-05T08:08:53Z", "destination": "SAINT PETERSBURG", "eta": "{'Day': 8, 'Hour': 23, 'Minute': 0, 'Month': 1}", "display": "KARELIA (273297700)", "links": "<a href=\"https://www.vesselfinder.com/vessels?name=8908131\" target=\"_blank\" rel=\"noopener\">VesselFinder</a> | <a href=\"https://www.marinetraffic.com/en/ais/search/all?keyword=8908131\" target=\"_blank\" rel=\"noopener\">MarineTraffic</a>", "vf_url": "https://www.vesselfinder.com/vessels?name=8908131", "mst_url": "https://www.marinetraffic.com/en/ais/search/all?keyword=8908131", "method": "v3_2pass_track3d_fromru10d", "ru_seen_in_lookback": false, "in_monitor_on_day": true}}, {"type": "Feature", "geometry": {"type": "LineString", "coordinates": [[14.882513333333332, 55.527789999999996], [13.142386666666665, 55.255885], [12.939725000000001, 55.26162333333333], [12.773396666666667, 55.28769], [12.681816666666666, 55.35531], [12.707171666666666, 55.454860000000004], [12.706520000000001, 55.55323], [12.695151666666668, 55.651491666666665], [12.69548, 55.74969], [12.750108333333333, 55.84204833333333], [12.728716666666665, 55.939751666666666], [12.670060000000001, 56.03416666666667], [12.559401666666668, 56.110483333333335], [12.432193333333334, 56.18004], [10.498321666666667, 57.83788833333333], [9.797796666666667, 57.81823333333333], [9.613423333333333, 57.81975], [9.445085, 57.766799999999996], [9.181898333333333, 57.680825], [9.027598333333334, 57.632173333333334], [8.878408333333335, 57.578603333333334], [8.772773333333333, 57.54314333333333], [8.72583, 57.524741666666664], [8.681975, 57.510650000000005], [8.636788333333334, 57.49818833333333], [8.593248333333333, 57.48604], [8.549066666666667, 57.47069833333333], [8.508178333333333, 57.455850000000005], [8.46402, 57.43989333333333], [8.415263333333334, 57.424168333333334], [8.369151666666665, 57.41195833333334], [8.289563333333334, 57.392873333333334], [8.242813333333334, 57.38003666666667], [8.201675, 57.368566666666666], [8.162083333333333, 57.357705], [8.124893333333334, 57.34493833333333], [8.083531666666667, 57.330794999999995], [8.045483333333333, 57.317748333333334], [8.01332, 57.302686666666666], [7.983535, 57.28158], [7.951858333333333, 57.260533333333335], [7.917644999999999, 57.237003333333334], [7.8854766666666665, 57.21603666666667], [7.847733333333333, 57.20250166666666], [7.820390000000001, 57.183281666666666], [7.794923333333333, 57.16404], [7.759131666666667, 57.136340000000004], [7.731356666666667, 57.115765], [7.700433333333334, 57.090630000000004]]}, "properties": {"label": "A. SAPOZHNIKOV", "mmsi": "273274820", "imo": "9945215", "name": "A. SAPOZHNIKOV", "shiptype": "", "first_seen_utc": "2026-01-03T08:37:30Z", "last_seen_utc": "2026-01-05T03:08:51Z", "destination": "CAPE TOWN", "eta": "{'Day': 10, 'Hour': 10, 'Minute': 0, 'Month': 2}", "display": "", "links": "<a href=\"https://www.vesselfinder.com/vessels?name=9945215\" target=\"_blank\" rel=\"noopener\">VesselFinder</a> | <a href=\"https://www.marinetraffic.com/en/ais/search/all?keyword=9945215\" target=\"_blank\" rel=\"noopener\">MarineTraffic</a>", "vf_url": "https://www.vesselfinder.com/vessels?name=9945215", "mst_url": "https://www.marinetraffic.com/en/ais/search/all?keyword=9945215", "method": "v3_2pass_track3d_fromru10d", "ru_seen_in_lookback": false, "in_monitor_on_day": true}}, {"type": "Feature", "geometry": {"type": "Point", "coordinates": [7.700433333333334, 57.090630000000004]}, "properties": {"label": "A. SAPOZHNIKOV", "mmsi": "273274820", "imo": "9945215", "name": "A. SAPOZHNIKOV", "shiptype": "", "first_seen_utc": "2026-01-03T08:37:30Z", "last_seen_utc": "2026-01-05T03:08:51Z", "destination": "CAPE TOWN", "eta": "{'Day': 10, 'Hour': 10, 'Minute': 0, 'Month': 2}", "display": "A. SAPOZHNIKOV (273274820)", "links": "<a href=\"https://www.vesselfinder.com/vessels?name=9945215\" target=\"_blank\" rel=\"noopener\">VesselFinder</a> | <a href=\"https://www.marinetraffic.com/en/ais/search/all?keyword=9945215\" target=\"_blank\" rel=\"noopener\">MarineTraffic</a>", "vf_url": "https://www.vesselfinder.com/vessels?name=9945215", "mst_url": "https://www.marinetraffic.com/en/ais/search/all?keyword=9945215", "method": "v3_2pass_track3d_fromru10d", "ru_seen_in_lookback": false, "in_monitor_on_day": true}}, {"type": "Feature", "geometry": {"type": "LineString", "coordinates": [[14.582510000000001, 55.40815], [14.472531666666667, 55.33365], [14.300945, 55.21205666666666], [12.187606666666666, 54.50664166666666], [12.099833333333333, 54.44589833333334], [11.939805, 54.442951666666666], [11.781509999999999, 54.44273833333333], [11.642536666666667, 54.478860000000005], [11.503353333333333, 54.515526666666666], [11.358506666666667, 54.55457166666667], [11.216251666666667, 54.59316333333334], [11.074695, 54.63483166666666], [10.935486666666666, 54.680931666666666], [10.884093333333334, 54.75920333333333], [10.880451666666666, 54.849378333333334], [10.934883333333334, 54.93255333333333], [11.028605, 55.002673333333334], [11.047966666666667, 55.09396], [11.078203333333333, 55.182471666666665], [11.078858333333333, 55.267201666666665], [11.041146666666666, 55.35922], [10.832195, 55.58168333333333], [10.793553333333334, 55.67266666666667], [10.810685000000001, 55.761981666666664], [10.855933333333333, 55.84820333333333], [9.540726666666666, 57.826795], [9.366508333333334, 57.81925833333333], [9.198638333333333, 57.81099166666667], [9.020351666666667, 57.80160166666667], [8.857236666666667, 57.78752], [8.680575000000001, 57.774255000000004], [8.490563333333334, 57.76170166666667], [8.298776666666667, 57.74977666666667], [8.098501666666667, 57.74957], [7.903454999999999, 57.748245], [7.714666666666667, 57.74387], [7.524085, 57.74193833333333], [7.3303899999999995, 57.742938333333335], [7.13236, 57.75058666666666], [6.93321, 57.75832833333333], [6.736876666666666, 57.763749999999995], [6.557863333333333, 57.79681166666667], [6.399165, 57.85973333333333], [6.245918333333334, 57.92534], [6.097898333333333, 57.992735], [5.952848333333334, 58.06183166666666], [5.81529, 58.13610333333334], [5.67653, 58.21299833333333], [5.5436700000000005, 58.287940000000006], [4.950895, 58.60448833333333], [4.822848333333334, 58.668393333333334], [4.694171666666667, 58.73193833333333], [4.575521666666666, 58.797201666666666], [4.465318333333333, 58.861673333333336], [4.345281666666667, 58.926788333333334], [4.220745, 58.99369166666667], [4.175426666666667, 59.08101833333333], [4.175521666666667, 59.171745]]}, "properties": {"label": "KAPITAN DURACHENKO", "mmsi": "273431440", "imo": "9108336", "name": "KAPITAN DURACHENKO", "shiptype": "", "first_seen_utc": "2026-01-03T08:39:39Z", "last_seen_utc": "2026-01-05T15:57:12Z", "destination": "TROMSE", "eta": "{'Day': 9, 'Hour': 8, 'Minute': 0, 'Month': 1}", "display": "", "links": "<a href=\"https://www.vesselfinder.com/vessels?name=9108336\" target=\"_blank\" rel=\"noopener\">VesselFinder</a> | <a href=\"https://www.marinetraffic.com/en/ais/search/all?keyword=9108336\" target=\"_blank\" rel=\"noopener\">MarineTraffic</a>", "vf_url": "https://www.vesselfinder.com/vessels?name=9108336", "mst_url": "https://www.marinetraffic.com/en/ais/search/all?keyword=9108336", "method": "v3_2pass_track3d_fromru10d", "ru_seen_in_lookback": false, "in_monitor_on_day": true}}, {"type": "Feature", "geometry": {"type": "Point", "coordinates": [4.175521666666667, 59.171745]}, "properties": {"label": "KAPITAN DURACHENKO", "mmsi": "273431440", "imo": "9108336", "name": "KAPITAN DURACHENKO", "shiptype": "", "first_seen_utc": "2026-01-03T08:39:39Z", "last_seen_utc": "2026-01-05T15:57:12Z", "destination": "TROMSE", "eta": "{'Day': 9, 'Hour': 8, 'Minute': 0, 'Month': 1}", "display": "KAPITAN DURACHENKO (273431440)", "links": "<a href=\"https://www.vesselfinder.com/vessels?name=9108336\" target=\"_blank\" rel=\"noopener\">VesselFinder</a> | <a href=\"https://www.marinetraffic.com/en/ais/search/all?keyword=9108336\" target=\"_blank\" rel=\"noopener\">MarineTraffic</a>", "vf_url": "https://www.vesselfinder.com/vessels?name=9108336", "mst_url": "https://www.marinetraffic.com/en/ais/search/all?keyword=9108336", "method": "v3_2pass_track3d_fromru10d", "ru_seen_in_lookback": false, "in_monitor_on_day": true}}, {"type": "Feature", "geometry": {"type": "LineString", "coordinates": [[4.017615, 61.997753333333335], [4.017925, 61.888733333333334], [4.016291666666667, 61.78264], [4.010575, 61.678981666666665], [4.014811666666667, 61.57134], [4.018163333333333, 61.46046666666667], [4.016723333333333, 61.35164833333333], [4.013206666666666, 61.24063833333333], [4.010050000000001, 61.13066333333334], [4.00957, 61.019816666666664], [4.008911666666666, 60.91281166666667], [4.008921666666667, 60.804401666666664], [4.010868333333333, 60.692456666666665], [4.017263333333333, 60.579359999999994], [4.018066666666667, 60.46955166666667], [4.021823333333334, 60.36214], [4.019445, 60.254205], [4.020063333333334, 60.14357333333333], [4.020153333333334, 60.036071666666665], [4.022925, 59.92682333333333], [4.01948, 59.817433333333334], [4.021393333333333, 59.707765], [4.017413333333334, 59.592843333333334], [4.011946666666667, 59.4811], [4.016098333333334, 59.37314], [4.0126083333333336, 59.26242], [4.009218333333333, 59.150099999999995], [4.0231, 59.039184999999996], [4.112375, 58.948949999999996], [4.24803, 58.873976666666664], [4.384505, 58.796659999999996], [4.520161666666667, 58.71909], [4.6633016666666665, 58.63977833333333], [4.800998333333334, 58.557383333333334], [4.936251666666666, 58.483896666666666], [5.077021666666667, 58.41424166666666], [5.2164633333333335, 58.34509833333333], [5.359430000000001, 58.277768333333334], [5.494115, 58.21521], [5.63848, 58.148965], [5.782471666666667, 58.08345], [5.923881666666667, 58.016598333333334], [6.062681666666666, 57.94733], [6.208536666666666, 57.88127], [6.363928333333333, 57.81481333333333], [6.516850000000001, 57.74777166666667], [6.69286, 57.70535666666667], [6.89544, 57.70140833333333], [7.094041666666667, 57.70042333333333], [7.289153333333333, 57.698150000000005], [7.489035, 57.69736], [7.67822, 57.69744333333333], [7.864003333333333, 57.697826666666664], [8.055385, 57.69757666666667], [8.23838, 57.69542666666667], [8.418753333333333, 57.691601666666664], [8.617676666666666, 57.69039333333333], [8.813155, 57.69235166666667], [9.736416666666665, 57.76202166666667], [9.930273333333334, 57.77727], [10.128891666666668, 57.79407333333334], [10.384025000000001, 57.815783333333336], [12.372639999999999, 56.19887166666667], [12.485165, 56.12319333333333], [12.609821666666667, 56.069804999999995], [12.671316666666666, 55.99353], [12.735306666666666, 55.90530166666667], [12.772571666666666, 55.816696666666665], [12.752334999999999, 55.52578833333334], [12.674463333333334, 55.45155833333333], [12.636284999999999, 55.35458833333333], [12.722273333333334, 55.280928333333335], [12.896091666666667, 55.24263]]}, "properties": {"label": "ANABAR", "mmsi": "273435910", "imo": "9194012", "name": "ANABAR", "shiptype": "", "first_seen_utc": "2026-01-03T10:39:50Z", "last_seen_utc": "2026-01-05T13:59:20Z", "destination": "RU STY", "eta": "{'Day': 6, 'Hour': 13, 'Minute': 0, 'Month': 1}", "display": "", "links": "<a href=\"https://www.vesselfinder.com/vessels?name=9194012\" target=\"_blank\" rel=\"noopener\">VesselFinder</a> | <a href=\"https://www.marinetraffic.com/en/ais/search/all?keyword=9194012\" target=\"_blank\" rel=\"noopener\">MarineTraffic</a>", "vf_url": "https://www.vesselfinder.com/vessels?name=9194012", "mst_url": "https://www.marinetraffic.com/en/ais/search/all?keyword=9194012", "method": "v3_2pass_track3d_fromru10d", "ru_seen_in_lookback": false, "in_monitor_on_day": true}}, {"type": "Feature", "geometry": {"type": "Point", "coordinates": [12.896091666666667, 55.24263]}, "properties": {"label": "ANABAR", "mmsi": "273435910", "imo": "9194012", "name": "ANABAR", "shiptype": "", "first_seen_utc": "2026-01-03T10:39:50Z", "last_seen_utc": "2026-01-05T13:59:20Z", "destination": "RU STY", "eta": "{'Day': 6, 'Hour': 13, 'Minute': 0, 'Month': 1}", "display": "ANABAR (273435910)", "links": "<a href=\"https://www.vesselfinder.com/vessels?name=9194012\" target=\"_blank\" rel=\"noopener\">VesselFinder</a> | <a href=\"https://www.marinetraffic.com/en/ais/search/all?keyword=9194012\" target=\"_blank\" rel=\"noopener\">MarineTraffic</a>", "vf_url": "https://www.vesselfinder.com/vessels?name=9194012", "mst_url": "https://www.marinetraffic.com/en/ais/search/all?keyword=9194012", "method": "v3_2pass_track3d_fromru10d", "ru_seen_in_lookback": false, "in_monitor_on_day": true}}, {"type": "Feature", "geometry": {"type": "LineString", "coordinates": [[4.020066666666667, 61.99975], [4.0239666666666665, 61.89753333333333], [4.018883333333333, 61.79301666666667], [4.0160833333333334, 61.69416666666667], [4.015816666666667, 61.59811666666667], [4.019633333333333, 61.498066666666666], [4.025266666666666, 61.40111666666667], [4.0247166666666665, 61.30016666666667], [4.016516666666667, 61.199949999999994], [4.007016666666667, 61.1196], [3.997, 61.039433333333335], [4.002883333333333, 60.959399999999995], [4.008366666666666, 60.86581666666667], [4.019966666666667, 60.76005], [4.021583333333333, 60.65646666666667], [4.01785, 60.54943333333333], [4.02275, 60.443133333333336], [4.024, 60.341649999999994], [4.0207999999999995, 60.24225], [4.02, 60.14156666666667], [4.023333333333333, 60.04241666666667], [4.028766666666667, 59.94233333333333], [4.0289166666666665, 59.84578333333333], [4.028416666666667, 59.74508333333333], [4.020883333333333, 59.648199999999996], [4.012933333333334, 59.54635], [4.016283333333333, 59.44506666666667], [4.019583333333333, 59.34386666666667], [4.015016666666667, 59.23921666666667], [4.0122333333333335, 59.13066666666667], [4.0083166666666665, 59.02361666666666], [4.078433333333333, 58.94095], [4.210416666666666, 58.86966666666667], [4.342333333333333, 58.80108333333333], [4.481916666666667, 58.729749999999996], [4.616083333333333, 58.6556], [4.738216666666667, 58.5816], [4.864066666666667, 58.507933333333334], [4.990466666666666, 58.44338333333334], [5.12, 58.377449999999996], [5.24995, 58.312583333333336], [5.3896500000000005, 58.25006666666666], [5.5253, 58.19265], [5.663316666666666, 58.13113333333333], [5.798633333333333, 58.06933333333333], [5.925316666666666, 58.014966666666666], [6.057766666666667, 57.95503333333333], [6.197100000000001, 57.89353333333334], [6.335666666666667, 57.83475], [6.471733333333333, 57.775616666666664], [6.6186, 57.727650000000004], [6.796216666666667, 57.72046666666667], [6.9713666666666665, 57.71255], [7.1390666666666664, 57.706066666666665], [7.301433333333334, 57.70251666666666], [7.457483333333333, 57.699283333333334], [7.60905, 57.69265], [7.758883333333333, 57.68771666666667], [7.90785, 57.686816666666665], [8.065966666666666, 57.695883333333335], [8.23185, 57.706583333333334], [8.388866666666667, 57.718783333333334], [8.555733333333334, 57.72091666666667], [8.744366666666668, 57.726800000000004], [8.942933333333334, 57.737049999999996], [9.18085, 57.748133333333335], [10.257633333333333, 57.79495]]}, "properties": {"label": "ARARAT", "mmsi": "273434350", "imo": "9171187", "name": "ARARAT", "shiptype": "", "first_seen_utc": "2026-01-03T21:19:15Z", "last_seen_utc": "2026-01-05T10:00:36Z", "destination": "RUULU", "eta": "{'Day': 10, 'Hour': 12, 'Minute': 0, 'Month': 1}", "display": "", "links": "<a href=\"https://www.vesselfinder.com/vessels?name=9171187\" target=\"_blank\" rel=\"noopener\">VesselFinder</a> | <a href=\"https://www.marinetraffic.com/en/ais/search/all?keyword=9171187\" target=\"_blank\" rel=\"noopener\">MarineTraffic</a>", "vf_url": "https://www.vesselfinder.com/vessels?name=9171187", "mst_url": "https://www.marinetraffic.com/en/ais/search/all?keyword=9171187", "method": "v3_2pass_track3d_fromru10d", "ru_seen_in_lookback": false, "in_monitor_on_day": true}}, {"type": "Feature", "geometry": {"type": "Point", "coordinates": [10.257633333333333, 57.79495]}, "properties": {"label": "ARARAT", "mmsi": "273434350", "imo": "9171187", "name": "ARARAT", "shiptype": "", "first_seen_utc": "2026-01-03T21:19:15Z", "last_seen_utc": "2026-01-05T10:00:36Z", "destination": "RUULU", "eta": "{'Day': 10, 'Hour': 12, 'Minute': 0, 'Month': 1}", "display": "ARARAT (273434350)", "links": "<a href=\"https://www.vesselfinder.com/vessels?name=9171187\" target=\"_blank\" rel=\"noopener\">VesselFinder</a> | <a href=\"https://www.marinetraffic.com/en/ais/search/all?keyword=9171187\" target=\"_blank\" rel=\"noopener\">MarineTraffic</a>", "vf_url": "https://www.vesselfinder.com/vessels?name=9171187", "mst_url": "https://www.marinetraffic.com/en/ais/search/all?keyword=9171187", "method": "v3_2pass_track3d_fromru10d", "ru_seen_in_lookback": false, "in_monitor_on_day": true}}, {"type": "Feature", "geometry": {"type": "LineString", "coordinates": [[4.013533333333333, 61.994816666666665], [4.00915, 61.905483333333336], [4.00785, 61.8173], [4.007133333333333, 61.731183333333334], [4.004333333333333, 61.64533333333333], [4.008666666666667, 61.55898333333334], [4.0178, 61.470400000000005], [4.0361666666666665, 61.3804], [4.035416666666666, 61.2901], [4.032016666666666, 61.201116666666664], [4.020216666666666, 61.112716666666664], [4.010166666666667, 61.02735], [4.00815, 60.945033333333335], [4.0155666666666665, 60.86011666666666], [4.00935, 60.77375], [4.00245, 60.685399999999994], [3.9977, 60.59578333333333], [4.003066666666666, 60.50393333333333], [4.001366666666667, 60.41438333333333], [4.0013, 60.32333333333334], [3.9977333333333336, 60.23453333333334], [4.00115, 60.14425000000001], [3.9979333333333336, 60.05265], [3.998816666666667, 59.962149999999994], [3.998283333333333, 59.86965], [3.993933333333333, 59.77611666666667], [3.9962, 59.684216666666664], [3.9986, 59.597566666666665], [3.9986, 59.51428333333333], [3.9891666666666667, 59.44736666666667], [3.9988333333333332, 59.389583333333334], [3.9974833333333333, 59.33515], [3.9883, 59.27956666666667], [3.9884, 59.226416666666665], [3.9912666666666667, 59.1691], [3.992633333333333, 59.114533333333334], [3.9917666666666665, 59.057649999999995], [3.9872666666666663, 59.00358333333334], [3.9888833333333333, 58.9494], [3.9899833333333334, 58.89208333333333], [3.9922666666666666, 58.83423333333334], [3.991316666666667, 58.7748], [3.9891666666666667, 58.7168], [3.9908333333333332, 58.65618333333334], [3.9886666666666666, 58.59308333333333], [3.9895833333333335, 58.53208333333334], [3.9884333333333335, 58.4642], [3.9765333333333337, 58.422783333333335], [3.9681833333333336, 58.492916666666666], [3.9760666666666666, 58.55453333333333], [3.9667000000000003, 58.61043333333334], [3.95395, 58.66608333333333], [3.9504499999999996, 58.72748333333333], [3.94905, 58.78855], [3.94025, 58.84983333333333], [3.9293166666666663, 58.91245], [3.9215166666666668, 58.977133333333335], [3.9149833333333333, 59.03778333333333], [3.90705, 59.1047], [3.905733333333333, 59.1776], [3.903233333333333, 59.2506], [3.90215, 59.325050000000005], [3.9053166666666663, 59.400666666666666], [3.9007, 59.467650000000006], [3.908533333333333, 59.7429], [3.91425, 59.81451666666667], [3.9126166666666666, 59.87351666666667], [3.9113333333333333, 59.9338], [3.91525, 59.9945], [3.912383333333333, 60.0546], [3.9114833333333334, 60.11416666666666], [3.9188166666666664, 60.17205]]}, "properties": {"label": "SIYANIE SEVERA", "mmsi": "273398650", "imo": "9250385", "name": "SIYANIE SEVERA", "shiptype": "", "first_seen_utc": "2026-01-04T00:36:46Z", "last_seen_utc": "2026-01-05T15:33:15Z", "destination": "SFAX", "eta": "{'Day': 18, 'Hour': 12, 'Minute': 0, 'Month': 1}", "display": "", "links": "<a href=\"https://www.vesselfinder.com/vessels?name=9250385\" target=\"_blank\" rel=\"noopener\">VesselFinder</a> | <a href=\"https://www.marinetraffic.com/en/ais/search/all?keyword=9250385\" target=\"_blank\" rel=\"noopener\">MarineTraffic</a>", "vf_url": "https://www.vesselfinder.com/vessels?name=9250385", "mst_url": "https://www.marinetraffic.com/en/ais/search/all?keyword=9250385", "method": "v3_2pass_track3d_fromru10d", "ru_seen_in_lookback": false, "in_monitor_on_day": true}}, {"type": "Feature", "geometry": {"type": "Point", "coordinates": [3.9188166666666664, 60.17205]}, "properties": {"label": "SIYANIE SEVERA", "mmsi": "273398650", "imo": "9250385", "name": "SIYANIE SEVERA", "shiptype": "", "first_seen_utc": "2026-01-04T00:36:46Z", "last_seen_utc": "2026-01-05T15:33:15Z", "destination": "SFAX", "eta": "{'Day': 18, 'Hour': 12, 'Minute': 0, 'Month': 1}", "display": "SIYANIE SEVERA (273398650)", "links": "<a href=\"https://www.vesselfinder.com/vessels?name=9250385\" target=\"_blank\" rel=\"noopener\">VesselFinder</a> | <a href=\"https://www.marinetraffic.com/en/ais/search/all?keyword=9250385\" target=\"_blank\" rel=\"noopener\">MarineTraffic</a>", "vf_url": "https://www.vesselfinder.com/vessels?name=9250385", "mst_url": "https://www.marinetraffic.com/en/ais/search/all?keyword=9250385", "method": "v3_2pass_track3d_fromru10d", "ru_seen_in_lookback": false, "in_monitor_on_day": true}}, {"type": "Feature", "geometry": {"type": "LineString", "coordinates": [[-0.6146366666666666, 50.208533333333335], [-0.4926716666666667, 50.231075000000004], [-0.3058116666666667, 50.262746666666665], [-0.20290833333333333, 50.281283333333334], [-0.10305333333333334, 50.299735000000005], [1.27156, 50.64198], [1.346475, 50.68633166666667], [1.3823, 50.74690833333333], [1.4203800000000002, 50.81267833333333], [1.4711616666666667, 50.902950000000004], [1.5683216666666666, 50.97054833333333], [1.6678483333333332, 51.04060666666667], [1.7700866666666668, 51.113475], [1.8994166666666668, 51.16856666666667], [2.0329466666666667, 51.21794166666667], [2.0938233333333334, 51.298226666666665], [2.129713333333333, 51.384519999999995], [2.2104166666666667, 51.462271666666666], [2.509943333333333, 51.704233333333335], [2.597513333333333, 51.77594333333333], [2.85447, 51.95833666666667], [3.896183333333333, 52.61857833333333], [4.042278333333333, 52.693916666666674], [4.133108333333333, 52.756665], [4.203705, 52.829910000000005], [4.27497, 52.905411666666666], [4.348986666666667, 52.981315]]}, "properties": {"label": "LADY MARIIA", "mmsi": "273292160", "imo": "9220641", "name": "LADY MARIIA", "shiptype": "", "first_seen_utc": "2026-01-04T10:50:30Z", "last_seen_utc": "2026-01-05T15:55:29Z", "destination": "TO ORDER", "eta": "{'Day': 0, 'Hour': 24, 'Minute': 60, 'Month': 0}", "display": "", "links": "<a href=\"https://www.vesselfinder.com/vessels?name=9220641\" target=\"_blank\" rel=\"noopener\">VesselFinder</a> | <a href=\"https://www.marinetraffic.com/en/ais/search/all?keyword=9220641\" target=\"_blank\" rel=\"noopener\">MarineTraffic</a>", "vf_url": "https://www.vesselfinder.com/vessels?name=9220641", "mst_url": "https://www.marinetraffic.com/en/ais/search/all?keyword=9220641", "method": "v3_2pass_track3d_fromru10d", "ru_seen_in_lookback": false, "in_monitor_on_day": true}}, {"type": "Feature", "geometry": {"type": "Point", "coordinates": [4.348986666666667, 52.981315]}, "properties": {"label": "LADY MARIIA", "mmsi": "273292160", "imo": "9220641", "name": "LADY MARIIA", "shiptype": "", "first_seen_utc": "2026-01-04T10:50:30Z", "last_seen_utc": "2026-01-05T15:55:29Z", "destination": "TO ORDER", "eta": "{'Day': 0, 'Hour': 24, 'Minute': 60, 'Month': 0}", "display": "LADY MARIIA (273292160)", "links": "<a href=\"https://www.vesselfinder.com/vessels?name=9220641\" target=\"_blank\" rel=\"noopener\">VesselFinder</a> | <a href=\"https://www.marinetraffic.com/en/ais/search/all?keyword=9220641\" target=\"_blank\" rel=\"noopener\">MarineTraffic</a>", "vf_url": "https://www.vesselfinder.com/vessels?name=9220641", "mst_url": "https://www.marinetraffic.com/en/ais/search/all?keyword=9220641", "method": "v3_2pass_track3d_fromru10d", "ru_seen_in_lookback": false, "in_monitor_on_day": true}}, {"type": "Feature", "geometry": {"type": "LineString", "coordinates": [[20.071248333333333, 54.880581666666664], [19.295273333333334, 54.83447666666667]]}, "properties": {"label": "273217120", "mmsi": "273217120", "imo": "", "name": "", "shiptype": "", "first_seen_utc": "2026-01-04T12:47:04Z", "last_seen_utc": "2026-01-05T05:33:54Z", "destination": "", "eta": "", "display": "", "links": "<a href=\"https://www.vesselfinder.com/vessels?name=273217120\" target=\"_blank\" rel=\"noopener\">VesselFinder</a> | <a href=\"https://www.marinetraffic.com/en/ais/search/all?keyword=273217120\" target=\"_blank\" rel=\"noopener\">MarineTraffic</a>", "vf_url": "https://www.vesselfinder.com/vessels?name=273217120", "mst_url": "https://www.marinetraffic.com/en/ais/search/all?keyword=273217120", "method": "v3_2pass_track3d_fromru10d", "ru_seen_in_lookback": true, "in_monitor_on_day": true}}, {"type": "Feature", "geometry": {"type": "Point", "coordinates": [19.295273333333334, 54.83447666666667]}, "properties": {"label": "273217120", "mmsi": "273217120", "imo": "", "name": "", "shiptype": "", "first_seen_utc": "2026-01-04T12:47:04Z", "last_seen_utc": "2026-01-05T05:33:54Z", "destination": "", "eta": "", "display": "273217120 (273217120)", "links": "<a href=\"https://www.vesselfinder.com/vessels?name=273217120\" target=\"_blank\" rel=\"noopener\">VesselFinder</a> | <a href=\"https://www.marinetraffic.com/en/ais/search/all?keyword=273217120\" target=\"_blank\" rel=\"noopener\">MarineTraffic</a>", "vf_url": "https://www.vesselfinder.com/vessels?name=273217120", "mst_url": "https://www.marinetraffic.com/en/ais/search/all?keyword=273217120", "method": "v3_2pass_track3d_fromru10d", "ru_seen_in_lookback": true, "in_monitor_on_day": true}}, {"type": "Feature", "geometry": {"type": "LineString", "coordinates": [[-0.655225, 50.199488333333335], [-0.4829383333333333, 50.233938333333334], [-0.31187833333333337, 50.26623], [-0.14678333333333335, 50.293435], [1.2880333333333334, 50.665355], [1.3811916666666666, 50.72307333333333], [1.409745, 50.80257166666667], [1.4441116666666667, 50.877831666666665], [1.4998150000000001, 50.94444166666666], [1.577715, 50.99785], [1.6580133333333333, 51.04378333333333], [1.7308883333333334, 51.08989166666667], [1.808455, 51.13366333333333], [1.904645, 51.16067833333333], [2.0003633333333335, 51.194015], [2.0897666666666668, 51.23322833333334], [2.4911516666666667, 51.680103333333335]]}, "properties": {"label": "273131200", "mmsi": "273131200", "imo": "", "name": "", "shiptype": "", "first_seen_utc": "2026-01-04T21:09:03Z", "last_seen_utc": "2026-01-05T13:13:24Z", "destination": "", "eta": "", "display": "", "links": "<a href=\"https://www.vesselfinder.com/vessels?name=273131200\" target=\"_blank\" rel=\"noopener\">VesselFinder</a> | <a href=\"https://www.marinetraffic.com/en/ais/search/all?keyword=273131200\" target=\"_blank\" rel=\"noopener\">MarineTraffic</a>", "vf_url": "https://www.vesselfinder.com/vessels?name=273131200", "mst_url": "https://www.marinetraffic.com/en/ais/search/all?keyword=273131200", "method": "v3_2pass_track3d_fromru10d", "ru_seen_in_lookback": false, "in_monitor_on_day": true}}, {"type": "Feature", "geometry": {"type": "Point", "coordinates": [2.4911516666666667, 51.680103333333335]}, "properties": {"label": "273131200", "mmsi": "273131200", "imo": "", "name": "", "shiptype": "", "first_seen_utc": "2026-01-04T21:09:03Z", "last_seen_utc": "2026-01-05T13:13:24Z", "destination": "", "eta": "", "display": "273131200 (273131200)", "links": "<a href=\"https://www.vesselfinder.com/vessels?name=273131200\" target=\"_blank\" rel=\"noopener\">VesselFinder</a> | <a href=\"https://www.marinetraffic.com/en/ais/search/all?keyword=273131200\" target=\"_blank\" rel=\"noopener\">MarineTraffic</a>", "vf_url": "https://www.vesselfinder.com/vessels?name=273131200", "mst_url": "https://www.marinetraffic.com/en/ais/search/all?keyword=273131200", "method": "v3_2pass_track3d_fromru10d", "ru_seen_in_lookback": false, "in_monitor_on_day": true}}, {"type": "Feature", "geometry": {"type": "LineString", "coordinates": [[15.253925, 55.57701333333333], [15.039678333333335, 55.539155], [14.814038333333334, 55.487341666666666], [14.643201666666666, 55.44462], [14.457423333333333, 55.345643333333335], [13.15856, 55.252946666666666], [12.981565, 55.26208166666667], [12.801691666666667, 55.281481666666664], [12.662056666666667, 55.32691833333333]]}, "properties": {"label": "MAIA-1", "mmsi": "273291160", "imo": "9358010", "name": "MAIA-1", "shiptype": "", "first_seen_utc": "2026-01-05T07:25:02Z", "last_seen_utc": "2026-01-05T15:38:05Z", "destination": "TO ORDER", "eta": "{'Day': 0, 'Hour': 24, 'Minute': 60, 'Month': 0}", "display": "", "links": "<a href=\"https://www.vesselfinder.com/vessels?name=9358010\" target=\"_blank\" rel=\"noopener\">VesselFinder</a> | <a href=\"https://www.marinetraffic.com/en/ais/search/all?keyword=9358010\" target=\"_blank\" rel=\"noopener\">MarineTraffic</a>", "vf_url": "https://www.vesselfinder.com/vessels?name=9358010", "mst_url": "https://www.marinetraffic.com/en/ais/search/all?keyword=9358010", "method": "v3_2pass_track3d_fromru10d", "ru_seen_in_lookback": false, "in_monitor_on_day": true}}, {"type": "Feature", "geometry": {"type": "Point", "coordinates": [12.662056666666667, 55.32691833333333]}, "properties": {"label": "MAIA-1", "mmsi": "273291160", "imo": "9358010", "name": "MAIA-1", "shiptype": "", "first_seen_utc": "2026-01-05T07:25:02Z", "last_seen_utc": "2026-01-05T15:38:05Z", "destination": "TO ORDER", "eta": "{'Day': 0, 'Hour': 24, 'Minute': 60, 'Month': 0}", "display": "MAIA-1 (273291160)", "links": "<a href=\"https://www.vesselfinder.com/vessels?name=9358010\" target=\"_blank\" rel=\"noopener\">VesselFinder</a> | <a href=\"https://www.marinetraffic.com/en/ais/search/all?keyword=9358010\" target=\"_blank\" rel=\"noopener\">MarineTraffic</a>", "vf_url": "https://www.vesselfinder.com/vessels?name=9358010", "mst_url": "https://www.marinetraffic.com/en/ais/search/all?keyword=9358010", "method": "v3_2pass_track3d_fromru10d", "ru_seen_in_lookback": false, "in_monitor_on_day": true}}, {"type": "Feature", "geometry": {"type": "LineString", "coordinates": [[-0.9772183333333333, 50.15228333333334], [-0.7550133333333334, 50.19132333333334], [-0.5437016666666667, 50.230215], [1.2436516666666668, 50.65017], [1.36638, 50.737015]]}, "properties": {"label": "JAGGER", "mmsi": "273277060", "imo": "9354301", "name": "JAGGER", "shiptype": "", "first_seen_utc": "2026-01-05T08:59:43Z", "last_seen_utc": "2026-01-05T15:37:21Z", "destination": "FOR ORDER", "eta": "{'Day': 11, 'Hour': 19, 'Minute': 0, 'Month': 1}", "display": "", "links": "<a href=\"https://www.vesselfinder.com/vessels?name=9354301\" target=\"_blank\" rel=\"noopener\">VesselFinder</a> | <a href=\"https://www.marinetraffic.com/en/ais/search/all?keyword=9354301\" target=\"_blank\" rel=\"noopener\">MarineTraffic</a>", "vf_url": "https://www.vesselfinder.com/vessels?name=9354301", "mst_url": "https://www.marinetraffic.com/en/ais/search/all?keyword=9354301", "method": "v3_2pass_track3d_fromru10d", "ru_seen_in_lookback": false, "in_monitor_on_day": true}}, {"type": "Feature", "geometry": {"type": "Point", "coordinates": [1.36638, 50.737015]}, "properties": {"label": "JAGGER", "mmsi": "273277060", "imo": "9354301", "name": "JAGGER", "shiptype": "", "first_seen_utc": "2026-01-05T08:59:43Z", "last_seen_utc": "2026-01-05T15:37:21Z", "destination": "FOR ORDER", "eta": "{'Day': 11, 'Hour': 19, 'Minute': 0, 'Month': 1}", "display": "JAGGER (273277060)", "links": "<a href=\"https://www.vesselfinder.com/vessels?name=9354301\" target=\"_blank\" rel=\"noopener\">VesselFinder</a> | <a href=\"https://www.marinetraffic.com/en/ais/search/all?keyword=9354301\" target=\"_blank\" rel=\"noopener\">MarineTraffic</a>", "vf_url": "https://www.vesselfinder.com/vessels?name=9354301", "mst_url": "https://www.marinetraffic.com/en/ais/search/all?keyword=9354301", "method": "v3_2pass_track3d_fromru10d", "ru_seen_in_lookback": false, "in_monitor_on_day": true}}, {"type": "Feature", "geometry": {"type": "Point", "coordinates": [3.2089366666666668, 51.347595]}, "properties": {"label": "273743672", "mmsi": "273743672", "imo": "", "name": "", "shiptype": "", "first_seen_utc": "2026-01-05T12:25:24Z", "last_seen_utc": "2026-01-05T12:25:24Z", "destination": "", "eta": "", "display": "273743672 (273743672)", "links": "<a href=\"https://www.vesselfinder.com/vessels?name=273743672\" target=\"_blank\" rel=\"noopener\">VesselFinder</a> | <a href=\"https://www.marinetraffic.com/en/ais/search/all?keyword=273743672\" target=\"_blank\" rel=\"noopener\">MarineTraffic</a>", "vf_url": "https://www.vesselfinder.com/vessels?name=273743672", "mst_url": "https://www.marinetraffic.com/en/ais/search/all?keyword=273743672", "method": "v3_2pass_track3d_fromru10d", "ru_seen_in_lookback": false, "in_monitor_on_day": true}}, {"type": "Feature", "geometry": {"type": "Point", "coordinates": [19.619393333333335, 54.77294]}, "properties": {"label": "273257140", "mmsi": "273257140", "imo": "", "name": "", "shiptype": "", "first_seen_utc": "2026-01-05T12:32:27Z", "last_seen_utc": "2026-01-05T12:32:27Z", "destination": "", "eta": "", "display": "273257140 (273257140)", "links": "<a href=\"https://www.vesselfinder.com/vessels?name=273257140\" target=\"_blank\" rel=\"noopener\">VesselFinder</a> | <a href=\"https://www.marinetraffic.com/en/ais/search/all?keyword=273257140\" target=\"_blank\" rel=\"noopener\">MarineTraffic</a>", "vf_url": "https://www.vesselfinder.com/vessels?name=273257140", "mst_url": "https://www.marinetraffic.com/en/ais/search/all?keyword=273257140", "method": "v3_2pass_track3d_fromru10d", "ru_seen_in_lookback": true, "in_monitor_on_day": true}}, {"type": "Feature", "geometry": {"type": "Point", "coordinates": [19.386728333333334, 54.80331833333333]}, "properties": {"label": "273317640", "mmsi": "273317640", "imo": "", "name": "", "shiptype": "", "first_seen_utc": "2026-01-05T14:40:12Z", "last_seen_utc": "2026-01-05T14:40:12Z", "destination": "", "eta": "", "display": "273317640 (273317640)", "links": "<a href=\"https://www.vesselfinder.com/vessels?name=273317640\" target=\"_blank\" rel=\"noopener\">VesselFinder</a> | <a href=\"https://www.marinetraffic.com/en/ais/search/all?keyword=273317640\" target=\"_blank\" rel=\"noopener\">MarineTraffic</a>", "vf_url": "https://www.vesselfinder.com/vessels?name=273317640", "mst_url": "https://www.marinetraffic.com/en/ais/search/all?keyword=273317640", "method": "v3_2pass_track3d_fromru10d", "ru_seen_in_lookback": true, "in_monitor_on_day": true}}]}