{"type": "FeatureCollection", "features": [{"type": "Feature", "geometry": {"type": "LineString", "coordinates": [[28.515486666666668, 59.89708333333333], [15.408811666666667, 55.66444833333333], [15.228248333333333, 55.63397166666667], [15.065850000000001, 55.58801166666667], [14.906255, 55.54206333333333], [14.746145, 55.49592666666667], [14.578223333333334, 55.44723666666666], [14.456816666666667, 55.358595], [14.341355, 55.2731], [14.229718333333333, 55.19106166666666], [12.212533333333333, 54.55782833333333], [12.146383333333334, 54.45665666666666], [11.974958333333332, 54.438586666666666], [11.799823333333334, 54.43371166666667], [11.637571666666666, 54.47230833333333], [11.474471666666666, 54.516036666666665], [11.303663333333333, 54.56172], [11.129871666666666, 54.60485166666667], [10.948766666666668, 54.62011666666667], [10.785076666666667, 54.679563333333334], [10.824216666666667, 54.79139833333333]]}, "properties": {"label": "PIONEER", "mmsi": "273254770", "imo": "9255282", "name": "PIONEER", "shiptype": "", "first_seen_utc": "2026-01-02T00:28:40Z", "last_seen_utc": "2026-01-11T15:56:00Z", "destination": "RUS SAB", "eta": "{'Day': 23, 'Hour': 12, 'Minute': 0, 'Month': 1}", "display": "", "links": "<a href=\"https://www.vesselfinder.com/vessels?name=9255282\" target=\"_blank\" rel=\"noopener\">VesselFinder</a> | <a href=\"https://www.marinetraffic.com/en/ais/search/all?keyword=9255282\" target=\"_blank\" rel=\"noopener\">MarineTraffic</a>", "vf_url": "https://www.vesselfinder.com/vessels?name=9255282", "mst_url": "https://www.marinetraffic.com/en/ais/search/all?keyword=9255282", "method": "v3_2pass_track3d_fromru10d", "ru_seen_in_lookback": true, "in_monitor_on_day": true}}, {"type": "Feature", "geometry": {"type": "Point", "coordinates": [10.824216666666667, 54.79139833333333]}, "properties": {"label": "PIONEER", "mmsi": "273254770", "imo": "9255282", "name": "PIONEER", "shiptype": "", "first_seen_utc": "2026-01-02T00:28:40Z", "last_seen_utc": "2026-01-11T15:56:00Z", "destination": "RUS SAB", "eta": "{'Day': 23, 'Hour': 12, 'Minute': 0, 'Month': 1}", "display": "PIONEER (273254770)", "links": "<a href=\"https://www.vesselfinder.com/vessels?name=9255282\" target=\"_blank\" rel=\"noopener\">VesselFinder</a> | <a href=\"https://www.marinetraffic.com/en/ais/search/all?keyword=9255282\" target=\"_blank\" rel=\"noopener\">MarineTraffic</a>", "vf_url": "https://www.vesselfinder.com/vessels?name=9255282", "mst_url": "https://www.marinetraffic.com/en/ais/search/all?keyword=9255282", "method": "v3_2pass_track3d_fromru10d", "ru_seen_in_lookback": true, "in_monitor_on_day": true}}, {"type": "Feature", "geometry": {"type": "LineString", "coordinates": [[12.169133333333333, 54.43908333333333], [12.011466666666667, 54.436185], [11.851085000000001, 54.434035], [11.694276666666667, 54.45772], [11.543376666666667, 54.494906666666665], [11.389886666666666, 54.53561666666667], [11.230888333333333, 54.578005], [11.064496666666667, 54.59658666666667], [10.910670000000001, 54.62471166666667], [10.784148333333333, 54.678381666666674], [10.80283, 54.76522166666667], [10.837298333333333, 54.85911], [10.8779, 54.928670000000004], [10.981883333333334, 54.99707], [10.991511666666666, 55.097881666666666], [11.055573333333333, 55.181958333333334], [11.074145, 55.26685833333333], [10.824866666666667, 55.582271666666664], [10.791551666666667, 55.680658333333334], [10.80783, 55.779001666666666]]}, "properties": {"label": "PROGRESS", "mmsi": "273278840", "imo": "9306627", "name": "PROGRESS", "shiptype": "", "first_seen_utc": "2026-01-02T02:24:44Z", "last_seen_utc": "2026-01-11T15:55:20Z", "destination": "EGPSE", "eta": "{'Day': 25, 'Hour': 9, 'Minute': 0, 'Month': 1}", "display": "", "links": "<a href=\"https://www.vesselfinder.com/vessels?name=9306627\" target=\"_blank\" rel=\"noopener\">VesselFinder</a> | <a href=\"https://www.marinetraffic.com/en/ais/search/all?keyword=9306627\" target=\"_blank\" rel=\"noopener\">MarineTraffic</a>", "vf_url": "https://www.vesselfinder.com/vessels?name=9306627", "mst_url": "https://www.marinetraffic.com/en/ais/search/all?keyword=9306627", "method": "v3_2pass_track3d_fromru10d", "ru_seen_in_lookback": true, "in_monitor_on_day": true}}, {"type": "Feature", "geometry": {"type": "Point", "coordinates": [10.80783, 55.779001666666666]}, "properties": {"label": "PROGRESS", "mmsi": "273278840", "imo": "9306627", "name": "PROGRESS", "shiptype": "", "first_seen_utc": "2026-01-02T02:24:44Z", "last_seen_utc": "2026-01-11T15:55:20Z", "destination": "EGPSE", "eta": "{'Day': 25, 'Hour': 9, 'Minute': 0, 'Month': 1}", "display": "PROGRESS (273278840)", "links": "<a href=\"https://www.vesselfinder.com/vessels?name=9306627\" target=\"_blank\" rel=\"noopener\">VesselFinder</a> | <a href=\"https://www.marinetraffic.com/en/ais/search/all?keyword=9306627\" target=\"_blank\" rel=\"noopener\">MarineTraffic</a>", "vf_url": "https://www.vesselfinder.com/vessels?name=9306627", "mst_url": "https://www.marinetraffic.com/en/ais/search/all?keyword=9306627", "method": "v3_2pass_track3d_fromru10d", "ru_seen_in_lookback": true, "in_monitor_on_day": true}}, {"type": "Feature", "geometry": {"type": "LineString", "coordinates": [[9.861368333333333, 57.845776666666666], [9.659306666666668, 57.84448833333333], [9.47123, 57.82908833333333], [9.299321666666666, 57.773986666666666], [9.130978333333333, 57.71830333333333], [8.966185, 57.657376666666664], [8.793000000000001, 57.597433333333335], [8.624168333333333, 57.540575], [8.445203333333334, 57.48038333333333], [8.267858333333333, 57.42037833333333], [8.088541666666666, 57.35930833333334], [7.9036, 57.298835000000004], [7.7219533333333334, 57.238640000000004], [7.544896666666667, 57.173559999999995], [7.37831, 57.11382833333333], [2.44658, 51.79893333333334], [2.2323566666666665, 51.670865000000006], [2.1351233333333335, 51.598695], [2.0402733333333334, 51.529041666666664], [1.9487733333333332, 51.461155], [1.8765966666666667, 51.39369833333333], [1.8293766666666669, 51.31995333333334], [1.7869950000000001, 51.25044833333333], [1.7140033333333333, 51.19785666666667], [1.6268583333333335, 51.15484666666667], [1.5426466666666667, 51.111578333333334], [1.4546216666666667, 51.06667], [1.3632433333333334, 51.01862666666667], [1.2693683333333332, 50.95347666666667], [-0.025349999999999998, 50.519145], [-0.18534, 50.48300666666667]]}, "properties": {"label": "MAINI", "mmsi": "613003573", "imo": "9319870", "name": "MAINI", "shiptype": "", "first_seen_utc": "2026-01-03T13:58:46Z", "last_seen_utc": "2026-01-11T15:41:39Z", "destination": "EG PSD", "eta": "{'Day': 21, 'Hour': 18, 'Minute': 0, 'Month': 1}", "display": "", "links": "<a href=\"https://www.vesselfinder.com/vessels?name=9319870\" target=\"_blank\" rel=\"noopener\">VesselFinder</a> | <a href=\"https://www.marinetraffic.com/en/ais/search/all?keyword=9319870\" target=\"_blank\" rel=\"noopener\">MarineTraffic</a>", "vf_url": "https://www.vesselfinder.com/vessels?name=9319870", "mst_url": "https://www.marinetraffic.com/en/ais/search/all?keyword=9319870", "method": "v3_2pass_track3d_fromru10d", "ru_seen_in_lookback": true, "in_monitor_on_day": true}}, {"type": "Feature", "geometry": {"type": "Point", "coordinates": [-0.18534, 50.48300666666667]}, "properties": {"label": "MAINI", "mmsi": "613003573", "imo": "9319870", "name": "MAINI", "shiptype": "", "first_seen_utc": "2026-01-03T13:58:46Z", "last_seen_utc": "2026-01-11T15:41:39Z", "destination": "EG PSD", "eta": "{'Day': 21, 'Hour': 18, 'Minute': 0, 'Month': 1}", "display": "MAINI (613003573)", "links": "<a href=\"https://www.vesselfinder.com/vessels?name=9319870\" target=\"_blank\" rel=\"noopener\">VesselFinder</a> | <a href=\"https://www.marinetraffic.com/en/ais/search/all?keyword=9319870\" target=\"_blank\" rel=\"noopener\">MarineTraffic</a>", "vf_url": "https://www.vesselfinder.com/vessels?name=9319870", "mst_url": "https://www.marinetraffic.com/en/ais/search/all?keyword=9319870", "method": "v3_2pass_track3d_fromru10d", "ru_seen_in_lookback": true, "in_monitor_on_day": true}}, {"type": "Feature", "geometry": {"type": "LineString", "coordinates": [[14.988045, 55.55137], [14.835980000000001, 55.50846], [14.676475, 55.462268333333334], [12.239743333333333, 54.542183333333334], [12.186668333333333, 54.45262], [12.032068333333333, 54.44125333333333], [11.871483333333334, 54.4384], [11.714789999999999, 54.45515], [11.560086666666667, 54.489736666666666], [11.407288333333334, 54.53113333333333], [11.271083333333333, 54.580065], [11.106686666666667, 54.59614], [10.945373333333333, 54.61920333333333], [10.805151666666665, 54.67119666666667], [10.79943, 54.757205], [10.836493333333333, 54.855803333333334], [10.883521666666667, 54.929425], [10.985848333333333, 54.99988166666667], [10.991948333333333, 55.098976666666665], [11.057186666666666, 55.18512], [11.069491666666666, 55.27428333333333]]}, "properties": {"label": "CAVALIER", "mmsi": "461000235", "imo": "9306794", "name": "CAVALIER", "shiptype": "", "first_seen_utc": "2026-01-03T18:05:52Z", "last_seen_utc": "2026-01-11T15:31:54Z", "destination": "RUPRI>EGPSD", "eta": "{'Day': 25, 'Hour': 13, 'Minute': 0, 'Month': 1}", "display": "", "links": "<a href=\"https://www.vesselfinder.com/vessels?name=9306794\" target=\"_blank\" rel=\"noopener\">VesselFinder</a> | <a href=\"https://www.marinetraffic.com/en/ais/search/all?keyword=9306794\" target=\"_blank\" rel=\"noopener\">MarineTraffic</a>", "vf_url": "https://www.vesselfinder.com/vessels?name=9306794", "mst_url": "https://www.marinetraffic.com/en/ais/search/all?keyword=9306794", "method": "v3_2pass_track3d_fromru10d", "ru_seen_in_lookback": true, "in_monitor_on_day": true}}, {"type": "Feature", "geometry": {"type": "Point", "coordinates": [11.069491666666666, 55.27428333333333]}, "properties": {"label": "CAVALIER", "mmsi": "461000235", "imo": "9306794", "name": "CAVALIER", "shiptype": "", "first_seen_utc": "2026-01-03T18:05:52Z", "last_seen_utc": "2026-01-11T15:31:54Z", "destination": "RUPRI>EGPSD", "eta": "{'Day': 25, 'Hour': 13, 'Minute': 0, 'Month': 1}", "display": "CAVALIER (461000235)", "links": "<a href=\"https://www.vesselfinder.com/vessels?name=9306794\" target=\"_blank\" rel=\"noopener\">VesselFinder</a> | <a href=\"https://www.marinetraffic.com/en/ais/search/all?keyword=9306794\" target=\"_blank\" rel=\"noopener\">MarineTraffic</a>", "vf_url": "https://www.vesselfinder.com/vessels?name=9306794", "mst_url": "https://www.marinetraffic.com/en/ais/search/all?keyword=9306794", "method": "v3_2pass_track3d_fromru10d", "ru_seen_in_lookback": true, "in_monitor_on_day": true}}, {"type": "Feature", "geometry": {"type": "LineString", "coordinates": [[15.172448333333334, 55.606725], [15.041016666666668, 55.558350000000004], [14.924859999999999, 55.49957], [14.824916666666667, 55.43613666666667], [14.730398333333333, 55.35437666666667], [12.215895, 54.50701333333333], [12.134228333333335, 54.44318833333333], [11.980683333333333, 54.442753333333336], [11.814705, 54.44110666666666], [11.654953333333333, 54.461371666666665], [11.499185, 54.504131666666666], [11.341063333333333, 54.55067333333333], [11.18401, 54.59549333333334], [11.005496666666666, 54.602624999999996], [10.851663333333333, 54.656616666666665], [10.782971666666667, 54.73175833333333], [10.838116666666668, 54.82951166666667], [10.884825000000001, 54.93779833333333], [10.9925, 55.015456666666665], [10.989446666666668, 55.11421833333333], [11.074011666666667, 55.192568333333334], [11.0625, 55.280318333333334], [11.03214, 55.37969666666667], [10.85453, 55.53771833333334], [10.786145, 55.63700166666667], [10.802475, 55.737473333333334], [10.814606666666666, 55.881573333333336], [10.494188333333334, 57.85776], [10.299885, 57.853653333333334], [10.106286666666668, 57.85311333333333], [9.901271666666666, 57.85019], [9.704875, 57.844813333333335], [9.526251666666667, 57.84113833333333], [9.350446666666667, 57.796791666666664], [9.17031, 57.752608333333335], [8.986559999999999, 57.70686833333333], [8.798283333333334, 57.662063333333336], [8.622628333333333, 57.61934333333333], [8.44601, 57.575093333333335], [8.267109999999999, 57.52480166666667], [8.090955, 57.48023]]}, "properties": {"label": "NASLEDIE", "mmsi": "273279840", "imo": "9293002", "name": "NASLEDIE", "shiptype": "", "first_seen_utc": "2026-01-04T04:11:19Z", "last_seen_utc": "2026-01-11T15:58:29Z", "destination": "SINGAPORE", "eta": "{'Day': 10, 'Hour': 10, 'Minute': 0, 'Month': 2}", "display": "", "links": "<a href=\"https://www.vesselfinder.com/vessels?name=9293002\" target=\"_blank\" rel=\"noopener\">VesselFinder</a> | <a href=\"https://www.marinetraffic.com/en/ais/search/all?keyword=9293002\" target=\"_blank\" rel=\"noopener\">MarineTraffic</a>", "vf_url": "https://www.vesselfinder.com/vessels?name=9293002", "mst_url": "https://www.marinetraffic.com/en/ais/search/all?keyword=9293002", "method": "v3_2pass_track3d_fromru10d", "ru_seen_in_lookback": true, "in_monitor_on_day": true}}, {"type": "Feature", "geometry": {"type": "Point", "coordinates": [8.090955, 57.48023]}, "properties": {"label": "NASLEDIE", "mmsi": "273279840", "imo": "9293002", "name": "NASLEDIE", "shiptype": "", "first_seen_utc": "2026-01-04T04:11:19Z", "last_seen_utc": "2026-01-11T15:58:29Z", "destination": "SINGAPORE", "eta": "{'Day': 10, 'Hour': 10, 'Minute': 0, 'Month': 2}", "display": "NASLEDIE (273279840)", "links": "<a href=\"https://www.vesselfinder.com/vessels?name=9293002\" target=\"_blank\" rel=\"noopener\">VesselFinder</a> | <a href=\"https://www.marinetraffic.com/en/ais/search/all?keyword=9293002\" target=\"_blank\" rel=\"noopener\">MarineTraffic</a>", "vf_url": "https://www.vesselfinder.com/vessels?name=9293002", "mst_url": "https://www.marinetraffic.com/en/ais/search/all?keyword=9293002", "method": "v3_2pass_track3d_fromru10d", "ru_seen_in_lookback": true, "in_monitor_on_day": true}}, {"type": "Feature", "geometry": {"type": "LineString", "coordinates": [[2.5638333333333336, 51.90923333333333], [2.4717166666666666, 51.82705], [2.2106166666666667, 51.64358333333333], [2.110866666666667, 51.5738], [2.0030166666666664, 51.50741666666667], [1.9020666666666666, 51.43755], [1.8385500000000001, 51.34611666666667], [1.774, 51.25], [1.6607999999999998, 51.172133333333335], [1.5219666666666667, 51.10435], [1.3924333333333334, 51.03906666666667], [1.2774, 50.97148333333334], [-0.2907666666666667, 50.469699999999996], [-0.4499833333333333, 50.44251666666666], [-0.6071000000000001, 50.41041666666667], [-0.7611833333333333, 50.37675], [-0.9100166666666667, 50.34621666666667], [-1.3939666666666668, 50.260866666666665], [-1.6658333333333333, 50.213883333333335], [-1.7764833333333334, 50.19518333333333]]}, "properties": {"label": "SEA OWL I", "mmsi": "620800094", "imo": "9321172", "name": "SEA OWL I", "shiptype": "", "first_seen_utc": "2026-01-04T05:45:14Z", "last_seen_utc": "2026-01-11T01:41:54Z", "destination": "BRAZIL FOR ORDERS", "eta": "{'Day': 29, 'Hour': 8, 'Minute': 0, 'Month': 1}", "display": "", "links": "<a href=\"https://www.vesselfinder.com/vessels?name=9321172\" target=\"_blank\" rel=\"noopener\">VesselFinder</a> | <a href=\"https://www.marinetraffic.com/en/ais/search/all?keyword=9321172\" target=\"_blank\" rel=\"noopener\">MarineTraffic</a>", "vf_url": "https://www.vesselfinder.com/vessels?name=9321172", "mst_url": "https://www.marinetraffic.com/en/ais/search/all?keyword=9321172", "method": "v3_2pass_track3d_fromru10d", "ru_seen_in_lookback": true, "in_monitor_on_day": true}}, {"type": "Feature", "geometry": {"type": "Point", "coordinates": [-1.7764833333333334, 50.19518333333333]}, "properties": {"label": "SEA OWL I", "mmsi": "620800094", "imo": "9321172", "name": "SEA OWL I", "shiptype": "", "first_seen_utc": "2026-01-04T05:45:14Z", "last_seen_utc": "2026-01-11T01:41:54Z", "destination": "BRAZIL FOR ORDERS", "eta": "{'Day': 29, 'Hour': 8, 'Minute': 0, 'Month': 1}", "display": "SEA OWL I (620800094)", "links": "<a href=\"https://www.vesselfinder.com/vessels?name=9321172\" target=\"_blank\" rel=\"noopener\">VesselFinder</a> | <a href=\"https://www.marinetraffic.com/en/ais/search/all?keyword=9321172\" target=\"_blank\" rel=\"noopener\">MarineTraffic</a>", "vf_url": "https://www.vesselfinder.com/vessels?name=9321172", "mst_url": "https://www.marinetraffic.com/en/ais/search/all?keyword=9321172", "method": "v3_2pass_track3d_fromru10d", "ru_seen_in_lookback": true, "in_monitor_on_day": true}}, {"type": "Feature", "geometry": {"type": "LineString", "coordinates": [[10.49325, 57.851216666666666], [10.284033333333333, 57.861133333333335], [10.044016666666666, 57.85348333333333], [9.839833333333333, 57.854283333333335], [9.646316666666667, 57.85328333333334], [9.464333333333334, 57.80958333333333], [9.3025, 57.75725], [9.153866666666666, 57.69795], [9.005533333333334, 57.63516666666667], [8.857433333333335, 57.575849999999996], [8.705900000000002, 57.514316666666666], [8.3339, 57.37611666666667], [8.177816666666667, 57.31088333333333], [8.046116666666666, 57.2308], [3.363916666666667, 53.13281666666667], [3.2928333333333333, 52.99046666666666], [3.2442166666666665, 52.90215], [3.16705, 52.800333333333334], [2.653566666666667, 51.9983], [2.598583333333333, 51.88603333333333], [2.490133333333333, 51.800533333333334], [2.2318333333333333, 51.630633333333336], [2.075083333333333, 51.53046666666667], [1.959, 51.45421666666667], [1.8868333333333331, 51.36841666666667], [1.8136, 51.2864], [1.73645, 51.21495], [1.6350333333333333, 51.16481666666667], [1.5364333333333335, 51.117916666666666], [1.44145, 51.07006666666667], [-0.09525, 50.485416666666666], [-0.23033333333333333, 50.46318333333333], [-0.34085, 50.44465], [-0.44775, 50.42475], [-0.5778666666666666, 50.40306666666667]]}, "properties": {"label": "PATE", "mmsi": "667002026", "imo": "9338905", "name": "PATE", "shiptype": "", "first_seen_utc": "2026-01-04T08:45:47Z", "last_seen_utc": "2026-01-11T15:18:52Z", "destination": "PORT SAID", "eta": "{'Day': 22, 'Hour': 9, 'Minute': 0, 'Month': 1}", "display": "", "links": "<a href=\"https://www.vesselfinder.com/vessels?name=9338905\" target=\"_blank\" rel=\"noopener\">VesselFinder</a> | <a href=\"https://www.marinetraffic.com/en/ais/search/all?keyword=9338905\" target=\"_blank\" rel=\"noopener\">MarineTraffic</a>", "vf_url": "https://www.vesselfinder.com/vessels?name=9338905", "mst_url": "https://www.marinetraffic.com/en/ais/search/all?keyword=9338905", "method": "v3_2pass_track3d_fromru10d", "ru_seen_in_lookback": true, "in_monitor_on_day": true}}, {"type": "Feature", "geometry": {"type": "Point", "coordinates": [-0.5778666666666666, 50.40306666666667]}, "properties": {"label": "PATE", "mmsi": "667002026", "imo": "9338905", "name": "PATE", "shiptype": "", "first_seen_utc": "2026-01-04T08:45:47Z", "last_seen_utc": "2026-01-11T15:18:52Z", "destination": "PORT SAID", "eta": "{'Day': 22, 'Hour': 9, 'Minute': 0, 'Month': 1}", "display": "PATE (667002026)", "links": "<a href=\"https://www.vesselfinder.com/vessels?name=9338905\" target=\"_blank\" rel=\"noopener\">VesselFinder</a> | <a href=\"https://www.marinetraffic.com/en/ais/search/all?keyword=9338905\" target=\"_blank\" rel=\"noopener\">MarineTraffic</a>", "vf_url": "https://www.vesselfinder.com/vessels?name=9338905", "mst_url": "https://www.marinetraffic.com/en/ais/search/all?keyword=9338905", "method": "v3_2pass_track3d_fromru10d", "ru_seen_in_lookback": true, "in_monitor_on_day": true}}, {"type": "Feature", "geometry": {"type": "LineString", "coordinates": [[15.363511666666666, 55.61350166666667], [15.184043333333333, 55.593475], [15.013293333333333, 55.547291666666666], [14.841116666666666, 55.5084], [14.604989999999999, 55.44039333333333], [14.466583333333334, 55.34239166666667], [14.230598333333335, 55.17358166666667], [12.258511666666667, 54.594255], [12.217863333333334, 54.52329833333333], [12.137168333333333, 54.445816666666666], [11.966108333333333, 54.448141666666665], [11.79304, 54.45701833333333], [11.625271666666666, 54.48535666666667], [11.467076666666665, 54.528486666666666], [11.306705, 54.570861666666666], [11.138663333333334, 54.605955], [10.9603, 54.61931666666667], [10.804456666666665, 54.673030000000004], [10.80699, 54.768805], [10.837175, 54.86443166666666], [10.877893333333333, 54.934650000000005], [11.022785, 55.00231333333333], [11.044115, 55.10720333333334], [11.097383333333333, 55.201710000000006], [11.054788333333333, 55.293800000000005], [10.819645000000001, 55.590313333333334], [10.790368333333333, 55.689058333333335], [10.819086666666667, 55.789210000000004], [10.954343333333332, 55.91706333333333]]}, "properties": {"label": "JUPITER", "mmsi": "273265590", "imo": "9397535", "name": "JUPITER", "shiptype": "", "first_seen_utc": "2026-01-04T21:17:52Z", "last_seen_utc": "2026-01-11T06:34:24Z", "destination": "EGPSD", "eta": "{'Day': 24, 'Hour': 17, 'Minute': 0, 'Month': 1}", "display": "", "links": "<a href=\"https://www.vesselfinder.com/vessels?name=9397535\" target=\"_blank\" rel=\"noopener\">VesselFinder</a> | <a href=\"https://www.marinetraffic.com/en/ais/search/all?keyword=9397535\" target=\"_blank\" rel=\"noopener\">MarineTraffic</a>", "vf_url": "https://www.vesselfinder.com/vessels?name=9397535", "mst_url": "https://www.marinetraffic.com/en/ais/search/all?keyword=9397535", "method": "v3_2pass_track3d_fromru10d", "ru_seen_in_lookback": true, "in_monitor_on_day": true}}, {"type": "Feature", "geometry": {"type": "Point", "coordinates": [10.954343333333332, 55.91706333333333]}, "properties": {"label": "JUPITER", "mmsi": "273265590", "imo": "9397535", "name": "JUPITER", "shiptype": "", "first_seen_utc": "2026-01-04T21:17:52Z", "last_seen_utc": "2026-01-11T06:34:24Z", "destination": "EGPSD", "eta": "{'Day': 24, 'Hour': 17, 'Minute': 0, 'Month': 1}", "display": "JUPITER (273265590)", "links": "<a href=\"https://www.vesselfinder.com/vessels?name=9397535\" target=\"_blank\" rel=\"noopener\">VesselFinder</a> | <a href=\"https://www.marinetraffic.com/en/ais/search/all?keyword=9397535\" target=\"_blank\" rel=\"noopener\">MarineTraffic</a>", "vf_url": "https://www.vesselfinder.com/vessels?name=9397535", "mst_url": "https://www.marinetraffic.com/en/ais/search/all?keyword=9397535", "method": "v3_2pass_track3d_fromru10d", "ru_seen_in_lookback": true, "in_monitor_on_day": true}}, {"type": "Feature", "geometry": {"type": "LineString", "coordinates": [[15.282883333333332, 55.63200833333334], [15.106455, 55.580103333333334], [14.934206666666666, 55.52832166666667], [14.727458333333335, 55.470596666666665], [12.258035, 54.58808666666666], [12.21606, 54.505721666666666], [12.143206666666666, 54.43315166666666], [11.987285000000002, 54.43026833333333], [11.829223333333335, 54.431066666666666], [11.684691666666668, 54.45801166666667], [11.537365, 54.49954833333334], [11.385343333333333, 54.54096333333334], [11.227426666666666, 54.58464166666667], [11.063600000000001, 54.60162666666667], [10.912213333333334, 54.631589999999996], [10.779783333333334, 54.68599166666667], [10.806263333333334, 54.77101833333334], [10.837603333333334, 54.865125], [10.903996666666666, 54.94945666666667], [10.990046666666666, 55.019549999999995], [10.98977, 55.106895], [11.045698333333332, 55.18052333333333], [11.088736666666668, 55.248270000000005], [11.03947, 55.344476666666665], [10.831768333333335, 55.57117166666667], [10.790249999999999, 55.687313333333336], [10.816928333333333, 55.805553333333336], [10.912198333333333, 55.91211666666666], [10.311076666666667, 57.84112666666667], [10.081028333333334, 57.836585], [9.857088333333333, 57.83424333333333], [9.636448333333334, 57.825799999999994], [9.494243333333333, 57.778725], [9.354196666666667, 57.731930000000006], [9.21239, 57.689750000000004], [9.050880000000001, 57.63941666666666], [8.870801666666667, 57.57601833333333], [8.68935, 57.512305], [8.501135, 57.44869833333333], [8.31519, 57.38393], [8.130001666666667, 57.31863], [7.949866666666667, 57.25347], [7.770716666666667, 57.18601666666667], [7.596708333333334, 57.121855], [7.425783333333333, 57.05086666666667], [7.3030100000000004, 56.956588333333336]]}, "properties": {"label": "ORYX", "mmsi": "314001139", "imo": "9250737", "name": "ORYX", "shiptype": "", "first_seen_utc": "2026-01-06T07:26:38Z", "last_seen_utc": "2026-01-11T05:48:07Z", "destination": "TR ALI", "eta": "{'Day': 22, 'Hour': 5, 'Minute': 0, 'Month': 1}", "display": "", "links": "<a href=\"https://www.vesselfinder.com/vessels?name=9250737\" target=\"_blank\" rel=\"noopener\">VesselFinder</a> | <a href=\"https://www.marinetraffic.com/en/ais/search/all?keyword=9250737\" target=\"_blank\" rel=\"noopener\">MarineTraffic</a>", "vf_url": "https://www.vesselfinder.com/vessels?name=9250737", "mst_url": "https://www.marinetraffic.com/en/ais/search/all?keyword=9250737", "method": "v3_2pass_track3d_fromru10d", "ru_seen_in_lookback": true, "in_monitor_on_day": true}}, {"type": "Feature", "geometry": {"type": "Point", "coordinates": [7.3030100000000004, 56.956588333333336]}, "properties": {"label": "ORYX", "mmsi": "314001139", "imo": "9250737", "name": "ORYX", "shiptype": "", "first_seen_utc": "2026-01-06T07:26:38Z", "last_seen_utc": "2026-01-11T05:48:07Z", "destination": "TR ALI", "eta": "{'Day': 22, 'Hour': 5, 'Minute': 0, 'Month': 1}", "display": "ORYX (314001139)", "links": "<a href=\"https://www.vesselfinder.com/vessels?name=9250737\" target=\"_blank\" rel=\"noopener\">VesselFinder</a> | <a href=\"https://www.marinetraffic.com/en/ais/search/all?keyword=9250737\" target=\"_blank\" rel=\"noopener\">MarineTraffic</a>", "vf_url": "https://www.vesselfinder.com/vessels?name=9250737", "mst_url": "https://www.marinetraffic.com/en/ais/search/all?keyword=9250737", "method": "v3_2pass_track3d_fromru10d", "ru_seen_in_lookback": true, "in_monitor_on_day": true}}, {"type": "Feature", "geometry": {"type": "LineString", "coordinates": [[28.333666666666666, 60.467983333333336], [15.418971666666666, 55.66701333333333], [15.247455, 55.625930000000004], [15.077918333333335, 55.577194999999996], [14.912004999999999, 55.528778333333335], [14.719253333333334, 55.478314999999995], [14.533199999999999, 55.39908666666667], [14.413343333333334, 55.309195], [14.149783333333334, 55.122475]]}, "properties": {"label": "ALMOND", "mmsi": "273276930", "imo": "9385142", "name": "ALMOND", "shiptype": "", "first_seen_utc": "2026-01-07T21:26:30Z", "last_seen_utc": "2026-01-11T11:11:43Z", "destination": "GIBRALTAR FOR ORDERS", "eta": "{'Day': 18, 'Hour': 13, 'Minute': 0, 'Month': 1}", "display": "", "links": "<a href=\"https://www.vesselfinder.com/vessels?name=9385142\" target=\"_blank\" rel=\"noopener\">VesselFinder</a> | <a href=\"https://www.marinetraffic.com/en/ais/search/all?keyword=9385142\" target=\"_blank\" rel=\"noopener\">MarineTraffic</a>", "vf_url": "https://www.vesselfinder.com/vessels?name=9385142", "mst_url": "https://www.marinetraffic.com/en/ais/search/all?keyword=9385142", "method": "v3_2pass_track3d_fromru10d", "ru_seen_in_lookback": true, "in_monitor_on_day": true}}, {"type": "Feature", "geometry": {"type": "Point", "coordinates": [14.149783333333334, 55.122475]}, "properties": {"label": "ALMOND", "mmsi": "273276930", "imo": "9385142", "name": "ALMOND", "shiptype": "", "first_seen_utc": "2026-01-07T21:26:30Z", "last_seen_utc": "2026-01-11T11:11:43Z", "destination": "GIBRALTAR FOR ORDERS", "eta": "{'Day': 18, 'Hour': 13, 'Minute': 0, 'Month': 1}", "display": "ALMOND (273276930)", "links": "<a href=\"https://www.vesselfinder.com/vessels?name=9385142\" target=\"_blank\" rel=\"noopener\">VesselFinder</a> | <a href=\"https://www.marinetraffic.com/en/ais/search/all?keyword=9385142\" target=\"_blank\" rel=\"noopener\">MarineTraffic</a>", "vf_url": "https://www.vesselfinder.com/vessels?name=9385142", "mst_url": "https://www.marinetraffic.com/en/ais/search/all?keyword=9385142", "method": "v3_2pass_track3d_fromru10d", "ru_seen_in_lookback": true, "in_monitor_on_day": true}}, {"type": "Feature", "geometry": {"type": "LineString", "coordinates": [[7.15825, 56.97309666666667], [7.326616666666666, 57.029536666666665], [7.5043, 57.089065], [7.677365, 57.14546666666667], [7.857383333333333, 57.20285], [8.110591666666666, 57.29408333333333], [8.279431666666666, 57.354638333333334], [8.449001666666666, 57.415780000000005], [8.614183333333333, 57.475656666666666], [8.789043333333332, 57.52717333333333], [8.960265, 57.584678333333336], [9.136131666666667, 57.64427833333333], [9.311671666666665, 57.703790000000005], [9.498026666666668, 57.76178166666667], [9.695703333333334, 57.79992166666667], [9.893431666666666, 57.810655], [10.084548333333334, 57.81191833333333], [10.273114999999999, 57.81103666666667], [10.459261666666666, 57.80836333333333], [12.345861666666668, 56.19988333333333], [12.429095, 56.15287333333333], [12.500366666666668, 56.12278666666667], [12.617233333333333, 56.06775666666667]]}, "properties": {"label": "QASR", "mmsi": "461000282", "imo": "9402471", "name": "QASR", "shiptype": "", "first_seen_utc": "2026-01-08T10:10:34Z", "last_seen_utc": "2026-01-11T15:56:12Z", "destination": "FOR ORDERS", "eta": "{'Day': 13, 'Hour': 10, 'Minute': 0, 'Month': 1}", "display": "", "links": "<a href=\"https://www.vesselfinder.com/vessels?name=9402471\" target=\"_blank\" rel=\"noopener\">VesselFinder</a> | <a href=\"https://www.marinetraffic.com/en/ais/search/all?keyword=9402471\" target=\"_blank\" rel=\"noopener\">MarineTraffic</a>", "vf_url": "https://www.vesselfinder.com/vessels?name=9402471", "mst_url": "https://www.marinetraffic.com/en/ais/search/all?keyword=9402471", "method": "v3_2pass_track3d_fromru10d", "ru_seen_in_lookback": false, "in_monitor_on_day": true}}, {"type": "Feature", "geometry": {"type": "Point", "coordinates": [12.617233333333333, 56.06775666666667]}, "properties": {"label": "QASR", "mmsi": "461000282", "imo": "9402471", "name": "QASR", "shiptype": "", "first_seen_utc": "2026-01-08T10:10:34Z", "last_seen_utc": "2026-01-11T15:56:12Z", "destination": "FOR ORDERS", "eta": "{'Day': 13, 'Hour': 10, 'Minute': 0, 'Month': 1}", "display": "QASR (461000282)", "links": "<a href=\"https://www.vesselfinder.com/vessels?name=9402471\" target=\"_blank\" rel=\"noopener\">VesselFinder</a> | <a href=\"https://www.marinetraffic.com/en/ais/search/all?keyword=9402471\" target=\"_blank\" rel=\"noopener\">MarineTraffic</a>", "vf_url": "https://www.vesselfinder.com/vessels?name=9402471", "mst_url": "https://www.marinetraffic.com/en/ais/search/all?keyword=9402471", "method": "v3_2pass_track3d_fromru10d", "ru_seen_in_lookback": false, "in_monitor_on_day": true}}, {"type": "Feature", "geometry": {"type": "LineString", "coordinates": [[1.2662833333333334, 50.654916666666665], [1.3833166666666665, 50.741683333333334], [1.44905, 50.8516], [1.55305, 50.95911666666667], [1.6890333333333334, 51.05136666666667], [1.8330333333333333, 51.132], [1.9934666666666667, 51.195883333333335], [2.110866666666667, 51.268116666666664], [2.1752, 51.374316666666665], [2.2309, 51.48506666666666], [2.4012333333333333, 51.6526], [2.5180000000000002, 51.73928333333333], [2.631466666666667, 51.848683333333334], [7.097666666666667, 56.950183333333335], [7.233099999999999, 57.02706666666666], [7.384333333333333, 57.101933333333335], [7.5535, 57.16656666666667], [7.726116666666667, 57.226366666666664], [7.894833333333334, 57.28478333333333], [8.057833333333333, 57.34336666666666], [8.224866666666667, 57.3983], [8.3961, 57.45146666666667], [8.5692, 57.504533333333335], [8.735833333333334, 57.553866666666664], [8.889533333333333, 57.59988333333333], [9.027883333333333, 57.64055], [9.1655, 57.68065], [9.308083333333334, 57.725033333333336], [9.456, 57.76391666666667], [9.592916666666667, 57.8024], [9.703149999999999, 57.81543333333333], [9.804883333333333, 57.81503333333333], [9.90265, 57.813383333333334], [10.00065, 57.81528333333333], [10.097299999999999, 57.81498333333333], [10.194983333333333, 57.8125], [10.2935, 57.809733333333334], [10.39785, 57.80813333333333], [10.4963, 57.8083]]}, "properties": {"label": "CENTURION", "mmsi": "667001255", "imo": "9380673", "name": "CENTURION", "shiptype": "", "first_seen_utc": "2026-01-08T18:39:20Z", "last_seen_utc": "2026-01-11T11:50:32Z", "destination": "GULF OF FINLAND", "eta": "{'Day': 14, 'Hour': 16, 'Minute': 0, 'Month': 1}", "display": "", "links": "<a href=\"https://www.vesselfinder.com/vessels?name=9380673\" target=\"_blank\" rel=\"noopener\">VesselFinder</a> | <a href=\"https://www.marinetraffic.com/en/ais/search/all?keyword=9380673\" target=\"_blank\" rel=\"noopener\">MarineTraffic</a>", "vf_url": "https://www.vesselfinder.com/vessels?name=9380673", "mst_url": "https://www.marinetraffic.com/en/ais/search/all?keyword=9380673", "method": "v3_2pass_track3d_fromru10d", "ru_seen_in_lookback": false, "in_monitor_on_day": true}}, {"type": "Feature", "geometry": {"type": "Point", "coordinates": [10.4963, 57.8083]}, "properties": {"label": "CENTURION", "mmsi": "667001255", "imo": "9380673", "name": "CENTURION", "shiptype": "", "first_seen_utc": "2026-01-08T18:39:20Z", "last_seen_utc": "2026-01-11T11:50:32Z", "destination": "GULF OF FINLAND", "eta": "{'Day': 14, 'Hour': 16, 'Minute': 0, 'Month': 1}", "display": "CENTURION (667001255)", "links": "<a href=\"https://www.vesselfinder.com/vessels?name=9380673\" target=\"_blank\" rel=\"noopener\">VesselFinder</a> | <a href=\"https://www.marinetraffic.com/en/ais/search/all?keyword=9380673\" target=\"_blank\" rel=\"noopener\">MarineTraffic</a>", "vf_url": "https://www.vesselfinder.com/vessels?name=9380673", "mst_url": "https://www.marinetraffic.com/en/ais/search/all?keyword=9380673", "method": "v3_2pass_track3d_fromru10d", "ru_seen_in_lookback": false, "in_monitor_on_day": true}}, {"type": "Feature", "geometry": {"type": "LineString", "coordinates": [[1.3593350000000002, 50.71351333333334], [1.4300866666666667, 50.80054500000001], [1.6232666666666666, 51.016153333333335], [1.7320966666666666, 51.09467166666666], [1.8608066666666665, 51.15425333333334], [1.9985766666666664, 51.203125], [2.1009366666666667, 51.27177166666667], [2.1592, 51.361061666666664], [2.2385733333333335, 51.46171666666667], [4.077005, 52.707874999999994], [4.17375, 52.77267333333334], [4.244936666666667, 52.839976666666665], [4.30171, 52.913286666666664], [4.356800000000001, 52.98717333333333], [4.406933333333333, 53.05792833333333], [4.463076666666667, 53.127865], [4.518715, 53.194433333333336], [4.573418333333334, 53.25691], [4.618236666666666, 53.31036833333334], [4.654624999999999, 53.35825333333333], [4.687176666666667, 53.40219833333333], [4.715336666666667, 53.43851166666666], [4.739033333333333, 53.46935666666666], [4.77697, 53.48829833333333], [4.816696666666667, 53.505325], [4.803965000000001, 53.54893833333333], [4.815636666666666, 53.57973166666667], [4.8331116666666665, 53.61140833333333], [8.189119999999999, 57.227325], [8.521094999999999, 57.370646666666666], [8.708145, 57.43333166666666], [9.033353333333334, 57.55085666666666], [9.190871666666668, 57.60835833333333], [9.376496666666666, 57.677461666666666], [9.68123, 57.764835], [9.83703, 57.78495], [9.988185, 57.794988333333336], [10.138743333333334, 57.801948333333335]]}, "properties": {"label": "AVIOR", "mmsi": "273415140", "imo": "9164512", "name": "AVIOR", "shiptype": "", "first_seen_utc": "2026-01-09T00:38:29Z", "last_seen_utc": "2026-01-11T15:35:50Z", "destination": "RU LED", "eta": "{'Day': 16, 'Hour': 15, 'Minute': 0, 'Month': 1}", "display": "", "links": "<a href=\"https://www.vesselfinder.com/vessels?name=9164512\" target=\"_blank\" rel=\"noopener\">VesselFinder</a> | <a href=\"https://www.marinetraffic.com/en/ais/search/all?keyword=9164512\" target=\"_blank\" rel=\"noopener\">MarineTraffic</a>", "vf_url": "https://www.vesselfinder.com/vessels?name=9164512", "mst_url": "https://www.marinetraffic.com/en/ais/search/all?keyword=9164512", "method": "v3_2pass_track3d_fromru10d", "ru_seen_in_lookback": false, "in_monitor_on_day": true}}, {"type": "Feature", "geometry": {"type": "Point", "coordinates": [10.138743333333334, 57.801948333333335]}, "properties": {"label": "AVIOR", "mmsi": "273415140", "imo": "9164512", "name": "AVIOR", "shiptype": "", "first_seen_utc": "2026-01-09T00:38:29Z", "last_seen_utc": "2026-01-11T15:35:50Z", "destination": "RU LED", "eta": "{'Day': 16, 'Hour': 15, 'Minute': 0, 'Month': 1}", "display": "AVIOR (273415140)", "links": "<a href=\"https://www.vesselfinder.com/vessels?name=9164512\" target=\"_blank\" rel=\"noopener\">VesselFinder</a> | <a href=\"https://www.marinetraffic.com/en/ais/search/all?keyword=9164512\" target=\"_blank\" rel=\"noopener\">MarineTraffic</a>", "vf_url": "https://www.vesselfinder.com/vessels?name=9164512", "mst_url": "https://www.marinetraffic.com/en/ais/search/all?keyword=9164512", "method": "v3_2pass_track3d_fromru10d", "ru_seen_in_lookback": false, "in_monitor_on_day": true}}, {"type": "Feature", "geometry": {"type": "LineString", "coordinates": [[1.3343266666666667, 50.684099999999994], [1.3764616666666667, 50.74534333333334], [1.4094783333333334, 50.80819333333333], [1.4615633333333333, 50.90127333333333], [1.5646416666666667, 50.97611333333334], [1.6463, 51.03454333333333], [1.7286566666666665, 51.093621666666664], [1.8734383333333333, 51.15511333333333], [1.9998233333333333, 51.20006333333333], [2.1047233333333333, 51.255253333333336], [2.13178, 51.32259], [2.1356200000000003, 51.387053333333334], [2.4859883333333332, 51.673685], [2.5786816666666668, 51.748844999999996], [3.9133166666666668, 52.62347333333333], [4.00059, 52.678850000000004], [4.07983, 52.728629999999995], [4.155275, 52.78261166666667], [4.228421666666667, 52.83712], [4.2789383333333335, 52.90239833333333], [4.324285000000001, 52.972903333333335], [4.38484, 53.03986833333333], [4.44691, 53.102905], [4.508795, 53.16589833333333], [4.566055, 53.23340833333334], [4.614108333333333, 53.30131166666667], [4.656338333333333, 53.367886666666664], [4.703768333333333, 53.42868], [4.7445216666666665, 53.48924], [4.78899, 53.54878166666666], [4.834773333333334, 53.61058333333334], [4.877005, 53.67431166666667], [4.916408333333334, 53.73746833333333], [7.571573333333333, 57.08898], [7.680811666666667, 57.16974333333334], [7.787145, 57.25741166666667], [7.895128333333333, 57.33576333333333], [8.018898333333333, 57.40888666666667], [8.146586666666668, 57.47929833333333], [8.294568333333334, 57.524051666666665], [8.455906666666667, 57.56021166666667], [8.635516666666666, 57.592555], [8.809278333333333, 57.622845], [8.975186666666668, 57.65282333333334], [9.236035, 57.69964], [9.432571666666666, 57.740024999999996], [9.606208333333333, 57.763419999999996]]}, "properties": {"label": "ARIA", "mmsi": "273267690", "imo": "9397559", "name": "ARIA", "shiptype": "", "first_seen_utc": "2026-01-09T09:41:29Z", "last_seen_utc": "2026-01-11T15:59:23Z", "destination": "RUULU", "eta": "{'Day': 15, 'Hour': 9, 'Minute': 0, 'Month': 1}", "display": "", "links": "<a href=\"https://www.vesselfinder.com/vessels?name=9397559\" target=\"_blank\" rel=\"noopener\">VesselFinder</a> | <a href=\"https://www.marinetraffic.com/en/ais/search/all?keyword=9397559\" target=\"_blank\" rel=\"noopener\">MarineTraffic</a>", "vf_url": "https://www.vesselfinder.com/vessels?name=9397559", "mst_url": "https://www.marinetraffic.com/en/ais/search/all?keyword=9397559", "method": "v3_2pass_track3d_fromru10d", "ru_seen_in_lookback": false, "in_monitor_on_day": true}}, {"type": "Feature", "geometry": {"type": "Point", "coordinates": [9.606208333333333, 57.763419999999996]}, "properties": {"label": "ARIA", "mmsi": "273267690", "imo": "9397559", "name": "ARIA", "shiptype": "", "first_seen_utc": "2026-01-09T09:41:29Z", "last_seen_utc": "2026-01-11T15:59:23Z", "destination": "RUULU", "eta": "{'Day': 15, 'Hour': 9, 'Minute': 0, 'Month': 1}", "display": "ARIA (273267690)", "links": "<a href=\"https://www.vesselfinder.com/vessels?name=9397559\" target=\"_blank\" rel=\"noopener\">VesselFinder</a> | <a href=\"https://www.marinetraffic.com/en/ais/search/all?keyword=9397559\" target=\"_blank\" rel=\"noopener\">MarineTraffic</a>", "vf_url": "https://www.vesselfinder.com/vessels?name=9397559", "mst_url": "https://www.marinetraffic.com/en/ais/search/all?keyword=9397559", "method": "v3_2pass_track3d_fromru10d", "ru_seen_in_lookback": false, "in_monitor_on_day": true}}, {"type": "Feature", "geometry": {"type": "LineString", "coordinates": [[-0.345665, 50.271676666666664], [-0.19605499999999998, 50.30260666666666], [1.270265, 50.64550833333333], [1.3641066666666668, 50.705778333333335], [1.394435, 50.776205], [1.425265, 50.84711], [1.4548583333333334, 50.91433], [1.5217183333333333, 50.97349333333333], [1.590325, 51.02946166666666], [1.6532683333333333, 51.084675], [1.7242783333333334, 51.13552833333333], [1.7776850000000002, 51.19381], [1.8682566666666667, 51.24164833333334], [1.94649, 51.299533333333336], [2.0333566666666667, 51.35643], [2.1588316666666665, 51.43792166666666], [2.4608383333333332, 51.669485], [2.5746033333333336, 51.74145], [2.6172366666666664, 51.81737666666667], [7.490286666666666, 57.090605], [7.639528333333333, 57.162295], [7.8107516666666665, 57.225366666666666], [7.950073333333333, 57.30588], [8.09587, 57.380539999999996], [8.263936666666668, 57.44163666666667]]}, "properties": {"label": "NERO", "mmsi": "574005510", "imo": "9374868", "name": "NERO", "shiptype": "", "first_seen_utc": "2026-01-09T14:51:37Z", "last_seen_utc": "2026-01-11T16:00:38Z", "destination": "SKAW", "eta": "{'Day': 13, 'Hour': 10, 'Minute': 0, 'Month': 1}", "display": "", "links": "<a href=\"https://www.vesselfinder.com/vessels?name=9374868\" target=\"_blank\" rel=\"noopener\">VesselFinder</a> | <a href=\"https://www.marinetraffic.com/en/ais/search/all?keyword=9374868\" target=\"_blank\" rel=\"noopener\">MarineTraffic</a>", "vf_url": "https://www.vesselfinder.com/vessels?name=9374868", "mst_url": "https://www.marinetraffic.com/en/ais/search/all?keyword=9374868", "method": "v3_2pass_track3d_fromru10d", "ru_seen_in_lookback": false, "in_monitor_on_day": true}}, {"type": "Feature", "geometry": {"type": "Point", "coordinates": [8.263936666666668, 57.44163666666667]}, "properties": {"label": "NERO", "mmsi": "574005510", "imo": "9374868", "name": "NERO", "shiptype": "", "first_seen_utc": "2026-01-09T14:51:37Z", "last_seen_utc": "2026-01-11T16:00:38Z", "destination": "SKAW", "eta": "{'Day': 13, 'Hour': 10, 'Minute': 0, 'Month': 1}", "display": "NERO (574005510)", "links": "<a href=\"https://www.vesselfinder.com/vessels?name=9374868\" target=\"_blank\" rel=\"noopener\">VesselFinder</a> | <a href=\"https://www.marinetraffic.com/en/ais/search/all?keyword=9374868\" target=\"_blank\" rel=\"noopener\">MarineTraffic</a>", "vf_url": "https://www.vesselfinder.com/vessels?name=9374868", "mst_url": "https://www.marinetraffic.com/en/ais/search/all?keyword=9374868", "method": "v3_2pass_track3d_fromru10d", "ru_seen_in_lookback": false, "in_monitor_on_day": true}}, {"type": "Feature", "geometry": {"type": "LineString", "coordinates": [[-1.11902, 50.123135000000005], [-0.9168850000000001, 50.15556166666667], [-0.7302766666666667, 50.18778333333333], [-0.54074, 50.22249], [-0.3505266666666667, 50.25850666666667], [-0.156285, 50.29406166666667], [0.03650166666666667, 50.326530000000005], [0.24561333333333335, 50.36093833333334], [1.2668716666666666, 50.644], [1.3943249999999998, 50.737613333333336], [1.4589866666666667, 50.860866666666666], [1.5677183333333333, 50.974916666666665], [1.7018533333333332, 51.07081166666667], [1.8516166666666665, 51.15911833333333], [2.0222683333333333, 51.22195], [2.129948333333333, 51.3192], [2.1638566666666668, 51.43093833333333], [2.287116666666667, 51.52672666666667], [2.436288333333333, 51.64505333333333], [2.558203333333333, 51.74319666666667], [2.609975, 51.862025], [2.6469183333333333, 51.978269999999995], [2.671448333333333, 52.09319166666667]]}, "properties": {"label": "AQUA TITAN", "mmsi": "613961020", "imo": "9332781", "name": "AQUA TITAN", "shiptype": "", "first_seen_utc": "2026-01-10T23:00:19Z", "last_seen_utc": "2026-01-11T13:04:51Z", "destination": "FOR ORDER", "eta": "{'Day': 15, 'Hour': 23, 'Minute': 0, 'Month': 1}", "display": "", "links": "<a href=\"https://www.vesselfinder.com/vessels?name=9332781\" target=\"_blank\" rel=\"noopener\">VesselFinder</a> | <a href=\"https://www.marinetraffic.com/en/ais/search/all?keyword=9332781\" target=\"_blank\" rel=\"noopener\">MarineTraffic</a>", "vf_url": "https://www.vesselfinder.com/vessels?name=9332781", "mst_url": "https://www.marinetraffic.com/en/ais/search/all?keyword=9332781", "method": "v3_2pass_track3d_fromru10d", "ru_seen_in_lookback": false, "in_monitor_on_day": true}}, {"type": "Feature", "geometry": {"type": "Point", "coordinates": [2.671448333333333, 52.09319166666667]}, "properties": {"label": "AQUA TITAN", "mmsi": "613961020", "imo": "9332781", "name": "AQUA TITAN", "shiptype": "", "first_seen_utc": "2026-01-10T23:00:19Z", "last_seen_utc": "2026-01-11T13:04:51Z", "destination": "FOR ORDER", "eta": "{'Day': 15, 'Hour': 23, 'Minute': 0, 'Month': 1}", "display": "AQUA TITAN (613961020)", "links": "<a href=\"https://www.vesselfinder.com/vessels?name=9332781\" target=\"_blank\" rel=\"noopener\">VesselFinder</a> | <a href=\"https://www.marinetraffic.com/en/ais/search/all?keyword=9332781\" target=\"_blank\" rel=\"noopener\">MarineTraffic</a>", "vf_url": "https://www.vesselfinder.com/vessels?name=9332781", "mst_url": "https://www.marinetraffic.com/en/ais/search/all?keyword=9332781", "method": "v3_2pass_track3d_fromru10d", "ru_seen_in_lookback": false, "in_monitor_on_day": true}}, {"type": "Feature", "geometry": {"type": "LineString", "coordinates": [[4.016403333333333, 61.999585], [4.014218333333334, 61.92599333333333], [4.011925, 61.85070666666666], [4.01273, 61.77469833333334], [4.024171666666667, 61.700066666666665], [4.022685, 61.62741166666667], [4.018786666666666, 61.553845], [4.01839, 61.48203], [4.024196666666667, 61.409796666666665], [4.026833333333333, 61.33788833333333], [4.026108333333333, 61.26861833333333], [4.022566666666667, 61.200645], [4.015521666666666, 61.13100833333333], [4.003331666666667, 61.058458333333334], [3.99188, 60.98558833333333], [3.980145, 60.913286666666664], [3.9690466666666664, 60.84352166666667], [3.9702083333333333, 60.775605000000006], [3.97902, 60.70898833333333], [3.9854616666666667, 60.643163333333334], [3.991585, 60.579044999999994], [3.997505, 60.51371166666667], [4.003525, 60.45207666666667], [4.007571666666666, 60.395685], [3.9950783333333333, 60.34415333333333], [3.9807816666666667, 60.30347166666666], [3.981063333333333, 60.263614999999994], [3.9869333333333334, 60.2211], [3.9934516666666666, 60.183345], [3.9939833333333334, 60.153014999999996], [3.9958650000000002, 60.135686666666665], [4.000545, 60.120536666666666], [4.000966666666667, 60.105125]]}, "properties": {"label": "CAMEL", "mmsi": "461000253", "imo": "9341079", "name": "CAMEL", "shiptype": "", "first_seen_utc": "2026-01-10T23:13:59Z", "last_seen_utc": "2026-01-11T15:49:22Z", "destination": "EGPSD", "eta": "{'Day': 23, 'Hour': 6, 'Minute': 0, 'Month': 1}", "display": "", "links": "<a href=\"https://www.vesselfinder.com/vessels?name=9341079\" target=\"_blank\" rel=\"noopener\">VesselFinder</a> | <a href=\"https://www.marinetraffic.com/en/ais/search/all?keyword=9341079\" target=\"_blank\" rel=\"noopener\">MarineTraffic</a>", "vf_url": "https://www.vesselfinder.com/vessels?name=9341079", "mst_url": "https://www.marinetraffic.com/en/ais/search/all?keyword=9341079", "method": "v3_2pass_track3d_fromru10d", "ru_seen_in_lookback": false, "in_monitor_on_day": true}}, {"type": "Feature", "geometry": {"type": "Point", "coordinates": [4.000966666666667, 60.105125]}, "properties": {"label": "CAMEL", "mmsi": "461000253", "imo": "9341079", "name": "CAMEL", "shiptype": "", "first_seen_utc": "2026-01-10T23:13:59Z", "last_seen_utc": "2026-01-11T15:49:22Z", "destination": "EGPSD", "eta": "{'Day': 23, 'Hour': 6, 'Minute': 0, 'Month': 1}", "display": "CAMEL (461000253)", "links": "<a href=\"https://www.vesselfinder.com/vessels?name=9341079\" target=\"_blank\" rel=\"noopener\">VesselFinder</a> | <a href=\"https://www.marinetraffic.com/en/ais/search/all?keyword=9341079\" target=\"_blank\" rel=\"noopener\">MarineTraffic</a>", "vf_url": "https://www.vesselfinder.com/vessels?name=9341079", "mst_url": "https://www.marinetraffic.com/en/ais/search/all?keyword=9341079", "method": "v3_2pass_track3d_fromru10d", "ru_seen_in_lookback": false, "in_monitor_on_day": true}}, {"type": "Feature", "geometry": {"type": "LineString", "coordinates": [[6.512233333333333, 56.92766666666667], [6.746366666666666, 57.00123333333333], [6.923516666666667, 57.056850000000004], [7.09425, 57.11024999999999], [7.2720666666666665, 57.165333333333336], [7.451533333333333, 57.21301666666667], [7.632183333333333, 57.256616666666666], [7.820283333333333, 57.30141666666667], [8.0098, 57.34198333333333], [8.189616666666668, 57.39495], [8.372266666666667, 57.44873333333333], [8.558016666666667, 57.50425], [8.7334, 57.557249999999996], [8.895666666666667, 57.615750000000006], [9.066033333333333, 57.66276666666667], [9.310016666666666, 57.7299], [9.500766666666667, 57.784800000000004], [9.711833333333335, 57.803583333333336], [9.930833333333334, 57.804766666666666], [10.128416666666668, 57.808616666666666], [10.322916666666666, 57.8099]]}, "properties": {"label": "BLUE TALU", "mmsi": "613427200", "imo": "9334557", "name": "BLUE TALU", "shiptype": "", "first_seen_utc": "2026-01-11T03:48:22Z", "last_seen_utc": "2026-01-11T14:34:41Z", "destination": "TALLINN", "eta": "{'Day': 14, 'Hour': 2, 'Minute': 0, 'Month': 1}", "display": "", "links": "<a href=\"https://www.vesselfinder.com/vessels?name=9334557\" target=\"_blank\" rel=\"noopener\">VesselFinder</a> | <a href=\"https://www.marinetraffic.com/en/ais/search/all?keyword=9334557\" target=\"_blank\" rel=\"noopener\">MarineTraffic</a>", "vf_url": "https://www.vesselfinder.com/vessels?name=9334557", "mst_url": "https://www.marinetraffic.com/en/ais/search/all?keyword=9334557", "method": "v3_2pass_track3d_fromru10d", "ru_seen_in_lookback": false, "in_monitor_on_day": true}}, {"type": "Feature", "geometry": {"type": "Point", "coordinates": [10.322916666666666, 57.8099]}, "properties": {"label": "BLUE TALU", "mmsi": "613427200", "imo": "9334557", "name": "BLUE TALU", "shiptype": "", "first_seen_utc": "2026-01-11T03:48:22Z", "last_seen_utc": "2026-01-11T14:34:41Z", "destination": "TALLINN", "eta": "{'Day': 14, 'Hour': 2, 'Minute': 0, 'Month': 1}", "display": "BLUE TALU (613427200)", "links": "<a href=\"https://www.vesselfinder.com/vessels?name=9334557\" target=\"_blank\" rel=\"noopener\">VesselFinder</a> | <a href=\"https://www.marinetraffic.com/en/ais/search/all?keyword=9334557\" target=\"_blank\" rel=\"noopener\">MarineTraffic</a>", "vf_url": "https://www.vesselfinder.com/vessels?name=9334557", "mst_url": "https://www.marinetraffic.com/en/ais/search/all?keyword=9334557", "method": "v3_2pass_track3d_fromru10d", "ru_seen_in_lookback": false, "in_monitor_on_day": true}}, {"type": "Feature", "geometry": {"type": "LineString", "coordinates": [[1.55172, 51.00564333333333], [1.6946566666666667, 51.089081666666665], [1.8430533333333334, 51.165681666666664], [2.011415, 51.21777], [2.1282883333333333, 51.314460000000004]]}, "properties": {"label": "SOFOS", "mmsi": "667002413", "imo": "9278064", "name": "SOFOS", "shiptype": "", "first_seen_utc": "2026-01-11T05:10:47Z", "last_seen_utc": "2026-01-11T07:13:33Z", "destination": "GULF OF FINLAND", "eta": "{'Day': 16, 'Hour': 10, 'Minute': 0, 'Month': 1}", "display": "", "links": "<a href=\"https://www.vesselfinder.com/vessels?name=9278064\" target=\"_blank\" rel=\"noopener\">VesselFinder</a> | <a href=\"https://www.marinetraffic.com/en/ais/search/all?keyword=9278064\" target=\"_blank\" rel=\"noopener\">MarineTraffic</a>", "vf_url": "https://www.vesselfinder.com/vessels?name=9278064", "mst_url": "https://www.marinetraffic.com/en/ais/search/all?keyword=9278064", "method": "v3_2pass_track3d_fromru10d", "ru_seen_in_lookback": false, "in_monitor_on_day": true}}, {"type": "Feature", "geometry": {"type": "Point", "coordinates": [2.1282883333333333, 51.314460000000004]}, "properties": {"label": "SOFOS", "mmsi": "667002413", "imo": "9278064", "name": "SOFOS", "shiptype": "", "first_seen_utc": "2026-01-11T05:10:47Z", "last_seen_utc": "2026-01-11T07:13:33Z", "destination": "GULF OF FINLAND", "eta": "{'Day': 16, 'Hour': 10, 'Minute': 0, 'Month': 1}", "display": "SOFOS (667002413)", "links": "<a href=\"https://www.vesselfinder.com/vessels?name=9278064\" target=\"_blank\" rel=\"noopener\">VesselFinder</a> | <a href=\"https://www.marinetraffic.com/en/ais/search/all?keyword=9278064\" target=\"_blank\" rel=\"noopener\">MarineTraffic</a>", "vf_url": "https://www.vesselfinder.com/vessels?name=9278064", "mst_url": "https://www.marinetraffic.com/en/ais/search/all?keyword=9278064", "method": "v3_2pass_track3d_fromru10d", "ru_seen_in_lookback": false, "in_monitor_on_day": true}}, {"type": "Feature", "geometry": {"type": "LineString", "coordinates": [[-0.8446333333333332, 50.170566666666666], [-0.6083666666666667, 50.21006666666666], [-0.42805, 50.23966666666667], [-0.2481, 50.26865], [1.3472166666666667, 50.69028333333333], [1.4206, 50.80491666666667], [1.4854833333333335, 50.92901666666667], [1.6238166666666667, 51.02735], [1.7815166666666669, 51.123349999999995], [1.9581333333333333, 51.20086666666667]]}, "properties": {"label": "DISCOVERY", "mmsi": "461000239", "imo": "9316127", "name": "DISCOVERY", "shiptype": "", "first_seen_utc": "2026-01-11T07:03:15Z", "last_seen_utc": "2026-01-11T15:55:02Z", "destination": "FOR ORDER", "eta": "{'Day': 17, 'Hour': 6, 'Minute': 0, 'Month': 1}", "display": "", "links": "<a href=\"https://www.vesselfinder.com/vessels?name=9316127\" target=\"_blank\" rel=\"noopener\">VesselFinder</a> | <a href=\"https://www.marinetraffic.com/en/ais/search/all?keyword=9316127\" target=\"_blank\" rel=\"noopener\">MarineTraffic</a>", "vf_url": "https://www.vesselfinder.com/vessels?name=9316127", "mst_url": "https://www.marinetraffic.com/en/ais/search/all?keyword=9316127", "method": "v3_2pass_track3d_fromru10d", "ru_seen_in_lookback": false, "in_monitor_on_day": true}}, {"type": "Feature", "geometry": {"type": "Point", "coordinates": [1.9581333333333333, 51.20086666666667]}, "properties": {"label": "DISCOVERY", "mmsi": "461000239", "imo": "9316127", "name": "DISCOVERY", "shiptype": "", "first_seen_utc": "2026-01-11T07:03:15Z", "last_seen_utc": "2026-01-11T15:55:02Z", "destination": "FOR ORDER", "eta": "{'Day': 17, 'Hour': 6, 'Minute': 0, 'Month': 1}", "display": "DISCOVERY (461000239)", "links": "<a href=\"https://www.vesselfinder.com/vessels?name=9316127\" target=\"_blank\" rel=\"noopener\">VesselFinder</a> | <a href=\"https://www.marinetraffic.com/en/ais/search/all?keyword=9316127\" target=\"_blank\" rel=\"noopener\">MarineTraffic</a>", "vf_url": "https://www.vesselfinder.com/vessels?name=9316127", "mst_url": "https://www.marinetraffic.com/en/ais/search/all?keyword=9316127", "method": "v3_2pass_track3d_fromru10d", "ru_seen_in_lookback": false, "in_monitor_on_day": true}}, {"type": "Feature", "geometry": {"type": "LineString", "coordinates": [[15.262096666666668, 55.610081666666666], [14.980393333333334, 55.533366666666666], [14.802586666666667, 55.485800000000005], [14.568076666666666, 55.411903333333335]]}, "properties": {"label": "CHARIOT TIDE", "mmsi": "650000265", "imo": "9323376", "name": "CHARIOT TIDE", "shiptype": "", "first_seen_utc": "2026-01-11T13:19:31Z", "last_seen_utc": "2026-01-11T15:35:58Z", "destination": "TANGIER- MOROCCO", "eta": "{'Day': 21, 'Hour': 12, 'Minute': 0, 'Month': 1}", "display": "", "links": "<a href=\"https://www.vesselfinder.com/vessels?name=9323376\" target=\"_blank\" rel=\"noopener\">VesselFinder</a> | <a href=\"https://www.marinetraffic.com/en/ais/search/all?keyword=9323376\" target=\"_blank\" rel=\"noopener\">MarineTraffic</a>", "vf_url": "https://www.vesselfinder.com/vessels?name=9323376", "mst_url": "https://www.marinetraffic.com/en/ais/search/all?keyword=9323376", "method": "v3_2pass_track3d_fromru10d", "ru_seen_in_lookback": false, "in_monitor_on_day": true}}, {"type": "Feature", "geometry": {"type": "Point", "coordinates": [14.568076666666666, 55.411903333333335]}, "properties": {"label": "CHARIOT TIDE", "mmsi": "650000265", "imo": "9323376", "name": "CHARIOT TIDE", "shiptype": "", "first_seen_utc": "2026-01-11T13:19:31Z", "last_seen_utc": "2026-01-11T15:35:58Z", "destination": "TANGIER- MOROCCO", "eta": "{'Day': 21, 'Hour': 12, 'Minute': 0, 'Month': 1}", "display": "CHARIOT TIDE (650000265)", "links": "<a href=\"https://www.vesselfinder.com/vessels?name=9323376\" target=\"_blank\" rel=\"noopener\">VesselFinder</a> | <a href=\"https://www.marinetraffic.com/en/ais/search/all?keyword=9323376\" target=\"_blank\" rel=\"noopener\">MarineTraffic</a>", "vf_url": "https://www.vesselfinder.com/vessels?name=9323376", "mst_url": "https://www.marinetraffic.com/en/ais/search/all?keyword=9323376", "method": "v3_2pass_track3d_fromru10d", "ru_seen_in_lookback": false, "in_monitor_on_day": true}}]}