{"type": "FeatureCollection", "features": [{"type": "Feature", "geometry": {"type": "LineString", "coordinates": [[15.644811666666667, 55.67919833333334], [15.453681666666666, 55.658588333333334], [15.287128333333333, 55.62582], [15.130648333333333, 55.58547], [14.972048333333333, 55.549171666666666], [14.813435, 55.51249666666667], [14.656558333333333, 55.46514166666667], [14.516645, 55.39273166666667], [14.398881666666666, 55.31408], [14.21604, 55.18616333333333], [13.211248333333334, 54.88972666666667], [12.265048333333334, 54.60133166666667], [12.224063333333334, 54.52765333333333], [12.175738333333333, 54.44680666666667], [12.027653333333335, 54.44873166666666], [11.872878333333334, 54.452684999999995], [11.72668, 54.464931666666665], [11.5816, 54.490565], [11.434546666666668, 54.52437333333333], [11.293524999999999, 54.565666666666665], [11.146075, 54.591125000000005], [10.991146666666667, 54.60807333333333], [10.853855000000001, 54.653011666666664], [10.779648333333334, 54.72030333333333], [10.832991666666667, 54.805465000000005], [10.842338333333334, 54.881615000000004], [10.885221666666666, 54.93790333333333], [10.979091666666667, 54.99523833333333], [10.989483333333334, 55.077843333333334], [11.007421666666666, 55.16341333333333], [11.102813333333334, 55.22694833333333], [11.040413333333333, 55.314591666666665], [10.836948333333334, 55.564658333333334], [10.786025, 55.657668333333326], [10.807346666666666, 55.759096666666665], [10.812306666666666, 55.865028333333335], [10.940225, 55.915996666666665], [11.095893333333333, 56.05327333333333], [11.096738333333333, 56.147155], [10.42373, 57.851425], [10.234571666666666, 57.846111666666665], [10.05239, 57.84197833333334], [9.877225000000001, 57.839818333333334], [9.702580000000001, 57.837943333333335], [9.531335, 57.82944166666667], [9.390545, 57.780805], [9.248948333333335, 57.729078333333334], [9.10897, 57.679415], [8.967606666666667, 57.632145], [8.824148333333333, 57.584770000000006], [8.679045, 57.537638333333334], [8.531026666666667, 57.494661666666666], [8.384533333333334, 57.455641666666665], [8.241615, 57.405836666666666], [8.099803333333334, 57.355455], [7.956943333333333, 57.30520166666667], [7.806768333333333, 57.252568333333336], [7.666293333333333, 57.19364666666667], [7.529836666666667, 57.12567333333333], [7.396998333333333, 57.054365]]}, "properties": {"label": "MYSTERY", "mmsi": "667001245", "imo": "9332834", "name": "MYSTERY", "shiptype": "", "first_seen_utc": "2026-01-08T05:18:04Z", "last_seen_utc": "2026-01-17T03:31:29Z", "destination": "FOR ORDER", "eta": "{'Day': 29, 'Hour': 15, 'Minute': 0, 'Month': 1}", "display": "", "links": "<a href=\"https://www.vesselfinder.com/vessels?name=9332834\" target=\"_blank\" rel=\"noopener\">VesselFinder</a> | <a href=\"https://www.marinetraffic.com/en/ais/search/all?keyword=9332834\" target=\"_blank\" rel=\"noopener\">MarineTraffic</a>", "vf_url": "https://www.vesselfinder.com/vessels?name=9332834", "mst_url": "https://www.marinetraffic.com/en/ais/search/all?keyword=9332834", "method": "v3_2pass_track3d_fromru10d", "ru_seen_in_lookback": true, "in_monitor_on_day": true}}, {"type": "Feature", "geometry": {"type": "Point", "coordinates": [7.396998333333333, 57.054365]}, "properties": {"label": "MYSTERY", "mmsi": "667001245", "imo": "9332834", "name": "MYSTERY", "shiptype": "", "first_seen_utc": "2026-01-08T05:18:04Z", "last_seen_utc": "2026-01-17T03:31:29Z", "destination": "FOR ORDER", "eta": "{'Day': 29, 'Hour': 15, 'Minute': 0, 'Month': 1}", "display": "MYSTERY (667001245)", "links": "<a href=\"https://www.vesselfinder.com/vessels?name=9332834\" target=\"_blank\" rel=\"noopener\">VesselFinder</a> | <a href=\"https://www.marinetraffic.com/en/ais/search/all?keyword=9332834\" target=\"_blank\" rel=\"noopener\">MarineTraffic</a>", "vf_url": "https://www.vesselfinder.com/vessels?name=9332834", "mst_url": "https://www.marinetraffic.com/en/ais/search/all?keyword=9332834", "method": "v3_2pass_track3d_fromru10d", "ru_seen_in_lookback": true, "in_monitor_on_day": true}}, {"type": "Feature", "geometry": {"type": "LineString", "coordinates": [[15.615621666666668, 55.67979666666667], [15.431735, 55.65388], [15.263475, 55.627568333333336], [15.057661666666666, 55.573526666666666], [14.88241, 55.52717], [14.702233333333334, 55.474668333333334], [14.52352, 55.39422833333333], [14.416563333333333, 55.31951166666667], [14.303533333333332, 55.237586666666665], [14.202956666666667, 55.16543333333333], [13.729535, 54.99930833333334], [13.574553333333334, 54.97053666666667], [12.266033333333333, 54.591561666666664], [12.223026666666668, 54.511853333333335], [12.151625, 54.44741333333333], [12.002621666666666, 54.442204999999994], [11.8556, 54.439045], [11.712909999999999, 54.45124166666667], [11.578576666666667, 54.489285], [11.43006, 54.52853], [11.284258333333334, 54.57208], [11.134418333333334, 54.602650000000004], [10.979256666666666, 54.610365], [10.841728333333332, 54.651645], [10.774428333333333, 54.71556833333333], [10.834361666666666, 54.79981833333333], [10.84329, 54.88229666666667], [10.919348333333334, 54.95395833333334], [10.994061666666665, 55.028055], [10.990783333333333, 55.115739999999995], [11.065916666666668, 55.18642666666666], [11.07493, 55.26804], [11.03888, 55.35731166666667], [10.833633333333333, 55.57167333333334], [10.78703, 55.66363833333333], [10.808271666666666, 55.76128333333334], [10.876131666666668, 55.901320000000005], [10.488021666666667, 57.842585], [10.311656666666666, 57.84698166666667], [10.145401666666666, 57.850519999999996], [9.990781666666667, 57.85384166666667], [9.836611666666666, 57.854675], [9.685693333333335, 57.84800666666667], [9.533206666666667, 57.82773666666667], [9.384495, 57.80254], [9.252748333333333, 57.770085], [9.119798333333334, 57.735705], [8.986243333333334, 57.70121833333334], [8.849363333333335, 57.665735000000005], [8.714915, 57.630691666666664], [8.579831666666667, 57.59612833333333], [8.43819, 57.559446666666666], [8.29401, 57.52191333333334], [8.157183333333332, 57.484206666666665], [8.025879999999999, 57.44066333333333]]}, "properties": {"label": "GARASAN", "mmsi": "667002004", "imo": "9323986", "name": "GARASAN", "shiptype": "", "first_seen_utc": "2026-01-09T15:17:28Z", "last_seen_utc": "2026-01-17T03:54:43Z", "destination": "FOR ORDER", "eta": "{'Day': 31, 'Hour': 0, 'Minute': 1, 'Month': 1}", "display": "", "links": "<a href=\"https://www.vesselfinder.com/vessels?name=9323986\" target=\"_blank\" rel=\"noopener\">VesselFinder</a> | <a href=\"https://www.marinetraffic.com/en/ais/search/all?keyword=9323986\" target=\"_blank\" rel=\"noopener\">MarineTraffic</a>", "vf_url": "https://www.vesselfinder.com/vessels?name=9323986", "mst_url": "https://www.marinetraffic.com/en/ais/search/all?keyword=9323986", "method": "v3_2pass_track3d_fromru10d", "ru_seen_in_lookback": true, "in_monitor_on_day": true}}, {"type": "Feature", "geometry": {"type": "Point", "coordinates": [8.025879999999999, 57.44066333333333]}, "properties": {"label": "GARASAN", "mmsi": "667002004", "imo": "9323986", "name": "GARASAN", "shiptype": "", "first_seen_utc": "2026-01-09T15:17:28Z", "last_seen_utc": "2026-01-17T03:54:43Z", "destination": "FOR ORDER", "eta": "{'Day': 31, 'Hour': 0, 'Minute': 1, 'Month': 1}", "display": "GARASAN (667002004)", "links": "<a href=\"https://www.vesselfinder.com/vessels?name=9323986\" target=\"_blank\" rel=\"noopener\">VesselFinder</a> | <a href=\"https://www.marinetraffic.com/en/ais/search/all?keyword=9323986\" target=\"_blank\" rel=\"noopener\">MarineTraffic</a>", "vf_url": "https://www.vesselfinder.com/vessels?name=9323986", "mst_url": "https://www.marinetraffic.com/en/ais/search/all?keyword=9323986", "method": "v3_2pass_track3d_fromru10d", "ru_seen_in_lookback": true, "in_monitor_on_day": true}}, {"type": "Feature", "geometry": {"type": "LineString", "coordinates": [[14.716561666666667, 55.31109166666667], [14.556976666666666, 55.24113], [14.390843333333333, 55.180881666666664], [14.234993333333334, 55.130575]]}, "properties": {"label": "LUMIN", "mmsi": "613321600", "imo": "9330599", "name": "LUMIN", "shiptype": "", "first_seen_utc": "2026-01-11T14:32:40Z", "last_seen_utc": "2026-01-17T03:04:22Z", "destination": "SINGAPORE", "eta": "{'Day': 18, 'Hour': 20, 'Minute': 0, 'Month': 2}", "display": "", "links": "<a href=\"https://www.vesselfinder.com/vessels?name=9330599\" target=\"_blank\" rel=\"noopener\">VesselFinder</a> | <a href=\"https://www.marinetraffic.com/en/ais/search/all?keyword=9330599\" target=\"_blank\" rel=\"noopener\">MarineTraffic</a>", "vf_url": "https://www.vesselfinder.com/vessels?name=9330599", "mst_url": "https://www.marinetraffic.com/en/ais/search/all?keyword=9330599", "method": "v3_2pass_track3d_fromru10d", "ru_seen_in_lookback": true, "in_monitor_on_day": true}}, {"type": "Feature", "geometry": {"type": "Point", "coordinates": [14.234993333333334, 55.130575]}, "properties": {"label": "LUMIN", "mmsi": "613321600", "imo": "9330599", "name": "LUMIN", "shiptype": "", "first_seen_utc": "2026-01-11T14:32:40Z", "last_seen_utc": "2026-01-17T03:04:22Z", "destination": "SINGAPORE", "eta": "{'Day': 18, 'Hour': 20, 'Minute': 0, 'Month': 2}", "display": "LUMIN (613321600)", "links": "<a href=\"https://www.vesselfinder.com/vessels?name=9330599\" target=\"_blank\" rel=\"noopener\">VesselFinder</a> | <a href=\"https://www.marinetraffic.com/en/ais/search/all?keyword=9330599\" target=\"_blank\" rel=\"noopener\">MarineTraffic</a>", "vf_url": "https://www.vesselfinder.com/vessels?name=9330599", "mst_url": "https://www.marinetraffic.com/en/ais/search/all?keyword=9330599", "method": "v3_2pass_track3d_fromru10d", "ru_seen_in_lookback": true, "in_monitor_on_day": true}}, {"type": "Feature", "geometry": {"type": "LineString", "coordinates": [[7.289808333333334, 56.832901666666665], [7.469938333333333, 57.014853333333335], [7.965310000000001, 57.273665], [10.057905, 57.80112666666666], [10.343306666666667, 57.80913833333333], [10.970538333333334, 55.93599833333334], [10.890105, 55.88176], [10.806701666666667, 55.82854333333333], [10.803661666666667, 55.75879166666667], [10.779121666666667, 55.687525], [11.030065, 55.35515], [11.056396666666666, 55.284414999999996], [11.097073333333332, 55.21573166666667], [11.045856666666667, 55.15177333333334], [11.031628333333334, 55.078603333333334], [11.018229999999999, 55.004463333333334], [10.940198333333333, 54.946675], [10.882281666666668, 54.893085], [10.859425, 54.822705], [10.86555, 54.750440000000005], [10.88447, 54.69053833333333], [10.983476666666666, 54.648025], [11.085496666666668, 54.60727], [11.196453333333332, 54.574843333333334], [11.305148333333333, 54.54503], [11.415061666666666, 54.51121833333333], [11.528718333333334, 54.47900833333333], [11.636515000000001, 54.44501833333334], [11.750358333333333, 54.41748166666666], [11.874848333333334, 54.40931166666667], [11.994296666666665, 54.40923], [12.113401666666666, 54.40978], [12.209916666666667, 54.443239999999996]]}, "properties": {"label": "ONEGA", "mmsi": "273273930", "imo": "9384459", "name": "ONEGA", "shiptype": "", "first_seen_utc": "2026-01-13T00:13:03Z", "last_seen_utc": "2026-01-17T03:40:31Z", "destination": "RUKGD", "eta": "{'Day': 18, 'Hour': 18, 'Minute': 0, 'Month': 1}", "display": "", "links": "<a href=\"https://www.vesselfinder.com/vessels?name=9384459\" target=\"_blank\" rel=\"noopener\">VesselFinder</a> | <a href=\"https://www.marinetraffic.com/en/ais/search/all?keyword=9384459\" target=\"_blank\" rel=\"noopener\">MarineTraffic</a>", "vf_url": "https://www.vesselfinder.com/vessels?name=9384459", "mst_url": "https://www.marinetraffic.com/en/ais/search/all?keyword=9384459", "method": "v3_2pass_track3d_fromru10d", "ru_seen_in_lookback": false, "in_monitor_on_day": true}}, {"type": "Feature", "geometry": {"type": "Point", "coordinates": [12.209916666666667, 54.443239999999996]}, "properties": {"label": "ONEGA", "mmsi": "273273930", "imo": "9384459", "name": "ONEGA", "shiptype": "", "first_seen_utc": "2026-01-13T00:13:03Z", "last_seen_utc": "2026-01-17T03:40:31Z", "destination": "RUKGD", "eta": "{'Day': 18, 'Hour': 18, 'Minute': 0, 'Month': 1}", "display": "ONEGA (273273930)", "links": "<a href=\"https://www.vesselfinder.com/vessels?name=9384459\" target=\"_blank\" rel=\"noopener\">VesselFinder</a> | <a href=\"https://www.marinetraffic.com/en/ais/search/all?keyword=9384459\" target=\"_blank\" rel=\"noopener\">MarineTraffic</a>", "vf_url": "https://www.vesselfinder.com/vessels?name=9384459", "mst_url": "https://www.marinetraffic.com/en/ais/search/all?keyword=9384459", "method": "v3_2pass_track3d_fromru10d", "ru_seen_in_lookback": false, "in_monitor_on_day": true}}, {"type": "Feature", "geometry": {"type": "LineString", "coordinates": [[3.6995283333333333, 58.74189833333333], [3.875995, 58.70791], [4.0511099999999995, 58.661359999999995], [4.225585, 58.611115000000005], [4.389928333333333, 58.56489], [4.5644149999999994, 58.51574166666667], [4.72789, 58.46695166666667], [4.887575, 58.42243833333334], [5.057238333333333, 58.380453333333335], [5.210231666666667, 58.33260833333333], [5.337848333333333, 58.274604999999994], [5.46248, 58.21563666666667], [5.586496666666666, 58.16010333333334], [5.723938333333334, 58.102788333333336], [5.857033333333334, 58.038545], [5.999766666666667, 57.97862333333333], [6.120355, 57.921081666666666], [6.2425033333333335, 57.86574333333333], [6.365095, 57.810425], [6.502743333333333, 57.74789333333333], [6.669553333333334, 57.714888333333334], [6.853735, 57.708735000000004], [7.041236666666666, 57.70254166666667], [7.229701666666667, 57.69979166666667], [7.414668333333334, 57.69186666666667], [7.605594999999999, 57.68725333333334], [7.79267, 57.682545], [7.984205, 57.68445666666666], [8.174673333333333, 57.69441], [8.364468333333333, 57.70460833333333], [8.551838333333334, 57.71311], [8.750493333333333, 57.72522333333333], [8.953108333333335, 57.73705333333333], [9.179803333333332, 57.748185], [9.72937, 57.790115], [10.128145, 57.806871666666666], [10.376381666666667, 57.806911666666664], [12.327591666666667, 56.19797166666667], [12.437021666666668, 56.153443333333335], [12.555318333333334, 56.10017333333334], [12.66387, 56.017453333333336]]}, "properties": {"label": "TRUST", "mmsi": "273271950", "imo": "9382798", "name": "TRUST", "shiptype": "", "first_seen_utc": "2026-01-15T20:02:37Z", "last_seen_utc": "2026-01-17T03:52:42Z", "destination": "RUULU", "eta": "{'Day': 19, 'Hour': 14, 'Minute': 0, 'Month': 1}", "display": "", "links": "<a href=\"https://www.vesselfinder.com/vessels?name=9382798\" target=\"_blank\" rel=\"noopener\">VesselFinder</a> | <a href=\"https://www.marinetraffic.com/en/ais/search/all?keyword=9382798\" target=\"_blank\" rel=\"noopener\">MarineTraffic</a>", "vf_url": "https://www.vesselfinder.com/vessels?name=9382798", "mst_url": "https://www.marinetraffic.com/en/ais/search/all?keyword=9382798", "method": "v3_2pass_track3d_fromru10d", "ru_seen_in_lookback": false, "in_monitor_on_day": true}}, {"type": "Feature", "geometry": {"type": "Point", "coordinates": [12.66387, 56.017453333333336]}, "properties": {"label": "TRUST", "mmsi": "273271950", "imo": "9382798", "name": "TRUST", "shiptype": "", "first_seen_utc": "2026-01-15T20:02:37Z", "last_seen_utc": "2026-01-17T03:52:42Z", "destination": "RUULU", "eta": "{'Day': 19, 'Hour': 14, 'Minute': 0, 'Month': 1}", "display": "TRUST (273271950)", "links": "<a href=\"https://www.vesselfinder.com/vessels?name=9382798\" target=\"_blank\" rel=\"noopener\">VesselFinder</a> | <a href=\"https://www.marinetraffic.com/en/ais/search/all?keyword=9382798\" target=\"_blank\" rel=\"noopener\">MarineTraffic</a>", "vf_url": "https://www.vesselfinder.com/vessels?name=9382798", "mst_url": "https://www.marinetraffic.com/en/ais/search/all?keyword=9382798", "method": "v3_2pass_track3d_fromru10d", "ru_seen_in_lookback": false, "in_monitor_on_day": true}}]}