{"type": "FeatureCollection", "features": [{"type": "Feature", "geometry": {"type": "LineString", "coordinates": [[28.408183333333334, 59.82796666666666], [28.409133333333333, 59.82847666666667], [28.40853333333333, 59.82875], [28.40873333333333, 59.828383333333335], [28.409550000000003, 59.82873333333334], [28.409768333333332, 59.82833666666667], [28.41028833333333, 59.82885833333333], [28.47712, 59.869281666666666], [16.736666666666668, 55.83611666666666], [16.36795, 55.782583333333335]]}, "properties": {"label": "ASTRAL", "mmsi": "667001270", "imo": "9274800", "name": "ASTRAL", "shiptype": "", "first_seen_utc": "2026-01-06T00:16:35Z", "last_seen_utc": "2026-01-15T15:52:13Z", "destination": "PORT SAID@CGD", "eta": "{'Day': 29, 'Hour': 15, 'Minute': 0, 'Month': 1}", "display": "", "links": "<a href=\"https://www.vesselfinder.com/vessels?name=9274800\" target=\"_blank\" rel=\"noopener\">VesselFinder</a> | <a href=\"https://www.marinetraffic.com/en/ais/search/all?keyword=9274800\" target=\"_blank\" rel=\"noopener\">MarineTraffic</a>", "vf_url": "https://www.vesselfinder.com/vessels?name=9274800", "mst_url": "https://www.marinetraffic.com/en/ais/search/all?keyword=9274800", "method": "v3_2pass_track3d_fromru10d", "ru_seen_in_lookback": true, "in_monitor_on_day": true}}, {"type": "Feature", "geometry": {"type": "Point", "coordinates": [16.36795, 55.782583333333335]}, "properties": {"label": "ASTRAL", "mmsi": "667001270", "imo": "9274800", "name": "ASTRAL", "shiptype": "", "first_seen_utc": "2026-01-06T00:16:35Z", "last_seen_utc": "2026-01-15T15:52:13Z", "destination": "PORT SAID@CGD", "eta": "{'Day': 29, 'Hour': 15, 'Minute': 0, 'Month': 1}", "display": "ASTRAL (667001270)", "links": "<a href=\"https://www.vesselfinder.com/vessels?name=9274800\" target=\"_blank\" rel=\"noopener\">VesselFinder</a> | <a href=\"https://www.marinetraffic.com/en/ais/search/all?keyword=9274800\" target=\"_blank\" rel=\"noopener\">MarineTraffic</a>", "vf_url": "https://www.vesselfinder.com/vessels?name=9274800", "mst_url": "https://www.marinetraffic.com/en/ais/search/all?keyword=9274800", "method": "v3_2pass_track3d_fromru10d", "ru_seen_in_lookback": true, "in_monitor_on_day": true}}, {"type": "Feature", "geometry": {"type": "LineString", "coordinates": [[15.644811666666667, 55.67919833333334], [15.453681666666666, 55.658588333333334], [15.287128333333333, 55.62582], [15.130648333333333, 55.58547], [14.972048333333333, 55.549171666666666], [14.813435, 55.51249666666667], [14.656558333333333, 55.46514166666667], [14.516645, 55.39273166666667], [14.398881666666666, 55.31408], [14.21604, 55.18616333333333], [13.211248333333334, 54.88972666666667], [12.265048333333334, 54.60133166666667], [12.224063333333334, 54.52765333333333], [12.175738333333333, 54.44680666666667], [12.027653333333335, 54.44873166666666], [11.872878333333334, 54.452684999999995], [11.72668, 54.464931666666665], [11.5816, 54.490565]]}, "properties": {"label": "MYSTERY", "mmsi": "667001245", "imo": "9332834", "name": "MYSTERY", "shiptype": "", "first_seen_utc": "2026-01-06T01:01:58Z", "last_seen_utc": "2026-01-15T15:53:20Z", "destination": "FOR ORDER", "eta": "{'Day': 29, 'Hour': 15, 'Minute': 0, 'Month': 1}", "display": "", "links": "<a href=\"https://www.vesselfinder.com/vessels?name=9332834\" target=\"_blank\" rel=\"noopener\">VesselFinder</a> | <a href=\"https://www.marinetraffic.com/en/ais/search/all?keyword=9332834\" target=\"_blank\" rel=\"noopener\">MarineTraffic</a>", "vf_url": "https://www.vesselfinder.com/vessels?name=9332834", "mst_url": "https://www.marinetraffic.com/en/ais/search/all?keyword=9332834", "method": "v3_2pass_track3d_fromru10d", "ru_seen_in_lookback": true, "in_monitor_on_day": true}}, {"type": "Feature", "geometry": {"type": "Point", "coordinates": [11.5816, 54.490565]}, "properties": {"label": "MYSTERY", "mmsi": "667001245", "imo": "9332834", "name": "MYSTERY", "shiptype": "", "first_seen_utc": "2026-01-06T01:01:58Z", "last_seen_utc": "2026-01-15T15:53:20Z", "destination": "FOR ORDER", "eta": "{'Day': 29, 'Hour': 15, 'Minute': 0, 'Month': 1}", "display": "MYSTERY (667001245)", "links": "<a href=\"https://www.vesselfinder.com/vessels?name=9332834\" target=\"_blank\" rel=\"noopener\">VesselFinder</a> | <a href=\"https://www.marinetraffic.com/en/ais/search/all?keyword=9332834\" target=\"_blank\" rel=\"noopener\">MarineTraffic</a>", "vf_url": "https://www.vesselfinder.com/vessels?name=9332834", "mst_url": "https://www.marinetraffic.com/en/ais/search/all?keyword=9332834", "method": "v3_2pass_track3d_fromru10d", "ru_seen_in_lookback": true, "in_monitor_on_day": true}}, {"type": "Feature", "geometry": {"type": "LineString", "coordinates": [[15.306181666666667, 55.64754333333334], [15.138135, 55.61201666666667], [14.947741666666667, 55.55900166666667], [14.753065, 55.50307333333333], [14.534823333333332, 55.42216], [14.41891, 55.33913166666667], [12.229316666666668, 54.53069333333334], [12.164375, 54.44369166666667], [11.998970000000002, 54.44096833333333], [11.829488333333334, 54.44292333333333], [11.661253333333333, 54.46558166666667], [11.503623333333334, 54.510173333333334], [11.344593333333334, 54.55622833333334], [11.17706, 54.60072666666667], [10.999476666666668, 54.60520333333333], [10.841669999999999, 54.65221], [10.779795, 54.731975000000006], [10.835465, 54.82246833333333], [10.867563333333333, 54.916626666666666], [10.974525, 54.987485], [10.98962, 55.07904], [11.03051, 55.170055000000005], [11.087259999999999, 55.24832333333333], [10.860386666666667, 55.53178833333333], [10.79104, 55.63205], [10.805038333333332, 55.73720166666667], [10.813621666666668, 55.860528333333335], [11.010611666666668, 55.95703666666667], [10.16133, 57.85417666666667], [9.951491666666668, 57.85358333333333], [9.772245, 57.85263], [9.597428333333333, 57.853785], [9.438951666666666, 57.83394666666666], [9.317128333333333, 57.786515], [9.173236666666666, 57.75436833333333], [9.02185, 57.712088333333334], [8.86525, 57.670809999999996], [8.713883333333333, 57.63401666666667], [8.566945, 57.595926666666664], [8.423026666666667, 57.558015], [8.27794, 57.51942333333333], [8.130165, 57.479335], [7.986741666666666, 57.440153333333335], [7.881303333333333, 57.37537333333333], [7.7891916666666665, 57.301768333333335], [7.692358333333333, 57.22806666666667], [7.584081666666666, 57.149721666666665]]}, "properties": {"label": "ARCADIA", "mmsi": "461000247", "imo": "9413573", "name": "ARCADIA", "shiptype": "", "first_seen_utc": "2026-01-06T05:03:24Z", "last_seen_utc": "2026-01-15T02:44:54Z", "destination": "SINGAPORE", "eta": "{'Day': 15, 'Hour': 10, 'Minute': 0, 'Month': 2}", "display": "", "links": "<a href=\"https://www.vesselfinder.com/vessels?name=9413573\" target=\"_blank\" rel=\"noopener\">VesselFinder</a> | <a href=\"https://www.marinetraffic.com/en/ais/search/all?keyword=9413573\" target=\"_blank\" rel=\"noopener\">MarineTraffic</a>", "vf_url": "https://www.vesselfinder.com/vessels?name=9413573", "mst_url": "https://www.marinetraffic.com/en/ais/search/all?keyword=9413573", "method": "v3_2pass_track3d_fromru10d", "ru_seen_in_lookback": true, "in_monitor_on_day": true}}, {"type": "Feature", "geometry": {"type": "Point", "coordinates": [7.584081666666666, 57.149721666666665]}, "properties": {"label": "ARCADIA", "mmsi": "461000247", "imo": "9413573", "name": "ARCADIA", "shiptype": "", "first_seen_utc": "2026-01-06T05:03:24Z", "last_seen_utc": "2026-01-15T02:44:54Z", "destination": "SINGAPORE", "eta": "{'Day': 15, 'Hour': 10, 'Minute': 0, 'Month': 2}", "display": "ARCADIA (461000247)", "links": "<a href=\"https://www.vesselfinder.com/vessels?name=9413573\" target=\"_blank\" rel=\"noopener\">VesselFinder</a> | <a href=\"https://www.marinetraffic.com/en/ais/search/all?keyword=9413573\" target=\"_blank\" rel=\"noopener\">MarineTraffic</a>", "vf_url": "https://www.vesselfinder.com/vessels?name=9413573", "mst_url": "https://www.marinetraffic.com/en/ais/search/all?keyword=9413573", "method": "v3_2pass_track3d_fromru10d", "ru_seen_in_lookback": true, "in_monitor_on_day": true}}, {"type": "Feature", "geometry": {"type": "LineString", "coordinates": [[15.615621666666668, 55.67979666666667], [15.431735, 55.65388], [15.263475, 55.627568333333336], [15.057661666666666, 55.573526666666666], [14.88241, 55.52717], [14.702233333333334, 55.474668333333334], [14.52352, 55.39422833333333], [14.416563333333333, 55.31951166666667], [14.303533333333332, 55.237586666666665], [14.202956666666667, 55.16543333333333], [13.729535, 54.99930833333334], [13.574553333333334, 54.97053666666667], [12.266033333333333, 54.591561666666664]]}, "properties": {"label": "GARASAN", "mmsi": "667002004", "imo": "9323986", "name": "GARASAN", "shiptype": "", "first_seen_utc": "2026-01-07T20:25:55Z", "last_seen_utc": "2026-01-15T15:50:53Z", "destination": "FOR ORDER", "eta": "{'Day': 31, 'Hour': 0, 'Minute': 1, 'Month': 1}", "display": "", "links": "<a href=\"https://www.vesselfinder.com/vessels?name=9323986\" target=\"_blank\" rel=\"noopener\">VesselFinder</a> | <a href=\"https://www.marinetraffic.com/en/ais/search/all?keyword=9323986\" target=\"_blank\" rel=\"noopener\">MarineTraffic</a>", "vf_url": "https://www.vesselfinder.com/vessels?name=9323986", "mst_url": "https://www.marinetraffic.com/en/ais/search/all?keyword=9323986", "method": "v3_2pass_track3d_fromru10d", "ru_seen_in_lookback": true, "in_monitor_on_day": true}}, {"type": "Feature", "geometry": {"type": "Point", "coordinates": [12.266033333333333, 54.591561666666664]}, "properties": {"label": "GARASAN", "mmsi": "667002004", "imo": "9323986", "name": "GARASAN", "shiptype": "", "first_seen_utc": "2026-01-07T20:25:55Z", "last_seen_utc": "2026-01-15T15:50:53Z", "destination": "FOR ORDER", "eta": "{'Day': 31, 'Hour': 0, 'Minute': 1, 'Month': 1}", "display": "GARASAN (667002004)", "links": "<a href=\"https://www.vesselfinder.com/vessels?name=9323986\" target=\"_blank\" rel=\"noopener\">VesselFinder</a> | <a href=\"https://www.marinetraffic.com/en/ais/search/all?keyword=9323986\" target=\"_blank\" rel=\"noopener\">MarineTraffic</a>", "vf_url": "https://www.vesselfinder.com/vessels?name=9323986", "mst_url": "https://www.marinetraffic.com/en/ais/search/all?keyword=9323986", "method": "v3_2pass_track3d_fromru10d", "ru_seen_in_lookback": true, "in_monitor_on_day": true}}, {"type": "Feature", "geometry": {"type": "LineString", "coordinates": [[3.843348333333333, 59.501401666666666], [3.848655, 59.46738833333333], [3.8524499999999997, 59.432293333333334], [3.8538349999999997, 59.39685833333333], [3.8587316666666664, 59.311445000000006], [3.86746, 59.271499999999996], [3.879233333333333, 59.22767666666667], [3.8882116666666664, 59.18582], [3.8975999999999997, 59.14134], [3.9104266666666665, 59.10287166666667], [3.92028, 59.060359999999996], [3.9276516666666668, 59.01109666666667], [3.9310133333333335, 58.96312666666667], [3.9374, 58.90638833333333], [3.9451716666666665, 58.848025], [3.95016, 58.798105], [3.9648166666666667, 58.75046833333333], [3.9663483333333334, 58.68674166666666], [3.9676533333333333, 58.62344333333333], [3.970048333333333, 58.51267], [3.9698766666666665, 58.447185], [3.96826, 58.377665], [3.974605, 58.27497833333334], [3.5322833333333334, 53.44454833333334], [3.459368333333333, 53.31901666666667], [3.30806, 53.04861666666667], [2.31416, 51.72547833333333], [2.21244, 51.648625], [2.110915, 51.567275], [2.0133133333333335, 51.482928333333334], [1.92834, 51.39683166666667], [1.8498316666666668, 51.315553333333334], [1.7770783333333333, 51.24193], [1.693085, 51.17928166666666], [1.6130666666666669, 51.126108333333335], [1.5371933333333334, 51.077888333333334], [1.4610349999999999, 51.028884999999995]]}, "properties": {"label": "CAMEL", "mmsi": "461000253", "imo": "9341079", "name": "CAMEL", "shiptype": "", "first_seen_utc": "2026-01-10T23:13:59Z", "last_seen_utc": "2026-01-15T10:01:53Z", "destination": "EGPSD", "eta": "{'Day': 26, 'Hour': 4, 'Minute': 0, 'Month': 1}", "display": "", "links": "<a href=\"https://www.vesselfinder.com/vessels?name=9341079\" target=\"_blank\" rel=\"noopener\">VesselFinder</a> | <a href=\"https://www.marinetraffic.com/en/ais/search/all?keyword=9341079\" target=\"_blank\" rel=\"noopener\">MarineTraffic</a>", "vf_url": "https://www.vesselfinder.com/vessels?name=9341079", "mst_url": "https://www.marinetraffic.com/en/ais/search/all?keyword=9341079", "method": "v3_2pass_track3d_fromru10d", "ru_seen_in_lookback": false, "in_monitor_on_day": true}}, {"type": "Feature", "geometry": {"type": "Point", "coordinates": [1.4610349999999999, 51.028884999999995]}, "properties": {"label": "CAMEL", "mmsi": "461000253", "imo": "9341079", "name": "CAMEL", "shiptype": "", "first_seen_utc": "2026-01-10T23:13:59Z", "last_seen_utc": "2026-01-15T10:01:53Z", "destination": "EGPSD", "eta": "{'Day': 26, 'Hour': 4, 'Minute': 0, 'Month': 1}", "display": "CAMEL (461000253)", "links": "<a href=\"https://www.vesselfinder.com/vessels?name=9341079\" target=\"_blank\" rel=\"noopener\">VesselFinder</a> | <a href=\"https://www.marinetraffic.com/en/ais/search/all?keyword=9341079\" target=\"_blank\" rel=\"noopener\">MarineTraffic</a>", "vf_url": "https://www.vesselfinder.com/vessels?name=9341079", "mst_url": "https://www.marinetraffic.com/en/ais/search/all?keyword=9341079", "method": "v3_2pass_track3d_fromru10d", "ru_seen_in_lookback": false, "in_monitor_on_day": true}}, {"type": "Feature", "geometry": {"type": "LineString", "coordinates": [[9.706873333333334, 57.84477833333334], [9.549290000000001, 57.833931666666665], [9.404205, 57.79757], [9.267566666666665, 57.762365], [9.131995, 57.72046833333333], [8.99105, 57.67749666666667], [8.865469999999998, 57.63151333333334], [8.729531666666666, 57.59066], [8.588901666666667, 57.558503333333334], [8.463365, 57.518481666666666], [8.325318333333334, 57.477288333333334], [8.19802, 57.44164833333333], [8.1587, 57.37776833333333], [8.121521666666666, 57.30943], [8.066905, 57.243055], [3.262445, 52.924765], [3.219358333333333, 52.843055], [2.63782, 51.93320833333333], [2.2715483333333335, 51.68076833333334], [2.1821316666666664, 51.618825], [2.0953816666666665, 51.55621166666666], [2.006248333333333, 51.492290000000004], [1.9129383333333334, 51.42719666666667], [1.8566033333333332, 51.35079333333333], [1.8037166666666666, 51.27903333333334], [1.7414533333333333, 51.217036666666665], [1.65964, 51.17254166666667], [1.5823883333333333, 51.134933333333336], [1.5164116666666667, 51.10063666666667], [1.4503366666666666, 51.06619333333333]]}, "properties": {"label": "CHARIOT TIDE", "mmsi": "650000265", "imo": "9323376", "name": "CHARIOT TIDE", "shiptype": "", "first_seen_utc": "2026-01-11T13:19:31Z", "last_seen_utc": "2026-01-15T09:40:09Z", "destination": "TANGIER- MOROCCO", "eta": "{'Day': 21, 'Hour': 12, 'Minute': 5, 'Month': 1}", "display": "", "links": "<a href=\"https://www.vesselfinder.com/vessels?name=9323376\" target=\"_blank\" rel=\"noopener\">VesselFinder</a> | <a href=\"https://www.marinetraffic.com/en/ais/search/all?keyword=9323376\" target=\"_blank\" rel=\"noopener\">MarineTraffic</a>", "vf_url": "https://www.vesselfinder.com/vessels?name=9323376", "mst_url": "https://www.marinetraffic.com/en/ais/search/all?keyword=9323376", "method": "v3_2pass_track3d_fromru10d", "ru_seen_in_lookback": false, "in_monitor_on_day": true}}, {"type": "Feature", "geometry": {"type": "Point", "coordinates": [1.4503366666666666, 51.06619333333333]}, "properties": {"label": "CHARIOT TIDE", "mmsi": "650000265", "imo": "9323376", "name": "CHARIOT TIDE", "shiptype": "", "first_seen_utc": "2026-01-11T13:19:31Z", "last_seen_utc": "2026-01-15T09:40:09Z", "destination": "TANGIER- MOROCCO", "eta": "{'Day': 21, 'Hour': 12, 'Minute': 5, 'Month': 1}", "display": "CHARIOT TIDE (650000265)", "links": "<a href=\"https://www.vesselfinder.com/vessels?name=9323376\" target=\"_blank\" rel=\"noopener\">VesselFinder</a> | <a href=\"https://www.marinetraffic.com/en/ais/search/all?keyword=9323376\" target=\"_blank\" rel=\"noopener\">MarineTraffic</a>", "vf_url": "https://www.vesselfinder.com/vessels?name=9323376", "mst_url": "https://www.marinetraffic.com/en/ais/search/all?keyword=9323376", "method": "v3_2pass_track3d_fromru10d", "ru_seen_in_lookback": false, "in_monitor_on_day": true}}, {"type": "Feature", "geometry": {"type": "LineString", "coordinates": [[6.948015, 56.97693666666667], [7.136934999999999, 57.03209666666667], [7.332706666666667, 57.092681666666664], [7.523693333333333, 57.150018333333335], [7.714095, 57.21056], [7.908236666666666, 57.27186833333334], [8.112515, 57.32452], [8.316151666666666, 57.38227], [8.522061666666666, 57.439076666666665], [8.722696666666668, 57.49106], [8.92007, 57.550715], [9.116903333333333, 57.608444999999996], [9.377625, 57.687128333333334], [9.553413333333333, 57.749069999999996], [9.365738333333333, 57.74051], [9.4529, 57.74275333333333], [9.658406666666668, 57.77216833333333], [9.869616666666667, 57.7856], [10.126638333333334, 57.79648666666667], [10.357461666666667, 57.80417833333333], [11.107965, 56.058258333333335], [10.978556666666666, 55.942326666666666], [10.858988333333334, 55.85914666666667], [10.80299, 55.76047333333334], [10.764333333333333, 55.64976166666667], [10.835346666666668, 55.55035833333333], [10.984043333333334, 55.41013], [11.037453333333334, 55.30469166666667], [11.09268, 55.20402333333333], [11.038651666666668, 55.11555], [11.025223333333335, 55.02149], [10.935206666666666, 54.949691666666666], [10.876728333333334, 54.878341666666664], [10.857296666666667, 54.769545], [10.927696666666666, 54.67599], [11.091244999999999, 54.612943333333334], [11.261086666666667, 54.559005], [11.437575, 54.50680166666667], [11.625665, 54.459845], [11.810831666666667, 54.41601333333333], [12.001226666666668, 54.41238], [12.170584999999999, 54.427836666666664], [12.24148, 54.51700666666667], [12.29717, 54.597525000000005], [12.738903333333333, 54.746505], [13.021935000000001, 54.80732166666667], [14.178761666666666, 55.04945], [14.303701666666665, 55.146926666666666], [14.422835, 55.237896666666664], [14.540436666666666, 55.325615], [14.672658333333334, 55.40873833333333], [14.85285, 55.461735], [15.109399999999999, 55.53943833333334], [15.289908333333333, 55.58851333333334]]}, "properties": {"label": "CHIOS", "mmsi": "613007420", "imo": "9231509", "name": "CHIOS", "shiptype": "", "first_seen_utc": "2026-01-11T20:05:04Z", "last_seen_utc": "2026-01-15T06:10:49Z", "destination": "TALLING", "eta": "{'Day': 16, 'Hour': 8, 'Minute': 0, 'Month': 1}", "display": "", "links": "<a href=\"https://www.vesselfinder.com/vessels?name=9231509\" target=\"_blank\" rel=\"noopener\">VesselFinder</a> | <a href=\"https://www.marinetraffic.com/en/ais/search/all?keyword=9231509\" target=\"_blank\" rel=\"noopener\">MarineTraffic</a>", "vf_url": "https://www.vesselfinder.com/vessels?name=9231509", "mst_url": "https://www.marinetraffic.com/en/ais/search/all?keyword=9231509", "method": "v3_2pass_track3d_fromru10d", "ru_seen_in_lookback": false, "in_monitor_on_day": true}}, {"type": "Feature", "geometry": {"type": "Point", "coordinates": [15.289908333333333, 55.58851333333334]}, "properties": {"label": "CHIOS", "mmsi": "613007420", "imo": "9231509", "name": "CHIOS", "shiptype": "", "first_seen_utc": "2026-01-11T20:05:04Z", "last_seen_utc": "2026-01-15T06:10:49Z", "destination": "TALLING", "eta": "{'Day': 16, 'Hour': 8, 'Minute': 0, 'Month': 1}", "display": "CHIOS (613007420)", "links": "<a href=\"https://www.vesselfinder.com/vessels?name=9231509\" target=\"_blank\" rel=\"noopener\">VesselFinder</a> | <a href=\"https://www.marinetraffic.com/en/ais/search/all?keyword=9231509\" target=\"_blank\" rel=\"noopener\">MarineTraffic</a>", "vf_url": "https://www.vesselfinder.com/vessels?name=9231509", "mst_url": "https://www.marinetraffic.com/en/ais/search/all?keyword=9231509", "method": "v3_2pass_track3d_fromru10d", "ru_seen_in_lookback": false, "in_monitor_on_day": true}}, {"type": "Feature", "geometry": {"type": "LineString", "coordinates": [[3.7189833333333335, 53.452733333333335], [4.221293333333334, 53.71044], [7.458600000000001, 56.99244], [7.990716666666667, 57.224513333333334], [8.153321666666667, 57.283120000000004], [8.534495, 57.41943333333334], [8.871231666666667, 57.52724666666666], [9.11184, 57.60874666666667], [9.373188333333333, 57.70059333333334], [9.554595, 57.760353333333335], [9.732246666666667, 57.79320666666667], [9.922663333333333, 57.79688], [10.108716666666668, 57.79722666666667], [10.302878333333332, 57.80157333333333], [10.493321666666667, 57.80862], [12.359078333333334, 56.199960000000004], [12.426971666666667, 56.15671333333333], [12.547976666666667, 56.10102], [12.671426666666667, 55.99879333333333], [12.665905, 55.88446333333333], [12.689846666666666, 55.7656], [12.69074, 55.64425333333334], [12.703885000000001, 55.56607333333333], [12.697991666666667, 55.50689333333333], [12.672695000000001, 55.45080666666667], [12.646546666666667, 55.39056], [12.638468333333332, 55.307096666666666], [12.790971666666668, 55.26324], [13.029161666666665, 55.22656333333334], [14.090063333333335, 55.169896666666666], [14.289788333333332, 55.172956666666664], [14.418631666666666, 55.23392], [14.52979, 55.314656666666664], [14.648233333333334, 55.39541], [14.845486666666666, 55.45337666666667], [15.411421666666666, 55.60896666666667], [15.59382, 55.64600333333333]]}, "properties": {"label": "CETUS", "mmsi": "667002291", "imo": "9418482", "name": "CETUS", "shiptype": "", "first_seen_utc": "2026-01-12T00:41:55Z", "last_seen_utc": "2026-01-15T10:36:55Z", "destination": "UST-LUGA", "eta": "{'Day': 17, 'Hour': 14, 'Minute': 0, 'Month': 1}", "display": "", "links": "<a href=\"https://www.vesselfinder.com/vessels?name=9418482\" target=\"_blank\" rel=\"noopener\">VesselFinder</a> | <a href=\"https://www.marinetraffic.com/en/ais/search/all?keyword=9418482\" target=\"_blank\" rel=\"noopener\">MarineTraffic</a>", "vf_url": "https://www.vesselfinder.com/vessels?name=9418482", "mst_url": "https://www.marinetraffic.com/en/ais/search/all?keyword=9418482", "method": "v3_2pass_track3d_fromru10d", "ru_seen_in_lookback": false, "in_monitor_on_day": true}}, {"type": "Feature", "geometry": {"type": "Point", "coordinates": [15.59382, 55.64600333333333]}, "properties": {"label": "CETUS", "mmsi": "667002291", "imo": "9418482", "name": "CETUS", "shiptype": "", "first_seen_utc": "2026-01-12T00:41:55Z", "last_seen_utc": "2026-01-15T10:36:55Z", "destination": "UST-LUGA", "eta": "{'Day': 17, 'Hour': 14, 'Minute': 0, 'Month': 1}", "display": "CETUS (667002291)", "links": "<a href=\"https://www.vesselfinder.com/vessels?name=9418482\" target=\"_blank\" rel=\"noopener\">VesselFinder</a> | <a href=\"https://www.marinetraffic.com/en/ais/search/all?keyword=9418482\" target=\"_blank\" rel=\"noopener\">MarineTraffic</a>", "vf_url": "https://www.vesselfinder.com/vessels?name=9418482", "mst_url": "https://www.marinetraffic.com/en/ais/search/all?keyword=9418482", "method": "v3_2pass_track3d_fromru10d", "ru_seen_in_lookback": false, "in_monitor_on_day": true}}, {"type": "Feature", "geometry": {"type": "LineString", "coordinates": [[3.55722, 53.21121333333333], [3.6625966666666665, 53.35663], [3.7380833333333334, 53.45610666666666], [3.94525, 53.58197500000001], [4.396626666666666, 53.79506666666667], [7.352543333333333, 56.982825000000005], [7.505598333333333, 57.062689999999996], [7.672081666666667, 57.13073833333333], [7.842785, 57.19546666666667], [8.018643333333333, 57.256965], [8.196023333333333, 57.31906333333333], [8.373728333333334, 57.379765], [8.78386, 57.50818], [8.972641666666668, 57.565913333333334], [9.152764999999999, 57.6278], [9.330365, 57.689409999999995], [9.50671, 57.747103333333335], [9.68774, 57.787018333333336], [9.884504999999999, 57.801159999999996], [10.07736, 57.80414833333334], [10.281849999999999, 57.80439666666667], [10.490333333333332, 57.80896], [11.176285, 56.124853333333334], [11.086406666666667, 56.03503666666666], [10.980693333333333, 55.94382333333333], [10.860016666666667, 55.86242], [10.803543333333332, 55.773246666666665], [10.77139, 55.665085], [10.985283333333333, 55.408339999999995], [11.033796666666666, 55.308955], [11.097118333333333, 55.21071666666667], [11.038045, 55.11603], [11.018353333333332, 55.00733], [10.90262, 54.92323333333333], [10.857218333333332, 54.818176666666666], [10.844035, 54.70966833333333], [10.954981666666667, 54.651665], [11.107993333333333, 54.605916666666666], [11.234281666666668, 54.56768666666667], [11.360035, 54.528668333333336], [11.508748333333333, 54.488328333333335], [11.661925, 54.44766166666667], [11.821225, 54.41166333333333], [11.982948333333333, 54.39445], [12.153375, 54.409146666666665], [12.258076666666666, 54.48415166666667], [13.154101666666666, 54.835275], [13.610471666666665, 54.924323333333334], [13.80768, 54.96209833333333], [14.012406666666667, 54.999735], [14.182198333333334, 55.059781666666666], [14.303680000000002, 55.14841833333333], [14.411726666666668, 55.228098333333335], [14.535576666666666, 55.301215], [14.65252, 55.38105666666667]]}, "properties": {"label": "ODUNE", "mmsi": "667002337", "imo": "9229374", "name": "ODUNE", "shiptype": "", "first_seen_utc": "2026-01-12T04:51:51Z", "last_seen_utc": "2026-01-15T15:45:11Z", "destination": "GULF OF FINLAND", "eta": "{'Day': 17, 'Hour': 17, 'Minute': 0, 'Month': 1}", "display": "", "links": "<a href=\"https://www.vesselfinder.com/vessels?name=9229374\" target=\"_blank\" rel=\"noopener\">VesselFinder</a> | <a href=\"https://www.marinetraffic.com/en/ais/search/all?keyword=9229374\" target=\"_blank\" rel=\"noopener\">MarineTraffic</a>", "vf_url": "https://www.vesselfinder.com/vessels?name=9229374", "mst_url": "https://www.marinetraffic.com/en/ais/search/all?keyword=9229374", "method": "v3_2pass_track3d_fromru10d", "ru_seen_in_lookback": false, "in_monitor_on_day": true}}, {"type": "Feature", "geometry": {"type": "Point", "coordinates": [14.65252, 55.38105666666667]}, "properties": {"label": "ODUNE", "mmsi": "667002337", "imo": "9229374", "name": "ODUNE", "shiptype": "", "first_seen_utc": "2026-01-12T04:51:51Z", "last_seen_utc": "2026-01-15T15:45:11Z", "destination": "GULF OF FINLAND", "eta": "{'Day': 17, 'Hour': 17, 'Minute': 0, 'Month': 1}", "display": "ODUNE (667002337)", "links": "<a href=\"https://www.vesselfinder.com/vessels?name=9229374\" target=\"_blank\" rel=\"noopener\">VesselFinder</a> | <a href=\"https://www.marinetraffic.com/en/ais/search/all?keyword=9229374\" target=\"_blank\" rel=\"noopener\">MarineTraffic</a>", "vf_url": "https://www.vesselfinder.com/vessels?name=9229374", "mst_url": "https://www.marinetraffic.com/en/ais/search/all?keyword=9229374", "method": "v3_2pass_track3d_fromru10d", "ru_seen_in_lookback": false, "in_monitor_on_day": true}}, {"type": "Feature", "geometry": {"type": "LineString", "coordinates": [[3.2647233333333334, 52.79225833333333], [3.3423683333333334, 52.904495], [3.403286666666667, 53.007595], [3.473675, 53.12462333333334], [3.5480033333333334, 53.22159333333333], [3.6202716666666666, 53.315508333333334], [3.70458, 53.41787166666666], [3.7911833333333336, 53.50880666666667], [3.933806666666667, 53.574315], [4.125615, 53.663025], [4.7408866666666665, 54.243446666666664], [7.2449699999999995, 56.91115166666667], [7.419855, 56.99627833333333], [7.57655, 57.08414666666667], [7.729493333333334, 57.17457], [7.869995, 57.25844], [8.006783333333333, 57.35113666666667], [8.115531666666666, 57.453493333333334], [8.28271, 57.51759833333333], [8.486728333333334, 57.56049333333333], [8.694813333333334, 57.60241], [8.90828, 57.64442333333333], [9.125128333333333, 57.68936166666666], [9.341938333333333, 57.73447], [9.542431666666666, 57.773875], [9.74464, 57.79600833333333], [9.956648333333334, 57.796645], [10.16958, 57.79754666666667], [10.388238333333334, 57.79981166666666], [12.365081666666667, 56.19880666666666], [12.455793333333334, 56.14353666666667], [12.589878333333333, 56.083020000000005], [12.677095000000001, 55.985115], [12.661354999999999, 55.884636666666665], [12.701028333333333, 55.78216833333333], [12.683695, 55.676723333333335], [12.699155, 55.59665333333333], [12.700565000000001, 55.53750166666667], [12.680476666666667, 55.458690000000004], [12.641181666666666, 55.35980666666667], [12.702068333333333, 55.28258666666667], [12.87275, 55.246406666666665], [14.146438333333332, 55.14777166666667], [14.333286666666668, 55.191050000000004], [14.452486666666665, 55.27160833333333], [14.570435, 55.355205], [14.704403333333333, 55.42453166666667], [14.874773333333334, 55.46903], [15.040373333333333, 55.514720000000004], [15.228784999999998, 55.55701333333333], [15.396431666666667, 55.590244999999996]]}, "properties": {"label": "GEFEST", "mmsi": "273272850", "imo": "9319882", "name": "GEFEST", "shiptype": "", "first_seen_utc": "2026-01-12T07:11:50Z", "last_seen_utc": "2026-01-15T08:35:20Z", "destination": "RU ULU", "eta": "{'Day': 17, 'Hour': 10, 'Minute': 0, 'Month': 1}", "display": "", "links": "<a href=\"https://www.vesselfinder.com/vessels?name=9319882\" target=\"_blank\" rel=\"noopener\">VesselFinder</a> | <a href=\"https://www.marinetraffic.com/en/ais/search/all?keyword=9319882\" target=\"_blank\" rel=\"noopener\">MarineTraffic</a>", "vf_url": "https://www.vesselfinder.com/vessels?name=9319882", "mst_url": "https://www.marinetraffic.com/en/ais/search/all?keyword=9319882", "method": "v3_2pass_track3d_fromru10d", "ru_seen_in_lookback": false, "in_monitor_on_day": true}}, {"type": "Feature", "geometry": {"type": "Point", "coordinates": [15.396431666666667, 55.590244999999996]}, "properties": {"label": "GEFEST", "mmsi": "273272850", "imo": "9319882", "name": "GEFEST", "shiptype": "", "first_seen_utc": "2026-01-12T07:11:50Z", "last_seen_utc": "2026-01-15T08:35:20Z", "destination": "RU ULU", "eta": "{'Day': 17, 'Hour': 10, 'Minute': 0, 'Month': 1}", "display": "GEFEST (273272850)", "links": "<a href=\"https://www.vesselfinder.com/vessels?name=9319882\" target=\"_blank\" rel=\"noopener\">VesselFinder</a> | <a href=\"https://www.marinetraffic.com/en/ais/search/all?keyword=9319882\" target=\"_blank\" rel=\"noopener\">MarineTraffic</a>", "vf_url": "https://www.vesselfinder.com/vessels?name=9319882", "mst_url": "https://www.marinetraffic.com/en/ais/search/all?keyword=9319882", "method": "v3_2pass_track3d_fromru10d", "ru_seen_in_lookback": false, "in_monitor_on_day": true}}, {"type": "Feature", "geometry": {"type": "LineString", "coordinates": [[7.496575000000001, 57.16603], [7.546255, 57.260151666666665], [7.654991666666667, 57.332973333333335], [7.8194316666666674, 57.37437166666667], [7.979513333333333, 57.41427], [8.16032, 57.453023333333334], [8.324376666666668, 57.49407166666666], [8.485835, 57.533825], [8.683303333333333, 57.576215000000005], [9.66152, 57.80467833333333], [12.327948333333334, 56.19994333333333], [12.462819999999999, 56.13977], [12.611055, 56.07048833333333], [12.690926666666666, 55.96969], [12.745201666666667, 55.86342833333333], [12.842720000000002, 55.75205666666667], [12.928253333333334, 55.67953], [12.89827, 55.62273666666667], [12.832995, 55.579901666666665], [12.777743333333332, 55.54260333333333], [12.723561666666665, 55.50789666666667], [12.666851666666668, 55.43394333333333], [12.632025, 55.30775833333333], [14.622221666666666, 55.388935], [14.9242, 55.47456833333333]]}, "properties": {"label": "BERRA", "mmsi": "667001451", "imo": "9308821", "name": "BERRA", "shiptype": "", "first_seen_utc": "2026-01-12T08:21:51Z", "last_seen_utc": "2026-01-15T08:58:17Z", "destination": "GULF OF FINLAND", "eta": "{'Day': 16, 'Hour': 12, 'Minute': 0, 'Month': 1}", "display": "", "links": "<a href=\"https://www.vesselfinder.com/vessels?name=9308821\" target=\"_blank\" rel=\"noopener\">VesselFinder</a> | <a href=\"https://www.marinetraffic.com/en/ais/search/all?keyword=9308821\" target=\"_blank\" rel=\"noopener\">MarineTraffic</a>", "vf_url": "https://www.vesselfinder.com/vessels?name=9308821", "mst_url": "https://www.marinetraffic.com/en/ais/search/all?keyword=9308821", "method": "v3_2pass_track3d_fromru10d", "ru_seen_in_lookback": false, "in_monitor_on_day": true}}, {"type": "Feature", "geometry": {"type": "Point", "coordinates": [14.9242, 55.47456833333333]}, "properties": {"label": "BERRA", "mmsi": "667001451", "imo": "9308821", "name": "BERRA", "shiptype": "", "first_seen_utc": "2026-01-12T08:21:51Z", "last_seen_utc": "2026-01-15T08:58:17Z", "destination": "GULF OF FINLAND", "eta": "{'Day': 16, 'Hour': 12, 'Minute': 0, 'Month': 1}", "display": "BERRA (667001451)", "links": "<a href=\"https://www.vesselfinder.com/vessels?name=9308821\" target=\"_blank\" rel=\"noopener\">VesselFinder</a> | <a href=\"https://www.marinetraffic.com/en/ais/search/all?keyword=9308821\" target=\"_blank\" rel=\"noopener\">MarineTraffic</a>", "vf_url": "https://www.vesselfinder.com/vessels?name=9308821", "mst_url": "https://www.marinetraffic.com/en/ais/search/all?keyword=9308821", "method": "v3_2pass_track3d_fromru10d", "ru_seen_in_lookback": false, "in_monitor_on_day": true}}, {"type": "Feature", "geometry": {"type": "LineString", "coordinates": [[2.6750166666666666, 51.953250000000004], [2.7605500000000003, 52.230133333333335], [2.9129333333333336, 52.40581666666667], [3.009666666666667, 52.521166666666666], [3.0816166666666667, 52.60628333333333], [3.1518, 52.68873333333333], [3.28235, 52.84621666666667], [7.50545, 56.9687], [7.583433333333333, 57.067699999999995], [7.658783333333333, 57.161116666666665], [7.7646500000000005, 57.2484], [7.937216666666667, 57.303733333333334], [8.125533333333333, 57.35426666666667], [8.31105, 57.4062], [8.500433333333334, 57.44865], [8.69945, 57.49486666666667], [8.889333333333333, 57.54065], [9.085366666666665, 57.5874], [9.267733333333332, 57.634966666666664], [9.451733333333333, 57.6785], [9.632183333333334, 57.72078333333333], [9.809366666666667, 57.76278333333333], [10.066766666666666, 57.777566666666665], [10.28085, 57.787166666666664], [10.485616666666665, 57.79951666666667], [11.086566666666666, 56.07528333333333], [10.994516666666668, 55.955466666666666], [10.864916666666666, 55.867783333333335], [10.8034, 55.76723333333334], [10.771383333333334, 55.65345], [10.979816666666666, 55.40775], [11.03605, 55.30726666666667], [11.09105, 55.20003333333333], [11.033516666666666, 55.1027], [11.0113, 54.99426666666667], [10.905016666666667, 54.925983333333335], [10.859333333333332, 54.83521666666666], [10.853633333333333, 54.73096666666667], [10.972633333333333, 54.65675], [11.130366666666667, 54.59711666666667], [11.297133333333333, 54.54736666666667], [11.46555, 54.493383333333334], [11.640933333333333, 54.44306666666667], [11.823983333333333, 54.41146666666667], [12.023816666666667, 54.41095], [12.196200000000001, 54.44635], [12.27865, 54.56668333333334]]}, "properties": {"label": "WHITE CONDOR I", "mmsi": "307026000", "imo": "9255244", "name": "WHITE CONDOR I", "shiptype": "", "first_seen_utc": "2026-01-12T09:26:55Z", "last_seen_utc": "2026-01-15T12:40:41Z", "destination": "EETLL", "eta": "{'Day': 17, 'Hour': 6, 'Minute': 0, 'Month': 1}", "display": "", "links": "<a href=\"https://www.vesselfinder.com/vessels?name=9255244\" target=\"_blank\" rel=\"noopener\">VesselFinder</a> | <a href=\"https://www.marinetraffic.com/en/ais/search/all?keyword=9255244\" target=\"_blank\" rel=\"noopener\">MarineTraffic</a>", "vf_url": "https://www.vesselfinder.com/vessels?name=9255244", "mst_url": "https://www.marinetraffic.com/en/ais/search/all?keyword=9255244", "method": "v3_2pass_track3d_fromru10d", "ru_seen_in_lookback": false, "in_monitor_on_day": true}}, {"type": "Feature", "geometry": {"type": "Point", "coordinates": [12.27865, 54.56668333333334]}, "properties": {"label": "WHITE CONDOR I", "mmsi": "307026000", "imo": "9255244", "name": "WHITE CONDOR I", "shiptype": "", "first_seen_utc": "2026-01-12T09:26:55Z", "last_seen_utc": "2026-01-15T12:40:41Z", "destination": "EETLL", "eta": "{'Day': 17, 'Hour': 6, 'Minute': 0, 'Month': 1}", "display": "WHITE CONDOR I (307026000)", "links": "<a href=\"https://www.vesselfinder.com/vessels?name=9255244\" target=\"_blank\" rel=\"noopener\">VesselFinder</a> | <a href=\"https://www.marinetraffic.com/en/ais/search/all?keyword=9255244\" target=\"_blank\" rel=\"noopener\">MarineTraffic</a>", "vf_url": "https://www.vesselfinder.com/vessels?name=9255244", "mst_url": "https://www.marinetraffic.com/en/ais/search/all?keyword=9255244", "method": "v3_2pass_track3d_fromru10d", "ru_seen_in_lookback": false, "in_monitor_on_day": true}}, {"type": "Feature", "geometry": {"type": "LineString", "coordinates": [[1.8423183333333335, 51.15042833333334], [1.9521799999999998, 51.19178333333333], [2.0648133333333334, 51.22692833333333], [2.1228716666666667, 51.29308], [2.133411666666667, 51.36983], [2.173598333333333, 51.44350833333333], [2.267233333333333, 51.512903333333334], [2.423958333333333, 51.631319999999995], [2.5337383333333334, 51.714076666666664], [2.62475, 51.87615166666667], [3.027835, 52.55760833333333], [7.995903333333334, 57.135236666666664], [8.089220000000001, 57.233365000000006], [8.176631666666667, 57.309713333333335], [8.340085, 57.35079666666666], [8.482708333333333, 57.39858666666667], [8.611261666666667, 57.45032833333333], [8.750181666666666, 57.49682], [8.884968333333335, 57.54548666666667], [9.054825, 57.610765], [9.256203333333334, 57.680701666666664], [9.403220000000001, 57.73052], [9.549168333333334, 57.779331666666664], [9.729144999999999, 57.804343333333335], [9.897783333333333, 57.805978333333336], [10.05476, 57.80953], [10.21489, 57.81010666666667], [10.373568333333333, 57.810465]]}, "properties": {"label": "ARIADNE", "mmsi": "273268690", "imo": "9397547", "name": "ARIADNE", "shiptype": "", "first_seen_utc": "2026-01-12T11:50:42Z", "last_seen_utc": "2026-01-15T04:09:42Z", "destination": "EGPSD>RUULU", "eta": "{'Day': 18, 'Hour': 15, 'Minute': 0, 'Month': 1}", "display": "", "links": "<a href=\"https://www.vesselfinder.com/vessels?name=9397547\" target=\"_blank\" rel=\"noopener\">VesselFinder</a> | <a href=\"https://www.marinetraffic.com/en/ais/search/all?keyword=9397547\" target=\"_blank\" rel=\"noopener\">MarineTraffic</a>", "vf_url": "https://www.vesselfinder.com/vessels?name=9397547", "mst_url": "https://www.marinetraffic.com/en/ais/search/all?keyword=9397547", "method": "v3_2pass_track3d_fromru10d", "ru_seen_in_lookback": false, "in_monitor_on_day": true}}, {"type": "Feature", "geometry": {"type": "Point", "coordinates": [10.373568333333333, 57.810465]}, "properties": {"label": "ARIADNE", "mmsi": "273268690", "imo": "9397547", "name": "ARIADNE", "shiptype": "", "first_seen_utc": "2026-01-12T11:50:42Z", "last_seen_utc": "2026-01-15T04:09:42Z", "destination": "EGPSD>RUULU", "eta": "{'Day': 18, 'Hour': 15, 'Minute': 0, 'Month': 1}", "display": "ARIADNE (273268690)", "links": "<a href=\"https://www.vesselfinder.com/vessels?name=9397547\" target=\"_blank\" rel=\"noopener\">VesselFinder</a> | <a href=\"https://www.marinetraffic.com/en/ais/search/all?keyword=9397547\" target=\"_blank\" rel=\"noopener\">MarineTraffic</a>", "vf_url": "https://www.vesselfinder.com/vessels?name=9397547", "mst_url": "https://www.marinetraffic.com/en/ais/search/all?keyword=9397547", "method": "v3_2pass_track3d_fromru10d", "ru_seen_in_lookback": false, "in_monitor_on_day": true}}, {"type": "Feature", "geometry": {"type": "LineString", "coordinates": [[2.6031199999999997, 51.88416666666667], [3.0118366666666665, 52.54380166666667], [3.0988949999999997, 52.64434333333334], [3.191656666666667, 52.743993333333336], [3.461768333333333, 53.099360000000004], [3.6503183333333333, 53.35942333333333], [7.252846666666667, 56.916311666666665], [7.378715, 57.02035], [7.505773333333334, 57.12418], [7.638636666666667, 57.229955000000004], [7.776831666666666, 57.33374666666667], [7.9294150000000005, 57.43235333333334], [8.122013333333333, 57.50501666666666], [8.313148333333334, 57.577396666666665], [8.509168333333333, 57.63573833333333], [8.726585, 57.66776333333333], [8.967003333333334, 57.69802666666667], [9.198155000000002, 57.73152], [9.385683333333333, 57.75520166666667], [9.556815, 57.77106666666667], [9.781145, 57.80001166666667], [10.023121666666666, 57.808681666666665], [10.320061666666668, 57.81303166666667], [12.393538333333334, 56.19819833333334], [12.506666666666666, 56.12300333333334], [12.651718333333333, 56.03962], [12.640383333333334, 55.935233333333336], [12.695413333333333, 55.823971666666665], [12.681908333333332, 55.71558], [12.69878, 55.60416166666666], [12.6848, 55.49800666666667], [12.641463333333332, 55.38281333333334], [12.692965, 55.290256666666664], [13.02346, 55.232330000000005], [14.27308, 55.16013833333333], [14.440949999999999, 55.22949166666667], [14.574248333333333, 55.323096666666665], [14.805531666666667, 55.424063333333336], [14.997631666666667, 55.475325], [15.282919999999999, 55.55614833333333]]}, "properties": {"label": "LISTIGA", "mmsi": "667002323", "imo": "9292838", "name": "LISTIGA", "shiptype": "", "first_seen_utc": "2026-01-12T13:34:28Z", "last_seen_utc": "2026-01-15T06:02:17Z", "destination": "GOF", "eta": "{'Day': 17, 'Hour': 8, 'Minute': 0, 'Month': 1}", "display": "", "links": "<a href=\"https://www.vesselfinder.com/vessels?name=9292838\" target=\"_blank\" rel=\"noopener\">VesselFinder</a> | <a href=\"https://www.marinetraffic.com/en/ais/search/all?keyword=9292838\" target=\"_blank\" rel=\"noopener\">MarineTraffic</a>", "vf_url": "https://www.vesselfinder.com/vessels?name=9292838", "mst_url": "https://www.marinetraffic.com/en/ais/search/all?keyword=9292838", "method": "v3_2pass_track3d_fromru10d", "ru_seen_in_lookback": false, "in_monitor_on_day": true}}, {"type": "Feature", "geometry": {"type": "Point", "coordinates": [15.282919999999999, 55.55614833333333]}, "properties": {"label": "LISTIGA", "mmsi": "667002323", "imo": "9292838", "name": "LISTIGA", "shiptype": "", "first_seen_utc": "2026-01-12T13:34:28Z", "last_seen_utc": "2026-01-15T06:02:17Z", "destination": "GOF", "eta": "{'Day': 17, 'Hour': 8, 'Minute': 0, 'Month': 1}", "display": "LISTIGA (667002323)", "links": "<a href=\"https://www.vesselfinder.com/vessels?name=9292838\" target=\"_blank\" rel=\"noopener\">VesselFinder</a> | <a href=\"https://www.marinetraffic.com/en/ais/search/all?keyword=9292838\" target=\"_blank\" rel=\"noopener\">MarineTraffic</a>", "vf_url": "https://www.vesselfinder.com/vessels?name=9292838", "mst_url": "https://www.marinetraffic.com/en/ais/search/all?keyword=9292838", "method": "v3_2pass_track3d_fromru10d", "ru_seen_in_lookback": false, "in_monitor_on_day": true}}, {"type": "Feature", "geometry": {"type": "LineString", "coordinates": [[7.547056666666666, 57.09574333333333], [7.753561666666667, 57.165595], [8.142086666666666, 57.29936166666666], [8.363183333333334, 57.372393333333335], [8.563493333333334, 57.43904666666666], [8.812366666666666, 57.519016666666666], [9.00606, 57.58998666666666], [9.42109, 57.72322833333333], [9.723565, 57.79080166666667], [10.945868333333333, 55.91867833333333], [10.816358333333334, 55.832649999999994], [10.792701666666666, 55.72073], [10.800446666666666, 55.603185], [11.031155, 55.350535], [11.065693333333334, 55.271103333333336], [11.065391666666667, 55.18406166666667], [11.032421666666666, 55.07364666666667], [10.97796, 54.968055], [10.872643333333334, 54.866838333333334], [10.866486666666667, 54.74333166666667], [10.969338333333333, 54.657578333333326], [11.131728333333333, 54.59736833333333], [11.298858333333333, 54.54864166666667], [11.475240000000001, 54.495506666666664], [11.648883333333334, 54.445098333333334], [11.830973333333333, 54.405595], [12.029756666666666, 54.40543666666667], [12.210816666666666, 54.43286833333333], [12.294545, 54.55658833333334], [14.222475, 55.08198333333333], [14.341203333333334, 55.17174333333333], [14.461701666666666, 55.261245], [14.583643333333333, 55.35212833333333], [14.730803333333334, 55.42361833333334], [14.906920000000001, 55.46904333333334], [15.091671666666667, 55.51175333333333], [15.27478, 55.559131666666666]]}, "properties": {"label": "MAYLO", "mmsi": "667001249", "imo": "9331153", "name": "MAYLO", "shiptype": "", "first_seen_utc": "2026-01-12T14:13:54Z", "last_seen_utc": "2026-01-15T13:33:46Z", "destination": "GULF OF FINLAND", "eta": "{'Day': 17, 'Hour': 19, 'Minute': 0, 'Month': 1}", "display": "", "links": "<a href=\"https://www.vesselfinder.com/vessels?name=9331153\" target=\"_blank\" rel=\"noopener\">VesselFinder</a> | <a href=\"https://www.marinetraffic.com/en/ais/search/all?keyword=9331153\" target=\"_blank\" rel=\"noopener\">MarineTraffic</a>", "vf_url": "https://www.vesselfinder.com/vessels?name=9331153", "mst_url": "https://www.marinetraffic.com/en/ais/search/all?keyword=9331153", "method": "v3_2pass_track3d_fromru10d", "ru_seen_in_lookback": false, "in_monitor_on_day": true}}, {"type": "Feature", "geometry": {"type": "Point", "coordinates": [15.27478, 55.559131666666666]}, "properties": {"label": "MAYLO", "mmsi": "667001249", "imo": "9331153", "name": "MAYLO", "shiptype": "", "first_seen_utc": "2026-01-12T14:13:54Z", "last_seen_utc": "2026-01-15T13:33:46Z", "destination": "GULF OF FINLAND", "eta": "{'Day': 17, 'Hour': 19, 'Minute': 0, 'Month': 1}", "display": "MAYLO (667001249)", "links": "<a href=\"https://www.vesselfinder.com/vessels?name=9331153\" target=\"_blank\" rel=\"noopener\">VesselFinder</a> | <a href=\"https://www.marinetraffic.com/en/ais/search/all?keyword=9331153\" target=\"_blank\" rel=\"noopener\">MarineTraffic</a>", "vf_url": "https://www.vesselfinder.com/vessels?name=9331153", "mst_url": "https://www.marinetraffic.com/en/ais/search/all?keyword=9331153", "method": "v3_2pass_track3d_fromru10d", "ru_seen_in_lookback": false, "in_monitor_on_day": true}}, {"type": "Feature", "geometry": {"type": "LineString", "coordinates": [[-0.7473116666666667, 50.190711666666665], [-0.4348383333333333, 50.248981666666666], [-0.25905833333333333, 50.283543333333334], [1.3413416666666669, 50.68972333333333], [1.3914816666666667, 50.77215], [1.4355366666666667, 50.856275], [1.5930283333333333, 50.98978833333333], [1.6943483333333333, 51.05459], [1.7882033333333331, 51.11653], [1.8937466666666665, 51.166945000000005], [2.008391666666667, 51.209965000000004], [2.100601666666667, 51.261026666666666], [2.1321766666666666, 51.34003833333334], [2.4636283333333333, 51.66075333333333], [2.57401, 51.74926333333334], [2.635125, 51.85907666666667], [7.289808333333334, 56.832901666666665], [7.469938333333333, 57.014853333333335], [7.965310000000001, 57.273665]]}, "properties": {"label": "ONEGA", "mmsi": "273273930", "imo": "9384459", "name": "ONEGA", "shiptype": "", "first_seen_utc": "2026-01-13T00:13:03Z", "last_seen_utc": "2026-01-15T10:11:54Z", "destination": "RUKGD", "eta": "{'Day': 18, 'Hour': 20, 'Minute': 0, 'Month': 1}", "display": "", "links": "<a href=\"https://www.vesselfinder.com/vessels?name=9384459\" target=\"_blank\" rel=\"noopener\">VesselFinder</a> | <a href=\"https://www.marinetraffic.com/en/ais/search/all?keyword=9384459\" target=\"_blank\" rel=\"noopener\">MarineTraffic</a>", "vf_url": "https://www.vesselfinder.com/vessels?name=9384459", "mst_url": "https://www.marinetraffic.com/en/ais/search/all?keyword=9384459", "method": "v3_2pass_track3d_fromru10d", "ru_seen_in_lookback": false, "in_monitor_on_day": true}}, {"type": "Feature", "geometry": {"type": "Point", "coordinates": [7.965310000000001, 57.273665]}, "properties": {"label": "ONEGA", "mmsi": "273273930", "imo": "9384459", "name": "ONEGA", "shiptype": "", "first_seen_utc": "2026-01-13T00:13:03Z", "last_seen_utc": "2026-01-15T10:11:54Z", "destination": "RUKGD", "eta": "{'Day': 18, 'Hour': 20, 'Minute': 0, 'Month': 1}", "display": "ONEGA (273273930)", "links": "<a href=\"https://www.vesselfinder.com/vessels?name=9384459\" target=\"_blank\" rel=\"noopener\">VesselFinder</a> | <a href=\"https://www.marinetraffic.com/en/ais/search/all?keyword=9384459\" target=\"_blank\" rel=\"noopener\">MarineTraffic</a>", "vf_url": "https://www.vesselfinder.com/vessels?name=9384459", "mst_url": "https://www.marinetraffic.com/en/ais/search/all?keyword=9384459", "method": "v3_2pass_track3d_fromru10d", "ru_seen_in_lookback": false, "in_monitor_on_day": true}}, {"type": "Feature", "geometry": {"type": "LineString", "coordinates": [[2.13429, 61.709555], [2.34602, 61.65182166666667], [2.5562850000000004, 61.59590166666667], [2.7652133333333335, 61.54210666666667], [2.974223333333333, 61.48703166666667], [3.1810933333333336, 61.430955000000004], [3.384895, 61.374831666666665], [3.5659183333333333, 61.308141666666664], [3.73158, 61.237674999999996], [3.8939533333333336, 61.16174], [3.988653333333333, 61.07115666666667], [4.006233333333333, 60.969305], [4.02175, 60.86679], [4.031226666666667, 60.764858333333336], [4.044171666666666, 60.663415], [4.03658, 60.56395666666666], [4.033605, 60.46232333333333], [4.035988333333333, 60.36007333333334], [4.033040000000001, 60.25919666666667], [4.018551666666666, 60.15754666666667], [4.000776666666667, 60.052236666666666], [4.0009483333333336, 59.94338833333334], [4.01118, 59.833165], [4.016451666666667, 59.72576166666667], [4.026091666666667, 59.61832833333334], [4.03041, 59.512388333333334], [4.035115, 59.40618833333333], [4.035263333333334, 59.30164833333333], [4.026165, 59.197433333333336], [4.009331666666666, 59.093055], [4.015148333333333, 58.98559], [4.106001666666667, 58.888065], [4.27106, 58.818920000000006], [4.434061666666667, 58.7519], [4.580821666666667, 58.68695666666667], [4.732346666666667, 58.615741666666665], [4.876838333333334, 58.53959666666666], [5.014031666666667, 58.45783666666667], [5.155468333333333, 58.378638333333335], [5.297821666666667, 58.31279], [5.432435, 58.246048333333334], [5.5687549999999995, 58.18606333333333], [5.705086666666667, 58.125075], [5.864698333333333, 58.060950000000005], [6.017921666666667, 57.99211833333333], [6.160405, 57.92299833333333], [6.302603333333334, 57.85546166666666], [6.441275, 57.77970333333334], [6.600621666666667, 57.71695666666667], [6.808396666666667, 57.71673333333333], [7.01526, 57.70547166666667], [7.212575, 57.68503166666667], [7.416941666666667, 57.67447166666667], [7.62466, 57.668165], [7.830088333333333, 57.664865], [8.035775, 57.679885], [8.2448, 57.697865], [8.457576666666666, 57.707925], [8.66636, 57.72115333333333], [8.895338333333333, 57.73659], [9.12994, 57.75627833333333], [9.373571666666667, 57.778535000000005], [9.604403333333332, 57.777759999999994], [9.83132, 57.7793]]}, "properties": {"label": "MANDALA", "mmsi": "636022672", "imo": "9299135", "name": "MANDALA", "shiptype": "", "first_seen_utc": "2026-01-14T07:49:00Z", "last_seen_utc": "2026-01-15T16:00:10Z", "destination": "FOR_ORDER", "eta": "{'Day': 18, 'Hour': 13, 'Minute': 0, 'Month': 1}", "display": "", "links": "<a href=\"https://www.vesselfinder.com/vessels?name=9299135\" target=\"_blank\" rel=\"noopener\">VesselFinder</a> | <a href=\"https://www.marinetraffic.com/en/ais/search/all?keyword=9299135\" target=\"_blank\" rel=\"noopener\">MarineTraffic</a>", "vf_url": "https://www.vesselfinder.com/vessels?name=9299135", "mst_url": "https://www.marinetraffic.com/en/ais/search/all?keyword=9299135", "method": "v3_2pass_track3d_fromru10d", "ru_seen_in_lookback": false, "in_monitor_on_day": true}}, {"type": "Feature", "geometry": {"type": "Point", "coordinates": [9.83132, 57.7793]}, "properties": {"label": "MANDALA", "mmsi": "636022672", "imo": "9299135", "name": "MANDALA", "shiptype": "", "first_seen_utc": "2026-01-14T07:49:00Z", "last_seen_utc": "2026-01-15T16:00:10Z", "destination": "FOR_ORDER", "eta": "{'Day': 18, 'Hour': 13, 'Minute': 0, 'Month': 1}", "display": "MANDALA (636022672)", "links": "<a href=\"https://www.vesselfinder.com/vessels?name=9299135\" target=\"_blank\" rel=\"noopener\">VesselFinder</a> | <a href=\"https://www.marinetraffic.com/en/ais/search/all?keyword=9299135\" target=\"_blank\" rel=\"noopener\">MarineTraffic</a>", "vf_url": "https://www.vesselfinder.com/vessels?name=9299135", "mst_url": "https://www.marinetraffic.com/en/ais/search/all?keyword=9299135", "method": "v3_2pass_track3d_fromru10d", "ru_seen_in_lookback": false, "in_monitor_on_day": true}}, {"type": "Feature", "geometry": {"type": "LineString", "coordinates": [[1.3843216666666665, 50.72997], [1.617965, 51.04956], [1.723515, 51.14444833333334], [1.8454666666666666, 51.229405], [1.9629383333333335, 51.31310666666666], [2.0769716666666667, 51.398268333333334]]}, "properties": {"label": "RANGE VALE", "mmsi": "679881005", "imo": "9299898", "name": "RANGE VALE", "shiptype": "", "first_seen_utc": "2026-01-14T23:32:20Z", "last_seen_utc": "2026-01-15T03:08:09Z", "destination": "FOR ORDERS", "eta": "{'Day': 19, 'Hour': 15, 'Minute': 0, 'Month': 1}", "display": "", "links": "<a href=\"https://www.vesselfinder.com/vessels?name=9299898\" target=\"_blank\" rel=\"noopener\">VesselFinder</a> | <a href=\"https://www.marinetraffic.com/en/ais/search/all?keyword=9299898\" target=\"_blank\" rel=\"noopener\">MarineTraffic</a>", "vf_url": "https://www.vesselfinder.com/vessels?name=9299898", "mst_url": "https://www.marinetraffic.com/en/ais/search/all?keyword=9299898", "method": "v3_2pass_track3d_fromru10d", "ru_seen_in_lookback": false, "in_monitor_on_day": true}}, {"type": "Feature", "geometry": {"type": "Point", "coordinates": [2.0769716666666667, 51.398268333333334]}, "properties": {"label": "RANGE VALE", "mmsi": "679881005", "imo": "9299898", "name": "RANGE VALE", "shiptype": "", "first_seen_utc": "2026-01-14T23:32:20Z", "last_seen_utc": "2026-01-15T03:08:09Z", "destination": "FOR ORDERS", "eta": "{'Day': 19, 'Hour': 15, 'Minute': 0, 'Month': 1}", "display": "RANGE VALE (679881005)", "links": "<a href=\"https://www.vesselfinder.com/vessels?name=9299898\" target=\"_blank\" rel=\"noopener\">VesselFinder</a> | <a href=\"https://www.marinetraffic.com/en/ais/search/all?keyword=9299898\" target=\"_blank\" rel=\"noopener\">MarineTraffic</a>", "vf_url": "https://www.vesselfinder.com/vessels?name=9299898", "mst_url": "https://www.marinetraffic.com/en/ais/search/all?keyword=9299898", "method": "v3_2pass_track3d_fromru10d", "ru_seen_in_lookback": false, "in_monitor_on_day": true}}, {"type": "Feature", "geometry": {"type": "LineString", "coordinates": [[4.010823333333334, 61.99987833333333], [4.0108033333333335, 61.92146], [4.005898333333334, 61.84528833333333], [4.013695, 61.773925], [4.010801666666667, 61.705603333333336], [4.015533333333333, 61.637365], [4.00391, 61.570575], [4.004968333333333, 61.50472666666667], [4.005513333333334, 61.440720000000006], [4.0061, 61.379281666666664], [4.015965, 61.32111], [4.021255, 61.26527], [4.01031, 61.21132], [3.9988249999999996, 61.159728333333334], [4.004111666666667, 61.10187333333333], [4.015235, 61.045343333333335], [4.023373333333334, 60.989911666666664], [4.020546666666666, 60.93113833333334], [4.016821666666667, 60.87320833333333], [4.01568, 60.82046666666667], [4.0163899999999995, 60.77046833333333]]}, "properties": {"label": "PRIMAVERA", "mmsi": "461000256", "imo": "9511533", "name": "PRIMAVERA", "shiptype": "", "first_seen_utc": "2026-01-15T05:28:07Z", "last_seen_utc": "2026-01-15T15:49:58Z", "destination": "FOR ORDERS", "eta": "{'Day': 28, 'Hour': 13, 'Minute': 0, 'Month': 1}", "display": "", "links": "<a href=\"https://www.vesselfinder.com/vessels?name=9511533\" target=\"_blank\" rel=\"noopener\">VesselFinder</a> | <a href=\"https://www.marinetraffic.com/en/ais/search/all?keyword=9511533\" target=\"_blank\" rel=\"noopener\">MarineTraffic</a>", "vf_url": "https://www.vesselfinder.com/vessels?name=9511533", "mst_url": "https://www.marinetraffic.com/en/ais/search/all?keyword=9511533", "method": "v3_2pass_track3d_fromru10d", "ru_seen_in_lookback": false, "in_monitor_on_day": true}}, {"type": "Feature", "geometry": {"type": "Point", "coordinates": [4.0163899999999995, 60.77046833333333]}, "properties": {"label": "PRIMAVERA", "mmsi": "461000256", "imo": "9511533", "name": "PRIMAVERA", "shiptype": "", "first_seen_utc": "2026-01-15T05:28:07Z", "last_seen_utc": "2026-01-15T15:49:58Z", "destination": "FOR ORDERS", "eta": "{'Day': 28, 'Hour': 13, 'Minute': 0, 'Month': 1}", "display": "PRIMAVERA (461000256)", "links": "<a href=\"https://www.vesselfinder.com/vessels?name=9511533\" target=\"_blank\" rel=\"noopener\">VesselFinder</a> | <a href=\"https://www.marinetraffic.com/en/ais/search/all?keyword=9511533\" target=\"_blank\" rel=\"noopener\">MarineTraffic</a>", "vf_url": "https://www.vesselfinder.com/vessels?name=9511533", "mst_url": "https://www.marinetraffic.com/en/ais/search/all?keyword=9511533", "method": "v3_2pass_track3d_fromru10d", "ru_seen_in_lookback": false, "in_monitor_on_day": true}}]}