{"type": "FeatureCollection", "features": [{"type": "Feature", "geometry": {"type": "LineString", "coordinates": [[14.793518333333333, 55.494836666666664], [14.627436666666666, 55.439418333333336], [14.487656666666668, 55.37657333333333], [14.372508333333334, 55.294628333333335], [14.148563333333334, 55.13907], [14.001505, 55.05748833333334], [13.168994999999999, 54.88243666666666], [12.854180000000001, 54.815023333333336], [12.600311666666666, 54.730583333333335], [12.418335, 54.65857666666667], [12.251746666666666, 54.57046833333333], [12.21016, 54.480111666666666], [12.077748333333334, 54.434958333333334], [11.895635, 54.43129666666667], [11.717448333333333, 54.44728166666666], [11.548855, 54.49282], [11.378919999999999, 54.5434], [11.204791666666667, 54.59675], [11.014423333333333, 54.602516666666666], [10.858509999999999, 54.650526666666664], [10.780695, 54.721790000000006], [10.832678333333332, 54.80867833333333], [10.845863333333334, 54.882173333333334], [10.903043333333333, 54.94852166666667], [10.996428333333334, 55.038221666666665], [10.994371666666666, 55.143080000000005], [11.098706666666667, 55.229108333333336], [10.828669999999999, 55.58109666666667], [10.794981666666667, 55.68931166666667]]}, "properties": {"label": "UNIVERSAL", "mmsi": "273271630", "imo": "9384306", "name": "UNIVERSAL", "shiptype": "", "first_seen_utc": "2026-01-12T00:25:58Z", "last_seen_utc": "2026-01-21T03:47:23Z", "destination": "MEDITERRANEAN FO", "eta": "{'Day': 3, 'Hour': 14, 'Minute': 0, 'Month': 2}", "display": "", "links": "<a href=\"https://www.vesselfinder.com/vessels?name=9384306\" target=\"_blank\" rel=\"noopener\">VesselFinder</a> | <a href=\"https://www.marinetraffic.com/en/ais/search/all?keyword=9384306\" target=\"_blank\" rel=\"noopener\">MarineTraffic</a>", "vf_url": "https://www.vesselfinder.com/vessels?name=9384306", "mst_url": "https://www.marinetraffic.com/en/ais/search/all?keyword=9384306", "method": "v3_2pass_track3d_fromru10d", "ru_seen_in_lookback": true, "in_monitor_on_day": true}}, {"type": "Feature", "geometry": {"type": "Point", "coordinates": [10.794981666666667, 55.68931166666667]}, "properties": {"label": "UNIVERSAL", "mmsi": "273271630", "imo": "9384306", "name": "UNIVERSAL", "shiptype": "", "first_seen_utc": "2026-01-12T00:25:58Z", "last_seen_utc": "2026-01-21T03:47:23Z", "destination": "MEDITERRANEAN FO", "eta": "{'Day': 3, 'Hour': 14, 'Minute': 0, 'Month': 2}", "display": "UNIVERSAL (273271630)", "links": "<a href=\"https://www.vesselfinder.com/vessels?name=9384306\" target=\"_blank\" rel=\"noopener\">VesselFinder</a> | <a href=\"https://www.marinetraffic.com/en/ais/search/all?keyword=9384306\" target=\"_blank\" rel=\"noopener\">MarineTraffic</a>", "vf_url": "https://www.vesselfinder.com/vessels?name=9384306", "mst_url": "https://www.marinetraffic.com/en/ais/search/all?keyword=9384306", "method": "v3_2pass_track3d_fromru10d", "ru_seen_in_lookback": true, "in_monitor_on_day": true}}, {"type": "Feature", "geometry": {"type": "LineString", "coordinates": [[5.133633333333333, 58.52328333333333], [4.98845, 58.598216666666666], [4.84755, 58.672066666666666], [4.705966666666667, 58.7453], [4.557333333333333, 58.82626666666667], [4.423166666666666, 58.91225], [4.28395, 58.98891666666667], [4.207783333333333, 59.078833333333336], [4.211483333333333, 59.189483333333335], [4.208166666666667, 59.29643333333333], [4.2179, 59.40318333333333], [4.2093, 59.5108], [4.210816666666667, 59.6196], [4.2035, 59.72211666666667], [4.181365, 59.83734166666667], [4.173983333333333, 59.95065], [4.178616666666667, 60.05128333333334], [4.175366666666666, 60.1513], [4.176933333333333, 60.26188333333334], [4.189, 60.36683333333334], [4.1891, 60.4664], [4.21615, 60.570233333333334], [4.224166666666666, 60.66916666666667], [4.2153, 60.76128333333334], [4.216833333333333, 60.85426666666667], [4.217033333333333, 60.95865], [4.218866666666667, 61.07405000000001], [4.2267166666666665, 61.1883], [4.2274666666666665, 61.29483333333334], [4.224333333333333, 61.40003333333333], [4.224766666666667, 61.50786666666667], [4.225783333333333, 61.613566666666664], [4.222216666666666, 61.71658333333333], [4.236433333333333, 61.81431666666666], [4.2301166666666665, 61.91148333333333]]}, "properties": {"label": "ARARAT", "mmsi": "273434350", "imo": "9171187", "name": "ARARAT", "shiptype": "", "first_seen_utc": "2026-01-13T12:48:45Z", "last_seen_utc": "2026-01-21T01:12:46Z", "destination": "RUSAB", "eta": "{'Day': 30, 'Hour': 12, 'Minute': 0, 'Month': 1}", "display": "", "links": "<a href=\"https://www.vesselfinder.com/vessels?name=9171187\" target=\"_blank\" rel=\"noopener\">VesselFinder</a> | <a href=\"https://www.marinetraffic.com/en/ais/search/all?keyword=9171187\" target=\"_blank\" rel=\"noopener\">MarineTraffic</a>", "vf_url": "https://www.vesselfinder.com/vessels?name=9171187", "mst_url": "https://www.marinetraffic.com/en/ais/search/all?keyword=9171187", "method": "v3_2pass_track3d_fromru10d", "ru_seen_in_lookback": true, "in_monitor_on_day": true}}, {"type": "Feature", "geometry": {"type": "Point", "coordinates": [4.2301166666666665, 61.91148333333333]}, "properties": {"label": "ARARAT", "mmsi": "273434350", "imo": "9171187", "name": "ARARAT", "shiptype": "", "first_seen_utc": "2026-01-13T12:48:45Z", "last_seen_utc": "2026-01-21T01:12:46Z", "destination": "RUSAB", "eta": "{'Day': 30, 'Hour': 12, 'Minute': 0, 'Month': 1}", "display": "ARARAT (273434350)", "links": "<a href=\"https://www.vesselfinder.com/vessels?name=9171187\" target=\"_blank\" rel=\"noopener\">VesselFinder</a> | <a href=\"https://www.marinetraffic.com/en/ais/search/all?keyword=9171187\" target=\"_blank\" rel=\"noopener\">MarineTraffic</a>", "vf_url": "https://www.vesselfinder.com/vessels?name=9171187", "mst_url": "https://www.marinetraffic.com/en/ais/search/all?keyword=9171187", "method": "v3_2pass_track3d_fromru10d", "ru_seen_in_lookback": true, "in_monitor_on_day": true}}, {"type": "Feature", "geometry": {"type": "LineString", "coordinates": [[10.48313, 57.85348666666666], [10.303321666666667, 57.85125], [10.001248333333333, 57.849511666666665], [9.780275, 57.84731333333333], [9.314003333333334, 57.732283333333335], [9.152843333333333, 57.679775], [9.002933333333335, 57.62383], [8.853583333333335, 57.56114], [8.696921666666666, 57.507079999999995], [7.854213333333333, 57.07076666666667]]}, "properties": {"label": "TRIUMF", "mmsi": "273277840", "imo": "9389095", "name": "TRIUMF", "shiptype": "", "first_seen_utc": "2026-01-14T07:36:12Z", "last_seen_utc": "2026-01-21T03:50:30Z", "destination": "SINGAPORE", "eta": "{'Day': 19, 'Hour': 12, 'Minute': 0, 'Month': 2}", "display": "", "links": "<a href=\"https://www.vesselfinder.com/vessels?name=9389095\" target=\"_blank\" rel=\"noopener\">VesselFinder</a> | <a href=\"https://www.marinetraffic.com/en/ais/search/all?keyword=9389095\" target=\"_blank\" rel=\"noopener\">MarineTraffic</a>", "vf_url": "https://www.vesselfinder.com/vessels?name=9389095", "mst_url": "https://www.marinetraffic.com/en/ais/search/all?keyword=9389095", "method": "v3_2pass_track3d_fromru10d", "ru_seen_in_lookback": true, "in_monitor_on_day": true}}, {"type": "Feature", "geometry": {"type": "Point", "coordinates": [7.854213333333333, 57.07076666666667]}, "properties": {"label": "TRIUMF", "mmsi": "273277840", "imo": "9389095", "name": "TRIUMF", "shiptype": "", "first_seen_utc": "2026-01-14T07:36:12Z", "last_seen_utc": "2026-01-21T03:50:30Z", "destination": "SINGAPORE", "eta": "{'Day': 19, 'Hour': 12, 'Minute': 0, 'Month': 2}", "display": "TRIUMF (273277840)", "links": "<a href=\"https://www.vesselfinder.com/vessels?name=9389095\" target=\"_blank\" rel=\"noopener\">VesselFinder</a> | <a href=\"https://www.marinetraffic.com/en/ais/search/all?keyword=9389095\" target=\"_blank\" rel=\"noopener\">MarineTraffic</a>", "vf_url": "https://www.vesselfinder.com/vessels?name=9389095", "mst_url": "https://www.marinetraffic.com/en/ais/search/all?keyword=9389095", "method": "v3_2pass_track3d_fromru10d", "ru_seen_in_lookback": true, "in_monitor_on_day": true}}, {"type": "Feature", "geometry": {"type": "LineString", "coordinates": [[12.718435, 55.28283], [12.84194, 55.25839833333334], [13.00175, 55.240748333333336], [14.131705, 55.17290833333333], [14.311551666666666, 55.19798166666667], [14.400126666666667, 55.24348], [14.48617, 55.30079], [14.570336666666666, 55.352875000000004], [14.659015, 55.40459333333333], [14.772156666666666, 55.44136833333334], [14.89111, 55.47965333333333], [15.014616666666665, 55.51782333333333], [15.250229999999998, 55.58878166666667], [15.982750000000001, 55.81457], [16.094541666666668, 55.84792], [16.358240000000002, 55.929761666666664], [16.598386666666666, 56.0014], [16.794925, 56.08157833333333]]}, "properties": {"label": "ADLER", "mmsi": "273414440", "imo": "9179854", "name": "ADLER", "shiptype": "", "first_seen_utc": "2026-01-16T01:00:05Z", "last_seen_utc": "2026-01-21T02:11:49Z", "destination": "TO ORDER", "eta": "{'Day': 24, 'Hour': 0, 'Minute': 0, 'Month': 1}", "display": "", "links": "<a href=\"https://www.vesselfinder.com/vessels?name=9179854\" target=\"_blank\" rel=\"noopener\">VesselFinder</a> | <a href=\"https://www.marinetraffic.com/en/ais/search/all?keyword=9179854\" target=\"_blank\" rel=\"noopener\">MarineTraffic</a>", "vf_url": "https://www.vesselfinder.com/vessels?name=9179854", "mst_url": "https://www.marinetraffic.com/en/ais/search/all?keyword=9179854", "method": "v3_2pass_track3d_fromru10d", "ru_seen_in_lookback": false, "in_monitor_on_day": true}}, {"type": "Feature", "geometry": {"type": "Point", "coordinates": [16.794925, 56.08157833333333]}, "properties": {"label": "ADLER", "mmsi": "273414440", "imo": "9179854", "name": "ADLER", "shiptype": "", "first_seen_utc": "2026-01-16T01:00:05Z", "last_seen_utc": "2026-01-21T02:11:49Z", "destination": "TO ORDER", "eta": "{'Day': 24, 'Hour': 0, 'Minute': 0, 'Month': 1}", "display": "ADLER (273414440)", "links": "<a href=\"https://www.vesselfinder.com/vessels?name=9179854\" target=\"_blank\" rel=\"noopener\">VesselFinder</a> | <a href=\"https://www.marinetraffic.com/en/ais/search/all?keyword=9179854\" target=\"_blank\" rel=\"noopener\">MarineTraffic</a>", "vf_url": "https://www.vesselfinder.com/vessels?name=9179854", "mst_url": "https://www.marinetraffic.com/en/ais/search/all?keyword=9179854", "method": "v3_2pass_track3d_fromru10d", "ru_seen_in_lookback": false, "in_monitor_on_day": true}}, {"type": "Feature", "geometry": {"type": "LineString", "coordinates": [[4.269713333333333, 53.107216666666666], [4.183766666666667, 53.058841666666666], [4.099141666666666, 53.009350000000005], [3.9803933333333332, 52.948125], [3.673175, 52.74946833333333], [3.4858933333333337, 52.60078166666666], [3.051645, 52.24679666666667], [2.880125, 52.11226166666667], [2.7182633333333333, 51.97851333333333], [2.6420316666666666, 51.92001166666667], [2.512691666666667, 51.831019999999995], [2.431573333333333, 51.77494166666667], [2.2103333333333333, 51.62336666666667], [2.1358233333333336, 51.570773333333335], [2.064345, 51.52289833333334], [2.0018266666666666, 51.480673333333336], [1.950335, 51.442654999999995], [1.89875, 51.40750833333333], [1.8638233333333334, 51.37141], [1.8375683333333332, 51.33696666666666], [1.8120100000000001, 51.303975], [1.7880866666666668, 51.272214999999996], [1.7631466666666666, 51.239695], [1.7206000000000001, 51.210773333333336]]}, "properties": {"label": "LADY MARIIA", "mmsi": "273292160", "imo": "9220641", "name": "LADY MARIIA", "shiptype": "", "first_seen_utc": "2026-01-17T00:39:52Z", "last_seen_utc": "2026-01-21T03:51:27Z", "destination": "TO ORDER", "eta": "{'Day': 0, 'Hour': 24, 'Minute': 60, 'Month': 0}", "display": "", "links": "<a href=\"https://www.vesselfinder.com/vessels?name=9220641\" target=\"_blank\" rel=\"noopener\">VesselFinder</a> | <a href=\"https://www.marinetraffic.com/en/ais/search/all?keyword=9220641\" target=\"_blank\" rel=\"noopener\">MarineTraffic</a>", "vf_url": "https://www.vesselfinder.com/vessels?name=9220641", "mst_url": "https://www.marinetraffic.com/en/ais/search/all?keyword=9220641", "method": "v3_2pass_track3d_fromru10d", "ru_seen_in_lookback": false, "in_monitor_on_day": true}}, {"type": "Feature", "geometry": {"type": "Point", "coordinates": [1.7206000000000001, 51.210773333333336]}, "properties": {"label": "LADY MARIIA", "mmsi": "273292160", "imo": "9220641", "name": "LADY MARIIA", "shiptype": "", "first_seen_utc": "2026-01-17T00:39:52Z", "last_seen_utc": "2026-01-21T03:51:27Z", "destination": "TO ORDER", "eta": "{'Day': 0, 'Hour': 24, 'Minute': 60, 'Month': 0}", "display": "LADY MARIIA (273292160)", "links": "<a href=\"https://www.vesselfinder.com/vessels?name=9220641\" target=\"_blank\" rel=\"noopener\">VesselFinder</a> | <a href=\"https://www.marinetraffic.com/en/ais/search/all?keyword=9220641\" target=\"_blank\" rel=\"noopener\">MarineTraffic</a>", "vf_url": "https://www.vesselfinder.com/vessels?name=9220641", "mst_url": "https://www.marinetraffic.com/en/ais/search/all?keyword=9220641", "method": "v3_2pass_track3d_fromru10d", "ru_seen_in_lookback": false, "in_monitor_on_day": true}}, {"type": "Feature", "geometry": {"type": "LineString", "coordinates": [[12.357850000000001, 56.198591666666665], [12.448166666666667, 56.14960166666666], [12.532918333333333, 56.10804333333333], [12.617308333333334, 56.06811166666667], [12.666920000000001, 56.00836666666667], [12.715765000000001, 55.938431666666666], [12.739191666666667, 55.86703833333333], [12.787939999999999, 55.79735], [12.854218333333334, 55.73573333333333], [12.92189, 55.67117833333334], [12.869133333333334, 55.60406], [12.784510000000001, 55.54819], [12.707808333333332, 55.48438], [12.654431666666666, 55.410891666666664], [12.630228333333333, 55.33109833333333], [12.820223333333333, 55.256145], [13.131373333333332, 55.22873166666667]]}, "properties": {"label": "ATLANTIDA", "mmsi": "273242100", "imo": "8607000", "name": "ATLANTIDA", "shiptype": "", "first_seen_utc": "2026-01-17T03:25:26Z", "last_seen_utc": "2026-01-21T02:27:50Z", "destination": "KALININGRAD", "eta": "{'Day': 21, 'Hour': 9, 'Minute': 0, 'Month': 1}", "display": "", "links": "<a href=\"https://www.vesselfinder.com/vessels?name=8607000\" target=\"_blank\" rel=\"noopener\">VesselFinder</a> | <a href=\"https://www.marinetraffic.com/en/ais/search/all?keyword=8607000\" target=\"_blank\" rel=\"noopener\">MarineTraffic</a>", "vf_url": "https://www.vesselfinder.com/vessels?name=8607000", "mst_url": "https://www.marinetraffic.com/en/ais/search/all?keyword=8607000", "method": "v3_2pass_track3d_fromru10d", "ru_seen_in_lookback": false, "in_monitor_on_day": true}}, {"type": "Feature", "geometry": {"type": "Point", "coordinates": [13.131373333333332, 55.22873166666667]}, "properties": {"label": "ATLANTIDA", "mmsi": "273242100", "imo": "8607000", "name": "ATLANTIDA", "shiptype": "", "first_seen_utc": "2026-01-17T03:25:26Z", "last_seen_utc": "2026-01-21T02:27:50Z", "destination": "KALININGRAD", "eta": "{'Day': 21, 'Hour': 9, 'Minute': 0, 'Month': 1}", "display": "ATLANTIDA (273242100)", "links": "<a href=\"https://www.vesselfinder.com/vessels?name=8607000\" target=\"_blank\" rel=\"noopener\">VesselFinder</a> | <a href=\"https://www.marinetraffic.com/en/ais/search/all?keyword=8607000\" target=\"_blank\" rel=\"noopener\">MarineTraffic</a>", "vf_url": "https://www.vesselfinder.com/vessels?name=8607000", "mst_url": "https://www.marinetraffic.com/en/ais/search/all?keyword=8607000", "method": "v3_2pass_track3d_fromru10d", "ru_seen_in_lookback": false, "in_monitor_on_day": true}}, {"type": "Feature", "geometry": {"type": "LineString", "coordinates": [[4.0161, 61.99977833333333], [4.019758333333333, 61.91443833333334], [4.0264983333333335, 61.826813333333334], [4.033446666666666, 61.743939999999995], [4.040526666666667, 61.66687833333334], [4.036121666666667, 61.59011666666667], [4.023206666666667, 61.513841666666664], [4.014318333333334, 61.431000000000004], [4.0120949999999995, 61.34829333333333], [4.0118116666666666, 61.269418333333334], [3.99599, 61.19025666666666], [4.0033183333333335, 61.10633666666667], [4.005726666666667, 61.020265], [4.009885, 60.93535333333333], [4.0099800000000005, 60.850425], [4.006545, 60.767941666666665], [3.9965266666666666, 60.68562], [4.003498333333334, 60.603411666666666], [4.002456666666666, 60.53008], [3.9904450000000002, 60.456421666666664], [3.993508333333333, 60.385486666666665], [3.9991866666666667, 60.31377666666666], [3.9958400000000003, 60.23514], [3.9978866666666666, 60.158548333333336], [4.003926666666667, 60.08767833333333], [4.016778333333333, 60.027318333333334], [4.010913333333333, 59.966125000000005], [4.005170000000001, 59.897933333333334], [4.019171666666667, 59.82550333333334]]}, "properties": {"label": "TIKSY", "mmsi": "273396870", "imo": "8821802", "name": "TIKSY", "shiptype": "", "first_seen_utc": "2026-01-20T13:10:55Z", "last_seen_utc": "2026-01-21T03:45:33Z", "destination": "RULED", "eta": "{'Day': 25, 'Hour': 21, 'Minute': 0, 'Month': 12}", "display": "", "links": "<a href=\"https://www.vesselfinder.com/vessels?name=8821802\" target=\"_blank\" rel=\"noopener\">VesselFinder</a> | <a href=\"https://www.marinetraffic.com/en/ais/search/all?keyword=8821802\" target=\"_blank\" rel=\"noopener\">MarineTraffic</a>", "vf_url": "https://www.vesselfinder.com/vessels?name=8821802", "mst_url": "https://www.marinetraffic.com/en/ais/search/all?keyword=8821802", "method": "v3_2pass_track3d_fromru10d", "ru_seen_in_lookback": false, "in_monitor_on_day": true}}, {"type": "Feature", "geometry": {"type": "Point", "coordinates": [4.019171666666667, 59.82550333333334]}, "properties": {"label": "TIKSY", "mmsi": "273396870", "imo": "8821802", "name": "TIKSY", "shiptype": "", "first_seen_utc": "2026-01-20T13:10:55Z", "last_seen_utc": "2026-01-21T03:45:33Z", "destination": "RULED", "eta": "{'Day': 25, 'Hour': 21, 'Minute': 0, 'Month': 12}", "display": "TIKSY (273396870)", "links": "<a href=\"https://www.vesselfinder.com/vessels?name=8821802\" target=\"_blank\" rel=\"noopener\">VesselFinder</a> | <a href=\"https://www.marinetraffic.com/en/ais/search/all?keyword=8821802\" target=\"_blank\" rel=\"noopener\">MarineTraffic</a>", "vf_url": "https://www.vesselfinder.com/vessels?name=8821802", "mst_url": "https://www.marinetraffic.com/en/ais/search/all?keyword=8821802", "method": "v3_2pass_track3d_fromru10d", "ru_seen_in_lookback": false, "in_monitor_on_day": true}}, {"type": "Feature", "geometry": {"type": "LineString", "coordinates": [[7.614286666666667, 56.819430000000004], [7.697891666666666, 56.874628333333334], [7.859655, 56.974489999999996], [8.063485, 57.113635]]}, "properties": {"label": "273148810", "mmsi": "273148810", "imo": "", "name": "", "shiptype": "", "first_seen_utc": "2026-01-21T00:14:22Z", "last_seen_utc": "2026-01-21T03:11:42Z", "destination": "", "eta": "", "display": "", "links": "<a href=\"https://www.vesselfinder.com/vessels?name=273148810\" target=\"_blank\" rel=\"noopener\">VesselFinder</a> | <a href=\"https://www.marinetraffic.com/en/ais/search/all?keyword=273148810\" target=\"_blank\" rel=\"noopener\">MarineTraffic</a>", "vf_url": "https://www.vesselfinder.com/vessels?name=273148810", "mst_url": "https://www.marinetraffic.com/en/ais/search/all?keyword=273148810", "method": "v3_2pass_track3d_fromru10d", "ru_seen_in_lookback": false, "in_monitor_on_day": true}}, {"type": "Feature", "geometry": {"type": "Point", "coordinates": [8.063485, 57.113635]}, "properties": {"label": "273148810", "mmsi": "273148810", "imo": "", "name": "", "shiptype": "", "first_seen_utc": "2026-01-21T00:14:22Z", "last_seen_utc": "2026-01-21T03:11:42Z", "destination": "", "eta": "", "display": "273148810 (273148810)", "links": "<a href=\"https://www.vesselfinder.com/vessels?name=273148810\" target=\"_blank\" rel=\"noopener\">VesselFinder</a> | <a href=\"https://www.marinetraffic.com/en/ais/search/all?keyword=273148810\" target=\"_blank\" rel=\"noopener\">MarineTraffic</a>", "vf_url": "https://www.vesselfinder.com/vessels?name=273148810", "mst_url": "https://www.marinetraffic.com/en/ais/search/all?keyword=273148810", "method": "v3_2pass_track3d_fromru10d", "ru_seen_in_lookback": false, "in_monitor_on_day": true}}, {"type": "Feature", "geometry": {"type": "LineString", "coordinates": [[19.175823333333334, 54.902474999999995], [19.648491666666665, 55.033210000000004], [19.816618333333334, 54.871625], [19.984143333333336, 54.828475000000005], [18.997988333333335, 54.932858333333336]]}, "properties": {"label": "ZAMOSKVORECHYE", "mmsi": "273259100", "imo": "8721129", "name": "ZAMOSKVORECHYE", "shiptype": "", "first_seen_utc": "2026-01-21T01:39:39Z", "last_seen_utc": "2026-01-21T03:43:30Z", "destination": "NEAFC", "eta": "{'Day': 26, 'Hour': 8, 'Minute': 0, 'Month': 1}", "display": "", "links": "<a href=\"https://www.vesselfinder.com/vessels?name=8721129\" target=\"_blank\" rel=\"noopener\">VesselFinder</a> | <a href=\"https://www.marinetraffic.com/en/ais/search/all?keyword=8721129\" target=\"_blank\" rel=\"noopener\">MarineTraffic</a>", "vf_url": "https://www.vesselfinder.com/vessels?name=8721129", "mst_url": "https://www.marinetraffic.com/en/ais/search/all?keyword=8721129", "method": "v3_2pass_track3d_fromru10d", "ru_seen_in_lookback": true, "in_monitor_on_day": true}}, {"type": "Feature", "geometry": {"type": "Point", "coordinates": [18.997988333333335, 54.932858333333336]}, "properties": {"label": "ZAMOSKVORECHYE", "mmsi": "273259100", "imo": "8721129", "name": "ZAMOSKVORECHYE", "shiptype": "", "first_seen_utc": "2026-01-21T01:39:39Z", "last_seen_utc": "2026-01-21T03:43:30Z", "destination": "NEAFC", "eta": "{'Day': 26, 'Hour': 8, 'Minute': 0, 'Month': 1}", "display": "ZAMOSKVORECHYE (273259100)", "links": "<a href=\"https://www.vesselfinder.com/vessels?name=8721129\" target=\"_blank\" rel=\"noopener\">VesselFinder</a> | <a href=\"https://www.marinetraffic.com/en/ais/search/all?keyword=8721129\" target=\"_blank\" rel=\"noopener\">MarineTraffic</a>", "vf_url": "https://www.vesselfinder.com/vessels?name=8721129", "mst_url": "https://www.marinetraffic.com/en/ais/search/all?keyword=8721129", "method": "v3_2pass_track3d_fromru10d", "ru_seen_in_lookback": true, "in_monitor_on_day": true}}, {"type": "Feature", "geometry": {"type": "Point", "coordinates": [-0.67835, 50.211083333333335]}, "properties": {"label": "273293160", "mmsi": "273293160", "imo": "", "name": "", "shiptype": "", "first_seen_utc": "2026-01-21T03:12:33Z", "last_seen_utc": "2026-01-21T03:12:33Z", "destination": "", "eta": "", "display": "273293160 (273293160)", "links": "<a href=\"https://www.vesselfinder.com/vessels?name=273293160\" target=\"_blank\" rel=\"noopener\">VesselFinder</a> | <a href=\"https://www.marinetraffic.com/en/ais/search/all?keyword=273293160\" target=\"_blank\" rel=\"noopener\">MarineTraffic</a>", "vf_url": "https://www.vesselfinder.com/vessels?name=273293160", "mst_url": "https://www.marinetraffic.com/en/ais/search/all?keyword=273293160", "method": "v3_2pass_track3d_fromru10d", "ru_seen_in_lookback": false, "in_monitor_on_day": true}}]}