{"type": "FeatureCollection", "features": [{"type": "Feature", "geometry": {"type": "LineString", "coordinates": [[16.040013333333334, 55.905276666666666], [15.785256666666667, 55.84469], [15.625328333333332, 55.79092333333333], [15.427463333333332, 55.7202], [15.29638, 55.673276666666666]]}, "properties": {"label": "LADY MARIIA", "mmsi": "273292160", "imo": "9220641", "name": "LADY MARIIA", "shiptype": "", "first_seen_utc": "2026-01-08T00:06:30Z", "last_seen_utc": "2026-01-17T03:26:51Z", "destination": "TO ORDER", "eta": "{'Day': 0, 'Hour': 24, 'Minute': 60, 'Month': 0}", "display": "", "links": "<a href=\"https://www.vesselfinder.com/vessels?name=9220641\" target=\"_blank\" rel=\"noopener\">VesselFinder</a> | <a href=\"https://www.marinetraffic.com/en/ais/search/all?keyword=9220641\" target=\"_blank\" rel=\"noopener\">MarineTraffic</a>", "vf_url": "https://www.vesselfinder.com/vessels?name=9220641", "mst_url": "https://www.marinetraffic.com/en/ais/search/all?keyword=9220641", "method": "v3_2pass_track3d_fromru10d", "ru_seen_in_lookback": false, "in_monitor_on_day": true}}, {"type": "Feature", "geometry": {"type": "Point", "coordinates": [15.29638, 55.673276666666666]}, "properties": {"label": "LADY MARIIA", "mmsi": "273292160", "imo": "9220641", "name": "LADY MARIIA", "shiptype": "", "first_seen_utc": "2026-01-08T00:06:30Z", "last_seen_utc": "2026-01-17T03:26:51Z", "destination": "TO ORDER", "eta": "{'Day': 0, 'Hour': 24, 'Minute': 60, 'Month': 0}", "display": "LADY MARIIA (273292160)", "links": "<a href=\"https://www.vesselfinder.com/vessels?name=9220641\" target=\"_blank\" rel=\"noopener\">VesselFinder</a> | <a href=\"https://www.marinetraffic.com/en/ais/search/all?keyword=9220641\" target=\"_blank\" rel=\"noopener\">MarineTraffic</a>", "vf_url": "https://www.vesselfinder.com/vessels?name=9220641", "mst_url": "https://www.marinetraffic.com/en/ais/search/all?keyword=9220641", "method": "v3_2pass_track3d_fromru10d", "ru_seen_in_lookback": false, "in_monitor_on_day": true}}, {"type": "Feature", "geometry": {"type": "LineString", "coordinates": [[19.62990166666667, 54.66323833333333], [19.633866666666666, 54.68955166666667], [19.665196666666667, 54.64743], [19.622236666666666, 54.61805666666667], [19.73125333333333, 54.65394833333333]]}, "properties": {"label": "MARLIN", "mmsi": "273355510", "imo": "", "name": "MARLIN", "shiptype": "", "first_seen_utc": "2026-01-08T00:24:17Z", "last_seen_utc": "2026-01-17T03:35:59Z", "destination": "BALTIC SEA", "eta": "{'Day': 12, 'Hour': 23, 'Minute': 0, 'Month': 4}", "display": "", "links": "<a href=\"https://www.vesselfinder.com/vessels?name=273355510\" target=\"_blank\" rel=\"noopener\">VesselFinder</a> | <a href=\"https://www.marinetraffic.com/en/ais/search/all?keyword=273355510\" target=\"_blank\" rel=\"noopener\">MarineTraffic</a>", "vf_url": "https://www.vesselfinder.com/vessels?name=273355510", "mst_url": "https://www.marinetraffic.com/en/ais/search/all?keyword=273355510", "method": "v3_2pass_track3d_fromru10d", "ru_seen_in_lookback": true, "in_monitor_on_day": true}}, {"type": "Feature", "geometry": {"type": "Point", "coordinates": [19.73125333333333, 54.65394833333333]}, "properties": {"label": "MARLIN", "mmsi": "273355510", "imo": "", "name": "MARLIN", "shiptype": "", "first_seen_utc": "2026-01-08T00:24:17Z", "last_seen_utc": "2026-01-17T03:35:59Z", "destination": "BALTIC SEA", "eta": "{'Day': 12, 'Hour': 23, 'Minute': 0, 'Month': 4}", "display": "MARLIN (273355510)", "links": "<a href=\"https://www.vesselfinder.com/vessels?name=273355510\" target=\"_blank\" rel=\"noopener\">VesselFinder</a> | <a href=\"https://www.marinetraffic.com/en/ais/search/all?keyword=273355510\" target=\"_blank\" rel=\"noopener\">MarineTraffic</a>", "vf_url": "https://www.vesselfinder.com/vessels?name=273355510", "mst_url": "https://www.marinetraffic.com/en/ais/search/all?keyword=273355510", "method": "v3_2pass_track3d_fromru10d", "ru_seen_in_lookback": true, "in_monitor_on_day": true}}, {"type": "Feature", "geometry": {"type": "LineString", "coordinates": [[19.622223333333334, 54.9393], [19.62962, 54.749604999999995], [19.795381666666668, 54.65260166666667]]}, "properties": {"label": "273251360", "mmsi": "273251360", "imo": "", "name": "", "shiptype": "", "first_seen_utc": "2026-01-10T15:08:26Z", "last_seen_utc": "2026-01-17T03:55:51Z", "destination": "", "eta": "", "display": "", "links": "<a href=\"https://www.vesselfinder.com/vessels?name=273251360\" target=\"_blank\" rel=\"noopener\">VesselFinder</a> | <a href=\"https://www.marinetraffic.com/en/ais/search/all?keyword=273251360\" target=\"_blank\" rel=\"noopener\">MarineTraffic</a>", "vf_url": "https://www.vesselfinder.com/vessels?name=273251360", "mst_url": "https://www.marinetraffic.com/en/ais/search/all?keyword=273251360", "method": "v3_2pass_track3d_fromru10d", "ru_seen_in_lookback": true, "in_monitor_on_day": true}}, {"type": "Feature", "geometry": {"type": "Point", "coordinates": [19.795381666666668, 54.65260166666667]}, "properties": {"label": "273251360", "mmsi": "273251360", "imo": "", "name": "", "shiptype": "", "first_seen_utc": "2026-01-10T15:08:26Z", "last_seen_utc": "2026-01-17T03:55:51Z", "destination": "", "eta": "", "display": "273251360 (273251360)", "links": "<a href=\"https://www.vesselfinder.com/vessels?name=273251360\" target=\"_blank\" rel=\"noopener\">VesselFinder</a> | <a href=\"https://www.marinetraffic.com/en/ais/search/all?keyword=273251360\" target=\"_blank\" rel=\"noopener\">MarineTraffic</a>", "vf_url": "https://www.vesselfinder.com/vessels?name=273251360", "mst_url": "https://www.marinetraffic.com/en/ais/search/all?keyword=273251360", "method": "v3_2pass_track3d_fromru10d", "ru_seen_in_lookback": true, "in_monitor_on_day": true}}, {"type": "Feature", "geometry": {"type": "LineString", "coordinates": [[7.289808333333334, 56.832901666666665], [7.469938333333333, 57.014853333333335], [7.965310000000001, 57.273665], [10.057905, 57.80112666666666], [10.343306666666667, 57.80913833333333], [10.970538333333334, 55.93599833333334], [10.890105, 55.88176], [10.806701666666667, 55.82854333333333], [10.803661666666667, 55.75879166666667], [10.779121666666667, 55.687525], [11.030065, 55.35515], [11.056396666666666, 55.284414999999996], [11.097073333333332, 55.21573166666667], [11.045856666666667, 55.15177333333334], [11.031628333333334, 55.078603333333334], [11.018229999999999, 55.004463333333334], [10.940198333333333, 54.946675], [10.882281666666668, 54.893085], [10.859425, 54.822705], [10.86555, 54.750440000000005], [10.88447, 54.69053833333333], [10.983476666666666, 54.648025], [11.085496666666668, 54.60727], [11.196453333333332, 54.574843333333334], [11.305148333333333, 54.54503], [11.415061666666666, 54.51121833333333], [11.528718333333334, 54.47900833333333], [11.636515000000001, 54.44501833333334], [11.750358333333333, 54.41748166666666], [11.874848333333334, 54.40931166666667], [11.994296666666665, 54.40923], [12.113401666666666, 54.40978], [12.209916666666667, 54.443239999999996]]}, "properties": {"label": "ONEGA", "mmsi": "273273930", "imo": "9384459", "name": "ONEGA", "shiptype": "", "first_seen_utc": "2026-01-13T00:13:03Z", "last_seen_utc": "2026-01-17T03:40:31Z", "destination": "RUKGD", "eta": "{'Day': 18, 'Hour': 18, 'Minute': 0, 'Month': 1}", "display": "", "links": "<a href=\"https://www.vesselfinder.com/vessels?name=9384459\" target=\"_blank\" rel=\"noopener\">VesselFinder</a> | <a href=\"https://www.marinetraffic.com/en/ais/search/all?keyword=9384459\" target=\"_blank\" rel=\"noopener\">MarineTraffic</a>", "vf_url": "https://www.vesselfinder.com/vessels?name=9384459", "mst_url": "https://www.marinetraffic.com/en/ais/search/all?keyword=9384459", "method": "v3_2pass_track3d_fromru10d", "ru_seen_in_lookback": false, "in_monitor_on_day": true}}, {"type": "Feature", "geometry": {"type": "Point", "coordinates": [12.209916666666667, 54.443239999999996]}, "properties": {"label": "ONEGA", "mmsi": "273273930", "imo": "9384459", "name": "ONEGA", "shiptype": "", "first_seen_utc": "2026-01-13T00:13:03Z", "last_seen_utc": "2026-01-17T03:40:31Z", "destination": "RUKGD", "eta": "{'Day': 18, 'Hour': 18, 'Minute': 0, 'Month': 1}", "display": "ONEGA (273273930)", "links": "<a href=\"https://www.vesselfinder.com/vessels?name=9384459\" target=\"_blank\" rel=\"noopener\">VesselFinder</a> | <a href=\"https://www.marinetraffic.com/en/ais/search/all?keyword=9384459\" target=\"_blank\" rel=\"noopener\">MarineTraffic</a>", "vf_url": "https://www.vesselfinder.com/vessels?name=9384459", "mst_url": "https://www.marinetraffic.com/en/ais/search/all?keyword=9384459", "method": "v3_2pass_track3d_fromru10d", "ru_seen_in_lookback": false, "in_monitor_on_day": true}}, {"type": "Feature", "geometry": {"type": "LineString", "coordinates": [[3.6995283333333333, 58.74189833333333], [3.875995, 58.70791], [4.0511099999999995, 58.661359999999995], [4.225585, 58.611115000000005], [4.389928333333333, 58.56489], [4.5644149999999994, 58.51574166666667], [4.72789, 58.46695166666667], [4.887575, 58.42243833333334], [5.057238333333333, 58.380453333333335], [5.210231666666667, 58.33260833333333], [5.337848333333333, 58.274604999999994], [5.46248, 58.21563666666667], [5.586496666666666, 58.16010333333334], [5.723938333333334, 58.102788333333336], [5.857033333333334, 58.038545], [5.999766666666667, 57.97862333333333], [6.120355, 57.921081666666666], [6.2425033333333335, 57.86574333333333], [6.365095, 57.810425], [6.502743333333333, 57.74789333333333], [6.669553333333334, 57.714888333333334], [6.853735, 57.708735000000004], [7.041236666666666, 57.70254166666667], [7.229701666666667, 57.69979166666667], [7.414668333333334, 57.69186666666667], [7.605594999999999, 57.68725333333334], [7.79267, 57.682545], [7.984205, 57.68445666666666], [8.174673333333333, 57.69441], [8.364468333333333, 57.70460833333333], [8.551838333333334, 57.71311], [8.750493333333333, 57.72522333333333], [8.953108333333335, 57.73705333333333], [9.179803333333332, 57.748185], [9.72937, 57.790115], [10.128145, 57.806871666666666], [10.376381666666667, 57.806911666666664], [12.327591666666667, 56.19797166666667], [12.437021666666668, 56.153443333333335], [12.555318333333334, 56.10017333333334], [12.66387, 56.017453333333336]]}, "properties": {"label": "TRUST", "mmsi": "273271950", "imo": "9382798", "name": "TRUST", "shiptype": "", "first_seen_utc": "2026-01-15T20:02:37Z", "last_seen_utc": "2026-01-17T03:52:42Z", "destination": "RUULU", "eta": "{'Day': 19, 'Hour': 14, 'Minute': 0, 'Month': 1}", "display": "", "links": "<a href=\"https://www.vesselfinder.com/vessels?name=9382798\" target=\"_blank\" rel=\"noopener\">VesselFinder</a> | <a href=\"https://www.marinetraffic.com/en/ais/search/all?keyword=9382798\" target=\"_blank\" rel=\"noopener\">MarineTraffic</a>", "vf_url": "https://www.vesselfinder.com/vessels?name=9382798", "mst_url": "https://www.marinetraffic.com/en/ais/search/all?keyword=9382798", "method": "v3_2pass_track3d_fromru10d", "ru_seen_in_lookback": false, "in_monitor_on_day": true}}, {"type": "Feature", "geometry": {"type": "Point", "coordinates": [12.66387, 56.017453333333336]}, "properties": {"label": "TRUST", "mmsi": "273271950", "imo": "9382798", "name": "TRUST", "shiptype": "", "first_seen_utc": "2026-01-15T20:02:37Z", "last_seen_utc": "2026-01-17T03:52:42Z", "destination": "RUULU", "eta": "{'Day': 19, 'Hour': 14, 'Minute': 0, 'Month': 1}", "display": "TRUST (273271950)", "links": "<a href=\"https://www.vesselfinder.com/vessels?name=9382798\" target=\"_blank\" rel=\"noopener\">VesselFinder</a> | <a href=\"https://www.marinetraffic.com/en/ais/search/all?keyword=9382798\" target=\"_blank\" rel=\"noopener\">MarineTraffic</a>", "vf_url": "https://www.vesselfinder.com/vessels?name=9382798", "mst_url": "https://www.marinetraffic.com/en/ais/search/all?keyword=9382798", "method": "v3_2pass_track3d_fromru10d", "ru_seen_in_lookback": false, "in_monitor_on_day": true}}, {"type": "Feature", "geometry": {"type": "Point", "coordinates": [-0.288685, 50.22548333333334]}, "properties": {"label": "273242100", "mmsi": "273242100", "imo": "", "name": "", "shiptype": "", "first_seen_utc": "2026-01-17T03:25:26Z", "last_seen_utc": "2026-01-17T03:25:26Z", "destination": "", "eta": "", "display": "273242100 (273242100)", "links": "<a href=\"https://www.vesselfinder.com/vessels?name=273242100\" target=\"_blank\" rel=\"noopener\">VesselFinder</a> | <a href=\"https://www.marinetraffic.com/en/ais/search/all?keyword=273242100\" target=\"_blank\" rel=\"noopener\">MarineTraffic</a>", "vf_url": "https://www.vesselfinder.com/vessels?name=273242100", "mst_url": "https://www.marinetraffic.com/en/ais/search/all?keyword=273242100", "method": "v3_2pass_track3d_fromru10d", "ru_seen_in_lookback": false, "in_monitor_on_day": true}}]}