{"type": "FeatureCollection", "features": [{"type": "Feature", "geometry": {"type": "LineString", "coordinates": [[15.363511666666666, 55.61350166666667], [15.184043333333333, 55.593475], [15.013293333333333, 55.547291666666666], [14.841116666666666, 55.5084], [14.604989999999999, 55.44039333333333], [14.466583333333334, 55.34239166666667], [14.230598333333335, 55.17358166666667], [12.258511666666667, 54.594255], [12.217863333333334, 54.52329833333333], [12.137168333333333, 54.445816666666666], [11.966108333333333, 54.448141666666665], [11.79304, 54.45701833333333], [11.625271666666666, 54.48535666666667], [11.467076666666665, 54.528486666666666], [11.306705, 54.570861666666666], [11.138663333333334, 54.605955], [10.9603, 54.61931666666667], [10.804456666666665, 54.673030000000004], [10.80699, 54.768805], [10.837175, 54.86443166666666], [10.877893333333333, 54.934650000000005], [11.022785, 55.00231333333333], [11.044115, 55.10720333333334], [11.097383333333333, 55.201710000000006], [11.054788333333333, 55.293800000000005], [10.819645000000001, 55.590313333333334], [10.790368333333333, 55.689058333333335], [10.819086666666667, 55.789210000000004], [10.954343333333332, 55.91706333333333], [10.493269999999999, 57.85248166666667], [10.28232, 57.848675], [10.071286666666667, 57.84401166666667], [9.866235, 57.839551666666665], [9.674368333333332, 57.83031833333334], [9.50157, 57.791581666666666], [9.328046666666667, 57.74918666666667], [9.162691666666666, 57.69473166666667], [8.986596666666665, 57.634813333333334], [8.815861666666667, 57.57801666666667], [8.641150000000001, 57.523125], [8.463083333333334, 57.47089666666667], [8.291045, 57.421155], [8.123468333333333, 57.37111], [7.956075, 57.320915], [7.794993333333333, 57.26936], [7.637983333333334, 57.21929166666666], [7.485346666666667, 57.172736666666665]]}, "properties": {"label": "JUPITER", "mmsi": "273265590", "imo": "9397535", "name": "JUPITER", "shiptype": "", "first_seen_utc": "2026-01-04T21:17:52Z", "last_seen_utc": "2026-01-12T03:47:57Z", "destination": "EGPSD", "eta": "{'Day': 24, 'Hour': 17, 'Minute': 0, 'Month': 1}", "display": "", "links": "<a href=\"https://www.vesselfinder.com/vessels?name=9397535\" target=\"_blank\" rel=\"noopener\">VesselFinder</a> | <a href=\"https://www.marinetraffic.com/en/ais/search/all?keyword=9397535\" target=\"_blank\" rel=\"noopener\">MarineTraffic</a>", "vf_url": "https://www.vesselfinder.com/vessels?name=9397535", "mst_url": "https://www.marinetraffic.com/en/ais/search/all?keyword=9397535", "method": "v3_2pass_track3d_fromru10d", "ru_seen_in_lookback": true, "in_monitor_on_day": true}}, {"type": "Feature", "geometry": {"type": "Point", "coordinates": [7.485346666666667, 57.172736666666665]}, "properties": {"label": "JUPITER", "mmsi": "273265590", "imo": "9397535", "name": "JUPITER", "shiptype": "", "first_seen_utc": "2026-01-04T21:17:52Z", "last_seen_utc": "2026-01-12T03:47:57Z", "destination": "EGPSD", "eta": "{'Day': 24, 'Hour': 17, 'Minute': 0, 'Month': 1}", "display": "JUPITER (273265590)", "links": "<a href=\"https://www.vesselfinder.com/vessels?name=9397535\" target=\"_blank\" rel=\"noopener\">VesselFinder</a> | <a href=\"https://www.marinetraffic.com/en/ais/search/all?keyword=9397535\" target=\"_blank\" rel=\"noopener\">MarineTraffic</a>", "vf_url": "https://www.vesselfinder.com/vessels?name=9397535", "mst_url": "https://www.marinetraffic.com/en/ais/search/all?keyword=9397535", "method": "v3_2pass_track3d_fromru10d", "ru_seen_in_lookback": true, "in_monitor_on_day": true}}, {"type": "Feature", "geometry": {"type": "LineString", "coordinates": [[15.418971666666666, 55.66701333333333], [15.247455, 55.625930000000004], [15.077918333333335, 55.577194999999996], [14.912004999999999, 55.528778333333335], [14.719253333333334, 55.478314999999995], [14.533199999999999, 55.39908666666667], [14.413343333333334, 55.309195], [14.149783333333334, 55.122475], [12.26057, 54.59231833333333], [12.216953333333333, 54.51233666666667], [12.12482, 54.43899], [11.952526666666667, 54.438478333333336], [11.782536666666665, 54.44398666666667], [11.623635, 54.47687166666666], [11.468063333333333, 54.51892], [11.304408333333333, 54.56341666666666], [11.137411666666667, 54.605375], [10.960793333333333, 54.619703333333334], [10.801781666666667, 54.67062], [10.807328333333334, 54.76905333333333], [10.840298333333333, 54.87919], [10.959660000000001, 54.96948833333333], [10.996298333333334, 55.074023333333336], [11.00972, 55.16425666666667], [11.09975, 55.22853833333333], [11.007010000000001, 55.39814833333333], [10.828211666666666, 55.57664666666667]]}, "properties": {"label": "ALMOND", "mmsi": "273276930", "imo": "9385142", "name": "ALMOND", "shiptype": "", "first_seen_utc": "2026-01-07T21:26:30Z", "last_seen_utc": "2026-01-12T03:34:17Z", "destination": "GIBRALTAR FOR ORDERS", "eta": "{'Day': 18, 'Hour': 13, 'Minute': 0, 'Month': 1}", "display": "", "links": "<a href=\"https://www.vesselfinder.com/vessels?name=9385142\" target=\"_blank\" rel=\"noopener\">VesselFinder</a> | <a href=\"https://www.marinetraffic.com/en/ais/search/all?keyword=9385142\" target=\"_blank\" rel=\"noopener\">MarineTraffic</a>", "vf_url": "https://www.vesselfinder.com/vessels?name=9385142", "mst_url": "https://www.marinetraffic.com/en/ais/search/all?keyword=9385142", "method": "v3_2pass_track3d_fromru10d", "ru_seen_in_lookback": true, "in_monitor_on_day": true}}, {"type": "Feature", "geometry": {"type": "Point", "coordinates": [10.828211666666666, 55.57664666666667]}, "properties": {"label": "ALMOND", "mmsi": "273276930", "imo": "9385142", "name": "ALMOND", "shiptype": "", "first_seen_utc": "2026-01-07T21:26:30Z", "last_seen_utc": "2026-01-12T03:34:17Z", "destination": "GIBRALTAR FOR ORDERS", "eta": "{'Day': 18, 'Hour': 13, 'Minute': 0, 'Month': 1}", "display": "ALMOND (273276930)", "links": "<a href=\"https://www.vesselfinder.com/vessels?name=9385142\" target=\"_blank\" rel=\"noopener\">VesselFinder</a> | <a href=\"https://www.marinetraffic.com/en/ais/search/all?keyword=9385142\" target=\"_blank\" rel=\"noopener\">MarineTraffic</a>", "vf_url": "https://www.vesselfinder.com/vessels?name=9385142", "mst_url": "https://www.marinetraffic.com/en/ais/search/all?keyword=9385142", "method": "v3_2pass_track3d_fromru10d", "ru_seen_in_lookback": true, "in_monitor_on_day": true}}, {"type": "Feature", "geometry": {"type": "LineString", "coordinates": [[7.15825, 56.97309666666667], [7.326616666666666, 57.029536666666665], [7.5043, 57.089065], [7.677365, 57.14546666666667], [7.857383333333333, 57.20285], [8.110591666666666, 57.29408333333333], [8.279431666666666, 57.354638333333334], [8.449001666666666, 57.415780000000005], [8.614183333333333, 57.475656666666666], [8.789043333333332, 57.52717333333333], [8.960265, 57.584678333333336], [9.136131666666667, 57.64427833333333], [9.311671666666665, 57.703790000000005], [9.498026666666668, 57.76178166666667], [9.695703333333334, 57.79992166666667], [9.893431666666666, 57.810655], [10.084548333333334, 57.81191833333333], [10.273114999999999, 57.81103666666667], [10.459261666666666, 57.80836333333333], [12.345861666666668, 56.19988333333333], [12.429095, 56.15287333333333], [12.500366666666668, 56.12278666666667], [12.617233333333333, 56.06775666666667], [12.669009999999998, 55.97616], [12.668065, 55.86911166666666], [12.690818333333334, 55.766844999999996], [12.685041666666667, 55.667525], [12.700206666666666, 55.592571666666664], [12.703533333333333, 55.516643333333334], [12.661458333333334, 55.42711166666666], [12.625861666666667, 55.330420000000004], [12.734623333333333, 55.27314666666667], [12.903771666666668, 55.236205000000005], [14.012419999999999, 55.16436], [14.246983333333333, 55.17496833333333], [14.408735, 55.227086666666665], [14.52983, 55.31328499999999], [14.650008333333334, 55.39977], [14.818605, 55.456675000000004], [14.989738333333333, 55.498826666666666], [15.276365, 55.57237]]}, "properties": {"label": "QASR", "mmsi": "461000282", "imo": "9402471", "name": "QASR", "shiptype": "", "first_seen_utc": "2026-01-08T10:10:34Z", "last_seen_utc": "2026-01-12T03:54:49Z", "destination": "FOR ORDERS", "eta": "{'Day': 13, 'Hour': 10, 'Minute': 0, 'Month': 1}", "display": "", "links": "<a href=\"https://www.vesselfinder.com/vessels?name=9402471\" target=\"_blank\" rel=\"noopener\">VesselFinder</a> | <a href=\"https://www.marinetraffic.com/en/ais/search/all?keyword=9402471\" target=\"_blank\" rel=\"noopener\">MarineTraffic</a>", "vf_url": "https://www.vesselfinder.com/vessels?name=9402471", "mst_url": "https://www.marinetraffic.com/en/ais/search/all?keyword=9402471", "method": "v3_2pass_track3d_fromru10d", "ru_seen_in_lookback": false, "in_monitor_on_day": true}}, {"type": "Feature", "geometry": {"type": "Point", "coordinates": [15.276365, 55.57237]}, "properties": {"label": "QASR", "mmsi": "461000282", "imo": "9402471", "name": "QASR", "shiptype": "", "first_seen_utc": "2026-01-08T10:10:34Z", "last_seen_utc": "2026-01-12T03:54:49Z", "destination": "FOR ORDERS", "eta": "{'Day': 13, 'Hour': 10, 'Minute': 0, 'Month': 1}", "display": "QASR (461000282)", "links": "<a href=\"https://www.vesselfinder.com/vessels?name=9402471\" target=\"_blank\" rel=\"noopener\">VesselFinder</a> | <a href=\"https://www.marinetraffic.com/en/ais/search/all?keyword=9402471\" target=\"_blank\" rel=\"noopener\">MarineTraffic</a>", "vf_url": "https://www.vesselfinder.com/vessels?name=9402471", "mst_url": "https://www.marinetraffic.com/en/ais/search/all?keyword=9402471", "method": "v3_2pass_track3d_fromru10d", "ru_seen_in_lookback": false, "in_monitor_on_day": true}}, {"type": "Feature", "geometry": {"type": "LineString", "coordinates": [[4.016403333333333, 61.999585], [4.014218333333334, 61.92599333333333], [4.011925, 61.85070666666666], [4.01273, 61.77469833333334], [4.024171666666667, 61.700066666666665], [4.022685, 61.62741166666667], [4.018786666666666, 61.553845], [4.01839, 61.48203], [4.024196666666667, 61.409796666666665], [4.026833333333333, 61.33788833333333], [4.026108333333333, 61.26861833333333], [4.022566666666667, 61.200645], [4.015521666666666, 61.13100833333333], [4.003331666666667, 61.058458333333334], [3.99188, 60.98558833333333], [3.980145, 60.913286666666664], [3.9690466666666664, 60.84352166666667], [3.9702083333333333, 60.775605000000006], [3.97902, 60.70898833333333], [3.9854616666666667, 60.643163333333334], [3.991585, 60.579044999999994], [3.997505, 60.51371166666667], [4.003525, 60.45207666666667], [4.007571666666666, 60.395685], [3.9950783333333333, 60.34415333333333], [3.9807816666666667, 60.30347166666666], [3.981063333333333, 60.263614999999994], [3.9869333333333334, 60.2211], [3.9934516666666666, 60.183345], [3.9939833333333334, 60.153014999999996], [3.9958650000000002, 60.135686666666665], [4.000545, 60.120536666666666], [4.000966666666667, 60.105125], [3.997185, 60.09412333333333], [3.99669, 60.082591666666666], [3.9991, 60.07364666666667], [3.9988433333333333, 60.067069999999994], [3.9958066666666667, 60.06136333333333], [3.9912983333333334, 60.05161333333333], [3.98581, 60.04465166666667], [3.977185, 60.040486666666666], [3.9688149999999998, 60.031905], [3.9599100000000003, 60.026091666666666], [3.950213333333333, 60.023313333333334], [3.9404933333333334, 60.0203], [3.9347966666666663, 60.01645833333334], [3.9308633333333334, 60.013124999999995], [3.9232266666666664, 60.015858333333334], [3.9198749999999998, 60.014835], [3.914195, 60.013956666666665], [3.907465, 60.014336666666665], [3.8991949999999997, 60.013553333333334], [3.894881666666667, 60.01537333333333], [3.8851966666666664, 60.017961666666665], [3.8750483333333334, 60.016510000000004], [3.8621966666666667, 60.01777166666667]]}, "properties": {"label": "CAMEL", "mmsi": "461000253", "imo": "9341079", "name": "CAMEL", "shiptype": "", "first_seen_utc": "2026-01-10T23:13:59Z", "last_seen_utc": "2026-01-12T03:47:50Z", "destination": "EGPSD", "eta": "{'Day': 23, 'Hour': 6, 'Minute': 0, 'Month': 1}", "display": "", "links": "<a href=\"https://www.vesselfinder.com/vessels?name=9341079\" target=\"_blank\" rel=\"noopener\">VesselFinder</a> | <a href=\"https://www.marinetraffic.com/en/ais/search/all?keyword=9341079\" target=\"_blank\" rel=\"noopener\">MarineTraffic</a>", "vf_url": "https://www.vesselfinder.com/vessels?name=9341079", "mst_url": "https://www.marinetraffic.com/en/ais/search/all?keyword=9341079", "method": "v3_2pass_track3d_fromru10d", "ru_seen_in_lookback": false, "in_monitor_on_day": true}}, {"type": "Feature", "geometry": {"type": "Point", "coordinates": [3.8621966666666667, 60.01777166666667]}, "properties": {"label": "CAMEL", "mmsi": "461000253", "imo": "9341079", "name": "CAMEL", "shiptype": "", "first_seen_utc": "2026-01-10T23:13:59Z", "last_seen_utc": "2026-01-12T03:47:50Z", "destination": "EGPSD", "eta": "{'Day': 23, 'Hour': 6, 'Minute': 0, 'Month': 1}", "display": "CAMEL (461000253)", "links": "<a href=\"https://www.vesselfinder.com/vessels?name=9341079\" target=\"_blank\" rel=\"noopener\">VesselFinder</a> | <a href=\"https://www.marinetraffic.com/en/ais/search/all?keyword=9341079\" target=\"_blank\" rel=\"noopener\">MarineTraffic</a>", "vf_url": "https://www.vesselfinder.com/vessels?name=9341079", "mst_url": "https://www.marinetraffic.com/en/ais/search/all?keyword=9341079", "method": "v3_2pass_track3d_fromru10d", "ru_seen_in_lookback": false, "in_monitor_on_day": true}}, {"type": "Feature", "geometry": {"type": "LineString", "coordinates": [[6.512233333333333, 56.92766666666667], [6.746366666666666, 57.00123333333333], [6.923516666666667, 57.056850000000004], [7.09425, 57.11024999999999], [7.2720666666666665, 57.165333333333336], [7.451533333333333, 57.21301666666667], [7.632183333333333, 57.256616666666666], [7.820283333333333, 57.30141666666667], [8.0098, 57.34198333333333], [8.189616666666668, 57.39495], [8.372266666666667, 57.44873333333333], [8.558016666666667, 57.50425], [8.7334, 57.557249999999996], [8.895666666666667, 57.615750000000006], [9.066033333333333, 57.66276666666667], [9.310016666666666, 57.7299], [9.500766666666667, 57.784800000000004], [9.711833333333335, 57.803583333333336], [9.930833333333334, 57.804766666666666], [10.128416666666668, 57.808616666666666], [10.322916666666666, 57.8099], [12.319899999999999, 56.199733333333334], [12.417816666666665, 56.15186666666667], [12.504566666666667, 56.1159], [12.608583333333334, 56.071000000000005], [12.6274, 55.99696666666667]]}, "properties": {"label": "BLUE TALU", "mmsi": "613427200", "imo": "9334557", "name": "BLUE TALU", "shiptype": "", "first_seen_utc": "2026-01-11T03:48:22Z", "last_seen_utc": "2026-01-12T03:36:31Z", "destination": "TALLINN", "eta": "{'Day': 14, 'Hour': 2, 'Minute': 0, 'Month': 1}", "display": "", "links": "<a href=\"https://www.vesselfinder.com/vessels?name=9334557\" target=\"_blank\" rel=\"noopener\">VesselFinder</a> | <a href=\"https://www.marinetraffic.com/en/ais/search/all?keyword=9334557\" target=\"_blank\" rel=\"noopener\">MarineTraffic</a>", "vf_url": "https://www.vesselfinder.com/vessels?name=9334557", "mst_url": "https://www.marinetraffic.com/en/ais/search/all?keyword=9334557", "method": "v3_2pass_track3d_fromru10d", "ru_seen_in_lookback": false, "in_monitor_on_day": true}}, {"type": "Feature", "geometry": {"type": "Point", "coordinates": [12.6274, 55.99696666666667]}, "properties": {"label": "BLUE TALU", "mmsi": "613427200", "imo": "9334557", "name": "BLUE TALU", "shiptype": "", "first_seen_utc": "2026-01-11T03:48:22Z", "last_seen_utc": "2026-01-12T03:36:31Z", "destination": "TALLINN", "eta": "{'Day': 14, 'Hour': 2, 'Minute': 0, 'Month': 1}", "display": "BLUE TALU (613427200)", "links": "<a href=\"https://www.vesselfinder.com/vessels?name=9334557\" target=\"_blank\" rel=\"noopener\">VesselFinder</a> | <a href=\"https://www.marinetraffic.com/en/ais/search/all?keyword=9334557\" target=\"_blank\" rel=\"noopener\">MarineTraffic</a>", "vf_url": "https://www.vesselfinder.com/vessels?name=9334557", "mst_url": "https://www.marinetraffic.com/en/ais/search/all?keyword=9334557", "method": "v3_2pass_track3d_fromru10d", "ru_seen_in_lookback": false, "in_monitor_on_day": true}}, {"type": "Feature", "geometry": {"type": "LineString", "coordinates": [[15.262096666666668, 55.610081666666666], [14.980393333333334, 55.533366666666666], [14.802586666666667, 55.485800000000005], [14.568076666666666, 55.411903333333335], [14.469488333333334, 55.32983333333333], [14.367574999999999, 55.24923666666667], [14.251981666666667, 55.163468333333334], [12.387464999999999, 54.650101666666664], [12.269233333333334, 54.602441666666664], [12.220365, 54.52200333333334], [12.147166666666667, 54.446395], [11.983675, 54.445335], [11.819148333333334, 54.449131666666666], [11.665273333333333, 54.47571833333333], [11.513625, 54.5114]]}, "properties": {"label": "CHARIOT TIDE", "mmsi": "650000265", "imo": "9323376", "name": "CHARIOT TIDE", "shiptype": "", "first_seen_utc": "2026-01-11T13:19:31Z", "last_seen_utc": "2026-01-12T04:03:24Z", "destination": "TANGIER- MOROCCO", "eta": "{'Day': 21, 'Hour': 12, 'Minute': 5, 'Month': 1}", "display": "", "links": "<a href=\"https://www.vesselfinder.com/vessels?name=9323376\" target=\"_blank\" rel=\"noopener\">VesselFinder</a> | <a href=\"https://www.marinetraffic.com/en/ais/search/all?keyword=9323376\" target=\"_blank\" rel=\"noopener\">MarineTraffic</a>", "vf_url": "https://www.vesselfinder.com/vessels?name=9323376", "mst_url": "https://www.marinetraffic.com/en/ais/search/all?keyword=9323376", "method": "v3_2pass_track3d_fromru10d", "ru_seen_in_lookback": false, "in_monitor_on_day": true}}, {"type": "Feature", "geometry": {"type": "Point", "coordinates": [11.513625, 54.5114]}, "properties": {"label": "CHARIOT TIDE", "mmsi": "650000265", "imo": "9323376", "name": "CHARIOT TIDE", "shiptype": "", "first_seen_utc": "2026-01-11T13:19:31Z", "last_seen_utc": "2026-01-12T04:03:24Z", "destination": "TANGIER- MOROCCO", "eta": "{'Day': 21, 'Hour': 12, 'Minute': 5, 'Month': 1}", "display": "CHARIOT TIDE (650000265)", "links": "<a href=\"https://www.vesselfinder.com/vessels?name=9323376\" target=\"_blank\" rel=\"noopener\">VesselFinder</a> | <a href=\"https://www.marinetraffic.com/en/ais/search/all?keyword=9323376\" target=\"_blank\" rel=\"noopener\">MarineTraffic</a>", "vf_url": "https://www.vesselfinder.com/vessels?name=9323376", "mst_url": "https://www.marinetraffic.com/en/ais/search/all?keyword=9323376", "method": "v3_2pass_track3d_fromru10d", "ru_seen_in_lookback": false, "in_monitor_on_day": true}}, {"type": "Feature", "geometry": {"type": "LineString", "coordinates": [[-0.6366283333333332, 50.208978333333334], [-0.49461166666666667, 50.23768666666667], [-0.20202333333333333, 50.29886333333333], [1.311995, 50.687265000000004], [1.4016033333333333, 50.80108], [1.4789366666666666, 50.93413833333333], [1.6170900000000001, 51.042653333333334]]}, "properties": {"label": "CHIOS", "mmsi": "613007420", "imo": "9231509", "name": "CHIOS", "shiptype": "", "first_seen_utc": "2026-01-11T20:05:04Z", "last_seen_utc": "2026-01-12T03:54:57Z", "destination": "SKAW", "eta": "{'Day': 14, 'Hour': 8, 'Minute': 0, 'Month': 1}", "display": "", "links": "<a href=\"https://www.vesselfinder.com/vessels?name=9231509\" target=\"_blank\" rel=\"noopener\">VesselFinder</a> | <a href=\"https://www.marinetraffic.com/en/ais/search/all?keyword=9231509\" target=\"_blank\" rel=\"noopener\">MarineTraffic</a>", "vf_url": "https://www.vesselfinder.com/vessels?name=9231509", "mst_url": "https://www.marinetraffic.com/en/ais/search/all?keyword=9231509", "method": "v3_2pass_track3d_fromru10d", "ru_seen_in_lookback": false, "in_monitor_on_day": true}}, {"type": "Feature", "geometry": {"type": "Point", "coordinates": [1.6170900000000001, 51.042653333333334]}, "properties": {"label": "CHIOS", "mmsi": "613007420", "imo": "9231509", "name": "CHIOS", "shiptype": "", "first_seen_utc": "2026-01-11T20:05:04Z", "last_seen_utc": "2026-01-12T03:54:57Z", "destination": "SKAW", "eta": "{'Day': 14, 'Hour': 8, 'Minute': 0, 'Month': 1}", "display": "CHIOS (613007420)", "links": "<a href=\"https://www.vesselfinder.com/vessels?name=9231509\" target=\"_blank\" rel=\"noopener\">VesselFinder</a> | <a href=\"https://www.marinetraffic.com/en/ais/search/all?keyword=9231509\" target=\"_blank\" rel=\"noopener\">MarineTraffic</a>", "vf_url": "https://www.vesselfinder.com/vessels?name=9231509", "mst_url": "https://www.marinetraffic.com/en/ais/search/all?keyword=9231509", "method": "v3_2pass_track3d_fromru10d", "ru_seen_in_lookback": false, "in_monitor_on_day": true}}]}