{"type": "FeatureCollection", "features": [{"type": "Feature", "geometry": {"type": "LineString", "coordinates": [[11.03122, 54.658593333333336], [10.914783333333332, 54.696405], [10.877396666666668, 54.768386666666665], [10.883205, 54.855824999999996], [10.940873333333334, 54.936875], [11.029711666666666, 55.00005833333333], [11.042326666666666, 55.079029999999996], [11.056078333333334, 55.149723333333334], [11.101973333333332, 55.21045166666667], [10.832095, 55.57579833333333], [10.782445, 55.6454], [10.797605, 55.709785000000004], [10.814860000000001, 55.775843333333334], [10.445361666666667, 57.848638333333334], [10.314428333333332, 57.84782499999999], [10.161631666666667, 57.847295], [10.014688333333334, 57.84588166666666], [9.86493, 57.847253333333335], [9.737921666666667, 57.845571666666665], [9.593021666666667, 57.842594999999996], [9.482263333333332, 57.84059166666667], [9.3717, 57.84045166666667], [9.253993333333334, 57.84137833333333], [9.132571666666667, 57.84355], [9.01576, 57.83758666666667], [8.912173333333334, 57.830394999999996], [8.808355, 57.82162], [8.704033333333333, 57.819766666666666], [8.606881666666668, 57.81868833333333], [8.523118333333333, 57.80885], [8.441225, 57.797806666666666], [8.352055, 57.789235], [8.252223333333333, 57.78457166666667], [8.135493333333333, 57.77482333333333], [8.02249, 57.76329166666667], [7.9079250000000005, 57.76164000000001], [7.782758333333334, 57.75351666666666], [7.650705, 57.744695], [7.514238333333334, 57.74485833333333], [7.379436666666667, 57.747445], [7.234465, 57.75094333333333], [7.078585, 57.76135333333333], [6.925938333333334, 57.772216666666665], [6.780311666666666, 57.78321833333334], [6.641655, 57.79934], [6.505536666666667, 57.84480833333334], [6.359660000000001, 57.907435], [6.216620000000001, 57.97458666666667], [6.065035, 58.036741666666664], [5.911855, 58.106004999999996], [5.749441666666667, 58.185605], [5.602345, 58.254485], [5.456061666666667, 58.33304833333333], [5.315836666666667, 58.40493], [5.189156666666666, 58.47940833333334], [5.052051666666667, 58.549150000000004], [4.918381666666666, 58.62882833333333], [4.776285, 58.70748833333334], [4.638043333333333, 58.781150000000004], [4.505646666666666, 58.85722666666666], [4.3732016666666675, 58.92874666666667], [4.239441666666667, 59.003385], [4.212231666666667, 59.102345], [4.209738333333333, 59.19726], [4.200801666666667, 59.28889166666667], [4.191868333333334, 59.387813333333334], [4.194356666666667, 59.49045833333333], [4.199976666666667, 59.5961], [4.200918333333333, 59.70008833333333], [4.199505, 59.80312333333333], [4.19834, 59.907000000000004], [4.1970366666666665, 60.010999999999996], [4.193614999999999, 60.11799666666666], [4.199466666666667, 60.227160000000005], [4.199038333333333, 60.341080000000005], [4.173593333333334, 60.45256166666666], [4.153588333333333, 60.55953], [4.135821666666667, 60.665079999999996], [4.1160266666666665, 60.77162666666666], [4.108173333333333, 60.87896333333333], [4.079228333333334, 60.98854666666667]]}, "properties": {"label": "ANABAR", "mmsi": "273435910", "imo": "9194012", "name": "ANABAR", "shiptype": "", "first_seen_utc": "2026-01-04T00:09:11Z", "last_seen_utc": "2026-01-13T16:56:56Z", "destination": "RU MMK", "eta": "{'Day': 17, 'Hour': 1, 'Minute': 0, 'Month': 1}", "display": "", "links": "<a href=\"https://www.vesselfinder.com/vessels?name=9194012\" target=\"_blank\" rel=\"noopener\">VesselFinder</a> | <a href=\"https://www.marinetraffic.com/en/ais/search/all?keyword=9194012\" target=\"_blank\" rel=\"noopener\">MarineTraffic</a>", "vf_url": "https://www.vesselfinder.com/vessels?name=9194012", "mst_url": "https://www.marinetraffic.com/en/ais/search/all?keyword=9194012", "method": "v3_2pass_track3d_fromru10d", "ru_seen_in_lookback": true, "in_monitor_on_day": true}}, {"type": "Feature", "geometry": {"type": "Point", "coordinates": [4.079228333333334, 60.98854666666667]}, "properties": {"label": "ANABAR", "mmsi": "273435910", "imo": "9194012", "name": "ANABAR", "shiptype": "", "first_seen_utc": "2026-01-04T00:09:11Z", "last_seen_utc": "2026-01-13T16:56:56Z", "destination": "RU MMK", "eta": "{'Day': 17, 'Hour': 1, 'Minute': 0, 'Month': 1}", "display": "ANABAR (273435910)", "links": "<a href=\"https://www.vesselfinder.com/vessels?name=9194012\" target=\"_blank\" rel=\"noopener\">VesselFinder</a> | <a href=\"https://www.marinetraffic.com/en/ais/search/all?keyword=9194012\" target=\"_blank\" rel=\"noopener\">MarineTraffic</a>", "vf_url": "https://www.vesselfinder.com/vessels?name=9194012", "mst_url": "https://www.marinetraffic.com/en/ais/search/all?keyword=9194012", "method": "v3_2pass_track3d_fromru10d", "ru_seen_in_lookback": true, "in_monitor_on_day": true}}, {"type": "Feature", "geometry": {"type": "LineString", "coordinates": [[15.228248333333333, 55.63397166666667], [15.065850000000001, 55.58801166666667], [14.906255, 55.54206333333333], [14.746145, 55.49592666666667], [14.578223333333334, 55.44723666666666], [14.456816666666667, 55.358595], [14.341355, 55.2731], [14.229718333333333, 55.19106166666666], [12.212533333333333, 54.55782833333333], [12.146383333333334, 54.45665666666666], [11.974958333333332, 54.438586666666666], [11.799823333333334, 54.43371166666667], [11.637571666666666, 54.47230833333333], [11.474471666666666, 54.516036666666665], [11.303663333333333, 54.56172], [11.129871666666666, 54.60485166666667], [10.948766666666668, 54.62011666666667], [10.785076666666667, 54.679563333333334], [10.824216666666667, 54.79139833333333], [10.863526666666667, 54.91281], [10.989946666666667, 54.99933], [10.991428333333333, 55.10765666666667], [11.079008333333332, 55.19316833333333], [11.062488333333333, 55.28839333333334], [10.835186666666667, 55.569975], [10.788855000000002, 55.674078333333334], [10.812945000000001, 55.78101166666667], [10.894723333333333, 55.874763333333334], [11.052048333333333, 55.99093166666667], [10.496638333333333, 57.845105], [10.300456666666665, 57.840603333333334], [10.106591666666667, 57.83603166666667], [9.90474, 57.83040666666667], [9.694853333333333, 57.82308333333334], [9.507088333333334, 57.81630500000001], [9.311681666666667, 57.811924999999995], [9.113908333333335, 57.808236666666666], [8.933468333333334, 57.813613333333336], [8.76207, 57.79983], [8.592606666666667, 57.795395], [8.430128333333334, 57.79129833333333], [8.255328333333333, 57.786595000000005], [8.074415, 57.78265333333333], [7.898463333333334, 57.78201333333333], [7.718823333333333, 57.78548], [7.544925, 57.788785], [7.364173333333333, 57.79231666666667], [7.170190000000001, 57.795975], [6.971355, 57.79988166666667], [6.779121666666667, 57.803583333333336], [6.6037, 57.82281166666667], [6.457890000000001, 57.89001833333334], [6.304946666666667, 57.960546666666666], [6.156596666666667, 58.028855], [5.999415, 58.101911666666666], [5.835285, 58.17925833333334], [5.669101666666666, 58.24847833333333], [5.507575, 58.32654166666667], [5.354486666666667, 58.39608333333333], [5.211436666666667, 58.47236], [5.072563333333333, 58.547605], [4.922663333333333, 58.62887333333333], [4.769191666666667, 58.711675], [4.6224799999999995, 58.79072333333333], [4.474856666666667, 58.87029], [4.326556666666666, 58.94976333333333], [4.188705000000001, 59.03067], [4.189946666666667, 59.13467333333333], [4.1896716666666665, 59.23780166666666], [4.18983, 59.34502166666667], [4.189455, 59.45501], [4.189138333333333, 59.567440000000005], [4.189455, 59.66990166666667], [4.189003333333334, 59.77090333333333], [4.188165, 59.87560333333333], [4.1896450000000005, 59.98054333333334], [4.187283333333333, 60.088096666666665], [4.192628333333333, 60.19563], [4.192163333333333, 60.30209166666667], [4.1897416666666665, 60.41495166666667], [4.19015, 60.527633333333334], [4.191255, 60.64014833333333], [4.191085, 60.754055], [4.187233333333333, 60.86588666666667], [4.183051666666667, 60.981141666666666], [4.18917, 61.09404166666666], [4.184221666666667, 61.21597166666666], [4.191766666666667, 61.32354833333333], [4.191556666666667, 61.42858666666667], [4.187891666666667, 61.5327], [4.183083333333333, 61.64075833333333], [4.188508333333333, 61.74673]]}, "properties": {"label": "PIONEER", "mmsi": "273254770", "imo": "9255282", "name": "PIONEER", "shiptype": "", "first_seen_utc": "2026-01-04T00:16:32Z", "last_seen_utc": "2026-01-13T17:04:54Z", "destination": "RUS SAB", "eta": "{'Day': 23, 'Hour': 12, 'Minute': 0, 'Month': 1}", "display": "", "links": "<a href=\"https://www.vesselfinder.com/vessels?name=9255282\" target=\"_blank\" rel=\"noopener\">VesselFinder</a> | <a href=\"https://www.marinetraffic.com/en/ais/search/all?keyword=9255282\" target=\"_blank\" rel=\"noopener\">MarineTraffic</a>", "vf_url": "https://www.vesselfinder.com/vessels?name=9255282", "mst_url": "https://www.marinetraffic.com/en/ais/search/all?keyword=9255282", "method": "v3_2pass_track3d_fromru10d", "ru_seen_in_lookback": true, "in_monitor_on_day": true}}, {"type": "Feature", "geometry": {"type": "Point", "coordinates": [4.188508333333333, 61.74673]}, "properties": {"label": "PIONEER", "mmsi": "273254770", "imo": "9255282", "name": "PIONEER", "shiptype": "", "first_seen_utc": "2026-01-04T00:16:32Z", "last_seen_utc": "2026-01-13T17:04:54Z", "destination": "RUS SAB", "eta": "{'Day': 23, 'Hour': 12, 'Minute': 0, 'Month': 1}", "display": "PIONEER (273254770)", "links": "<a href=\"https://www.vesselfinder.com/vessels?name=9255282\" target=\"_blank\" rel=\"noopener\">VesselFinder</a> | <a href=\"https://www.marinetraffic.com/en/ais/search/all?keyword=9255282\" target=\"_blank\" rel=\"noopener\">MarineTraffic</a>", "vf_url": "https://www.vesselfinder.com/vessels?name=9255282", "mst_url": "https://www.marinetraffic.com/en/ais/search/all?keyword=9255282", "method": "v3_2pass_track3d_fromru10d", "ru_seen_in_lookback": true, "in_monitor_on_day": true}}, {"type": "Feature", "geometry": {"type": "LineString", "coordinates": [[10.494188333333334, 57.85776], [10.299885, 57.853653333333334], [10.106286666666668, 57.85311333333333], [9.901271666666666, 57.85019], [9.704875, 57.844813333333335], [9.526251666666667, 57.84113833333333], [9.350446666666667, 57.796791666666664], [9.17031, 57.752608333333335], [8.986559999999999, 57.70686833333333], [8.798283333333334, 57.662063333333336], [8.622628333333333, 57.61934333333333], [8.44601, 57.575093333333335], [8.267109999999999, 57.52480166666667], [8.090955, 57.48023], [7.908308333333333, 57.43129333333333], [7.7529200000000005, 57.37692333333334], [7.612591666666666, 57.315176666666666], [7.469328333333333, 57.25544], [3.4213666666666667, 53.25102166666667], [3.3683466666666666, 53.15571666666666], [3.3146433333333336, 53.05190666666667], [3.2653016666666668, 52.95677333333333], [3.200035, 52.8646], [2.5837733333333333, 51.89978333333333], [2.2809299999999997, 51.696225], [2.182715, 51.629135], [2.082918333333333, 51.560538333333334], [1.981165, 51.48843166666666], [1.8919433333333333, 51.41161666666667], [1.8295233333333334, 51.321823333333334], [1.7633116666666666, 51.22944666666667], [1.6517566666666668, 51.15571], [1.53653, 51.07748166666667], [1.3770966666666666, 50.97103666666667], [1.2832716666666668, 50.893535]]}, "properties": {"label": "NASLEDIE", "mmsi": "273279840", "imo": "9293002", "name": "NASLEDIE", "shiptype": "", "first_seen_utc": "2026-01-04T04:11:19Z", "last_seen_utc": "2026-01-13T16:53:18Z", "destination": "SINGAPORE", "eta": "{'Day': 10, 'Hour': 10, 'Minute': 0, 'Month': 2}", "display": "", "links": "<a href=\"https://www.vesselfinder.com/vessels?name=9293002\" target=\"_blank\" rel=\"noopener\">VesselFinder</a> | <a href=\"https://www.marinetraffic.com/en/ais/search/all?keyword=9293002\" target=\"_blank\" rel=\"noopener\">MarineTraffic</a>", "vf_url": "https://www.vesselfinder.com/vessels?name=9293002", "mst_url": "https://www.marinetraffic.com/en/ais/search/all?keyword=9293002", "method": "v3_2pass_track3d_fromru10d", "ru_seen_in_lookback": true, "in_monitor_on_day": true}}, {"type": "Feature", "geometry": {"type": "Point", "coordinates": [1.2832716666666668, 50.893535]}, "properties": {"label": "NASLEDIE", "mmsi": "273279840", "imo": "9293002", "name": "NASLEDIE", "shiptype": "", "first_seen_utc": "2026-01-04T04:11:19Z", "last_seen_utc": "2026-01-13T16:53:18Z", "destination": "SINGAPORE", "eta": "{'Day': 10, 'Hour': 10, 'Minute': 0, 'Month': 2}", "display": "NASLEDIE (273279840)", "links": "<a href=\"https://www.vesselfinder.com/vessels?name=9293002\" target=\"_blank\" rel=\"noopener\">VesselFinder</a> | <a href=\"https://www.marinetraffic.com/en/ais/search/all?keyword=9293002\" target=\"_blank\" rel=\"noopener\">MarineTraffic</a>", "vf_url": "https://www.vesselfinder.com/vessels?name=9293002", "mst_url": "https://www.marinetraffic.com/en/ais/search/all?keyword=9293002", "method": "v3_2pass_track3d_fromru10d", "ru_seen_in_lookback": true, "in_monitor_on_day": true}}, {"type": "Feature", "geometry": {"type": "LineString", "coordinates": [[10.80699, 54.768805], [10.837175, 54.86443166666666], [10.877893333333333, 54.934650000000005], [11.022785, 55.00231333333333], [11.044115, 55.10720333333334], [11.097383333333333, 55.201710000000006], [11.054788333333333, 55.293800000000005], [10.819645000000001, 55.590313333333334], [10.790368333333333, 55.689058333333335], [10.819086666666667, 55.789210000000004], [10.954343333333332, 55.91706333333333], [10.493269999999999, 57.85248166666667], [10.28232, 57.848675], [10.071286666666667, 57.84401166666667], [9.866235, 57.839551666666665], [9.674368333333332, 57.83031833333334], [9.50157, 57.791581666666666], [9.328046666666667, 57.74918666666667], [9.162691666666666, 57.69473166666667], [8.986596666666665, 57.634813333333334], [8.815861666666667, 57.57801666666667], [8.641150000000001, 57.523125], [8.463083333333334, 57.47089666666667], [8.291045, 57.421155], [8.123468333333333, 57.37111], [7.956075, 57.320915], [7.794993333333333, 57.26936], [7.637983333333334, 57.21929166666666], [7.485346666666667, 57.172736666666665], [7.340796666666666, 57.128728333333335], [7.232676666666666, 57.07085166666666], [3.623698333333333, 53.60927166666667], [3.5043583333333337, 53.39776166666666], [3.2100483333333334, 52.86307333333333], [2.863361666666667, 52.45017666666667], [2.447835, 51.775925], [2.220451666666667, 51.62942833333333]]}, "properties": {"label": "JUPITER", "mmsi": "273265590", "imo": "9397535", "name": "JUPITER", "shiptype": "", "first_seen_utc": "2026-01-04T21:17:52Z", "last_seen_utc": "2026-01-13T16:52:45Z", "destination": "EGPSD", "eta": "{'Day': 24, 'Hour': 17, 'Minute': 0, 'Month': 1}", "display": "", "links": "<a href=\"https://www.vesselfinder.com/vessels?name=9397535\" target=\"_blank\" rel=\"noopener\">VesselFinder</a> | <a href=\"https://www.marinetraffic.com/en/ais/search/all?keyword=9397535\" target=\"_blank\" rel=\"noopener\">MarineTraffic</a>", "vf_url": "https://www.vesselfinder.com/vessels?name=9397535", "mst_url": "https://www.marinetraffic.com/en/ais/search/all?keyword=9397535", "method": "v3_2pass_track3d_fromru10d", "ru_seen_in_lookback": true, "in_monitor_on_day": true}}, {"type": "Feature", "geometry": {"type": "Point", "coordinates": [2.220451666666667, 51.62942833333333]}, "properties": {"label": "JUPITER", "mmsi": "273265590", "imo": "9397535", "name": "JUPITER", "shiptype": "", "first_seen_utc": "2026-01-04T21:17:52Z", "last_seen_utc": "2026-01-13T16:52:45Z", "destination": "EGPSD", "eta": "{'Day': 24, 'Hour': 17, 'Minute': 0, 'Month': 1}", "display": "JUPITER (273265590)", "links": "<a href=\"https://www.vesselfinder.com/vessels?name=9397535\" target=\"_blank\" rel=\"noopener\">VesselFinder</a> | <a href=\"https://www.marinetraffic.com/en/ais/search/all?keyword=9397535\" target=\"_blank\" rel=\"noopener\">MarineTraffic</a>", "vf_url": "https://www.vesselfinder.com/vessels?name=9397535", "mst_url": "https://www.marinetraffic.com/en/ais/search/all?keyword=9397535", "method": "v3_2pass_track3d_fromru10d", "ru_seen_in_lookback": true, "in_monitor_on_day": true}}, {"type": "Feature", "geometry": {"type": "LineString", "coordinates": [[15.418971666666666, 55.66701333333333], [15.247455, 55.625930000000004], [15.077918333333335, 55.577194999999996], [14.912004999999999, 55.528778333333335], [14.719253333333334, 55.478314999999995], [14.533199999999999, 55.39908666666667], [14.413343333333334, 55.309195], [14.149783333333334, 55.122475], [12.26057, 54.59231833333333], [12.216953333333333, 54.51233666666667], [12.12482, 54.43899], [11.952526666666667, 54.438478333333336], [11.782536666666665, 54.44398666666667], [11.623635, 54.47687166666666], [11.468063333333333, 54.51892], [11.304408333333333, 54.56341666666666], [11.137411666666667, 54.605375], [10.960793333333333, 54.619703333333334], [10.801781666666667, 54.67062], [10.807328333333334, 54.76905333333333], [10.840298333333333, 54.87919], [10.959660000000001, 54.96948833333333], [10.996298333333334, 55.074023333333336], [11.00972, 55.16425666666667], [11.09975, 55.22853833333333], [11.007010000000001, 55.39814833333333], [10.828211666666666, 55.57664666666667], [10.790693333333333, 55.68366666666667], [10.816266666666667, 55.788064999999996], [10.95522, 55.91985], [10.484576666666667, 57.85313333333333], [9.967791666666667, 57.85231666666667], [9.702621666666666, 57.84991], [9.526458333333332, 57.81645666666667], [9.338298333333334, 57.756883333333334], [9.187251666666667, 57.707501666666666], [9.035956666666667, 57.657900000000005], [8.868895, 57.60765833333333], [8.70994, 57.55478166666667], [8.549695000000002, 57.501423333333335], [8.409830000000001, 57.455358333333336], [8.263461666666666, 57.407925], [8.118508333333333, 57.362535], [7.974751666666666, 57.31758166666667], [7.854801666666666, 57.258345], [7.759846666666666, 57.18608666666667], [7.613571666666667, 57.07823666666666]]}, "properties": {"label": "ALMOND", "mmsi": "273276930", "imo": "9385142", "name": "ALMOND", "shiptype": "", "first_seen_utc": "2026-01-07T21:26:30Z", "last_seen_utc": "2026-01-13T03:08:07Z", "destination": "GIBRALTAR FOR ORDERS", "eta": "{'Day': 18, 'Hour': 13, 'Minute': 0, 'Month': 1}", "display": "", "links": "<a href=\"https://www.vesselfinder.com/vessels?name=9385142\" target=\"_blank\" rel=\"noopener\">VesselFinder</a> | <a href=\"https://www.marinetraffic.com/en/ais/search/all?keyword=9385142\" target=\"_blank\" rel=\"noopener\">MarineTraffic</a>", "vf_url": "https://www.vesselfinder.com/vessels?name=9385142", "mst_url": "https://www.marinetraffic.com/en/ais/search/all?keyword=9385142", "method": "v3_2pass_track3d_fromru10d", "ru_seen_in_lookback": true, "in_monitor_on_day": true}}, {"type": "Feature", "geometry": {"type": "Point", "coordinates": [7.613571666666667, 57.07823666666666]}, "properties": {"label": "ALMOND", "mmsi": "273276930", "imo": "9385142", "name": "ALMOND", "shiptype": "", "first_seen_utc": "2026-01-07T21:26:30Z", "last_seen_utc": "2026-01-13T03:08:07Z", "destination": "GIBRALTAR FOR ORDERS", "eta": "{'Day': 18, 'Hour': 13, 'Minute': 0, 'Month': 1}", "display": "ALMOND (273276930)", "links": "<a href=\"https://www.vesselfinder.com/vessels?name=9385142\" target=\"_blank\" rel=\"noopener\">VesselFinder</a> | <a href=\"https://www.marinetraffic.com/en/ais/search/all?keyword=9385142\" target=\"_blank\" rel=\"noopener\">MarineTraffic</a>", "vf_url": "https://www.vesselfinder.com/vessels?name=9385142", "mst_url": "https://www.marinetraffic.com/en/ais/search/all?keyword=9385142", "method": "v3_2pass_track3d_fromru10d", "ru_seen_in_lookback": true, "in_monitor_on_day": true}}, {"type": "Feature", "geometry": {"type": "LineString", "coordinates": [[-0.974135, 50.12135333333333], [-0.790875, 50.14676833333333], [-0.642145, 50.172775], [-0.49308833333333335, 50.20046833333333], [-0.34030166666666667, 50.22906166666667], [-0.179245, 50.25951166666667], [-0.015121666666666667, 50.290911666666666], [0.14647500000000002, 50.32194333333334], [1.2615966666666667, 50.63415833333333], [1.3691133333333334, 50.72729666666667], [1.4249066666666665, 50.845018333333336], [1.4978416666666667, 50.95912], [1.6450833333333332, 51.03729], [1.7977716666666665, 51.117], [1.95848, 51.19177333333334], [2.115441666666667, 51.261026666666666], [2.1013883333333334, 51.37060833333333], [2.1726433333333333, 51.47408166666666], [2.3049749999999998, 51.567035000000004], [2.430365, 51.65764166666667], [2.5456783333333335, 51.751545], [2.6486050000000003, 51.853856666666665], [2.6723733333333333, 51.97011833333333], [2.8252866666666665, 52.320281666666666], [3.2647233333333334, 52.79225833333333], [3.3423683333333334, 52.904495], [3.403286666666667, 53.007595], [3.473675, 53.12462333333334], [3.5480033333333334, 53.22159333333333], [3.6202716666666666, 53.315508333333334], [3.70458, 53.41787166666666], [3.7911833333333336, 53.50880666666667], [3.933806666666667, 53.574315], [4.125615, 53.663025], [4.7408866666666665, 54.243446666666664]]}, "properties": {"label": "GEFEST", "mmsi": "273272850", "imo": "9319882", "name": "GEFEST", "shiptype": "", "first_seen_utc": "2026-01-12T07:11:50Z", "last_seen_utc": "2026-01-13T09:59:18Z", "destination": "DK AUU", "eta": "{'Day': 15, 'Hour': 8, 'Minute': 0, 'Month': 1}", "display": "", "links": "<a href=\"https://www.vesselfinder.com/vessels?name=9319882\" target=\"_blank\" rel=\"noopener\">VesselFinder</a> | <a href=\"https://www.marinetraffic.com/en/ais/search/all?keyword=9319882\" target=\"_blank\" rel=\"noopener\">MarineTraffic</a>", "vf_url": "https://www.vesselfinder.com/vessels?name=9319882", "mst_url": "https://www.marinetraffic.com/en/ais/search/all?keyword=9319882", "method": "v3_2pass_track3d_fromru10d", "ru_seen_in_lookback": false, "in_monitor_on_day": true}}, {"type": "Feature", "geometry": {"type": "Point", "coordinates": [4.7408866666666665, 54.243446666666664]}, "properties": {"label": "GEFEST", "mmsi": "273272850", "imo": "9319882", "name": "GEFEST", "shiptype": "", "first_seen_utc": "2026-01-12T07:11:50Z", "last_seen_utc": "2026-01-13T09:59:18Z", "destination": "DK AUU", "eta": "{'Day': 15, 'Hour': 8, 'Minute': 0, 'Month': 1}", "display": "GEFEST (273272850)", "links": "<a href=\"https://www.vesselfinder.com/vessels?name=9319882\" target=\"_blank\" rel=\"noopener\">VesselFinder</a> | <a href=\"https://www.marinetraffic.com/en/ais/search/all?keyword=9319882\" target=\"_blank\" rel=\"noopener\">MarineTraffic</a>", "vf_url": "https://www.vesselfinder.com/vessels?name=9319882", "mst_url": "https://www.marinetraffic.com/en/ais/search/all?keyword=9319882", "method": "v3_2pass_track3d_fromru10d", "ru_seen_in_lookback": false, "in_monitor_on_day": true}}, {"type": "Feature", "geometry": {"type": "LineString", "coordinates": [[-0.73179, 50.20583833333333], [-0.01451, 50.326515], [1.3640916666666667, 50.7137], [1.4389066666666668, 50.821565], [1.5893816666666667, 51.00763166666666], [1.6936916666666666, 51.11203833333333], [1.8063666666666667, 51.21022166666667], [1.928995, 51.30173666666667], [2.053838333333333, 51.38531833333333], [2.1769583333333333, 51.46907], [2.56705, 51.726283333333335], [2.6786883333333336, 51.966211666666666], [3.3616216666666667, 52.940725]]}, "properties": {"label": "MELITO CARRIER", "mmsi": "273257120", "imo": "8920581", "name": "MELITO CARRIER", "shiptype": "", "first_seen_utc": "2026-01-12T09:54:47Z", "last_seen_utc": "2026-01-13T05:06:57Z", "destination": "RU LED", "eta": "{'Day': 20, 'Hour': 12, 'Minute': 0, 'Month': 1}", "display": "", "links": "<a href=\"https://www.vesselfinder.com/vessels?name=8920581\" target=\"_blank\" rel=\"noopener\">VesselFinder</a> | <a href=\"https://www.marinetraffic.com/en/ais/search/all?keyword=8920581\" target=\"_blank\" rel=\"noopener\">MarineTraffic</a>", "vf_url": "https://www.vesselfinder.com/vessels?name=8920581", "mst_url": "https://www.marinetraffic.com/en/ais/search/all?keyword=8920581", "method": "v3_2pass_track3d_fromru10d", "ru_seen_in_lookback": false, "in_monitor_on_day": true}}, {"type": "Feature", "geometry": {"type": "Point", "coordinates": [3.3616216666666667, 52.940725]}, "properties": {"label": "MELITO CARRIER", "mmsi": "273257120", "imo": "8920581", "name": "MELITO CARRIER", "shiptype": "", "first_seen_utc": "2026-01-12T09:54:47Z", "last_seen_utc": "2026-01-13T05:06:57Z", "destination": "RU LED", "eta": "{'Day': 20, 'Hour': 12, 'Minute': 0, 'Month': 1}", "display": "MELITO CARRIER (273257120)", "links": "<a href=\"https://www.vesselfinder.com/vessels?name=8920581\" target=\"_blank\" rel=\"noopener\">VesselFinder</a> | <a href=\"https://www.marinetraffic.com/en/ais/search/all?keyword=8920581\" target=\"_blank\" rel=\"noopener\">MarineTraffic</a>", "vf_url": "https://www.vesselfinder.com/vessels?name=8920581", "mst_url": "https://www.marinetraffic.com/en/ais/search/all?keyword=8920581", "method": "v3_2pass_track3d_fromru10d", "ru_seen_in_lookback": false, "in_monitor_on_day": true}}, {"type": "Feature", "geometry": {"type": "LineString", "coordinates": [[-1.152435, 50.134710000000005], [-0.6942816666666667, 50.20159666666667], [-0.5341116666666667, 50.22788333333333], [-0.37054, 50.255158333333334], [-0.180535, 50.28950333333333], [0.0044666666666666665, 50.32488333333333], [1.3089633333333335, 50.665705], [1.3717233333333332, 50.737595000000006], [1.4091833333333335, 50.81992833333334], [1.45598, 50.918425], [1.548225, 50.98475166666666], [1.6383783333333333, 51.04177166666667], [1.7359250000000002, 51.10424166666667], [1.8423183333333335, 51.15042833333334], [1.9521799999999998, 51.19178333333333], [2.0648133333333334, 51.22692833333333], [2.1228716666666667, 51.29308], [2.133411666666667, 51.36983], [2.173598333333333, 51.44350833333333], [2.267233333333333, 51.512903333333334], [2.423958333333333, 51.631319999999995], [2.5337383333333334, 51.714076666666664], [2.62475, 51.87615166666667], [3.027835, 52.55760833333333]]}, "properties": {"label": "ARIADNE", "mmsi": "273268690", "imo": "9397547", "name": "ARIADNE", "shiptype": "", "first_seen_utc": "2026-01-12T11:50:42Z", "last_seen_utc": "2026-01-13T10:02:24Z", "destination": "EGPSD>RUULU", "eta": "{'Day': 18, 'Hour': 9, 'Minute': 0, 'Month': 1}", "display": "", "links": "<a href=\"https://www.vesselfinder.com/vessels?name=9397547\" target=\"_blank\" rel=\"noopener\">VesselFinder</a> | <a href=\"https://www.marinetraffic.com/en/ais/search/all?keyword=9397547\" target=\"_blank\" rel=\"noopener\">MarineTraffic</a>", "vf_url": "https://www.vesselfinder.com/vessels?name=9397547", "mst_url": "https://www.marinetraffic.com/en/ais/search/all?keyword=9397547", "method": "v3_2pass_track3d_fromru10d", "ru_seen_in_lookback": false, "in_monitor_on_day": true}}, {"type": "Feature", "geometry": {"type": "Point", "coordinates": [3.027835, 52.55760833333333]}, "properties": {"label": "ARIADNE", "mmsi": "273268690", "imo": "9397547", "name": "ARIADNE", "shiptype": "", "first_seen_utc": "2026-01-12T11:50:42Z", "last_seen_utc": "2026-01-13T10:02:24Z", "destination": "EGPSD>RUULU", "eta": "{'Day': 18, 'Hour': 9, 'Minute': 0, 'Month': 1}", "display": "ARIADNE (273268690)", "links": "<a href=\"https://www.vesselfinder.com/vessels?name=9397547\" target=\"_blank\" rel=\"noopener\">VesselFinder</a> | <a href=\"https://www.marinetraffic.com/en/ais/search/all?keyword=9397547\" target=\"_blank\" rel=\"noopener\">MarineTraffic</a>", "vf_url": "https://www.vesselfinder.com/vessels?name=9397547", "mst_url": "https://www.marinetraffic.com/en/ais/search/all?keyword=9397547", "method": "v3_2pass_track3d_fromru10d", "ru_seen_in_lookback": false, "in_monitor_on_day": true}}, {"type": "Feature", "geometry": {"type": "LineString", "coordinates": [[-0.7473116666666667, 50.190711666666665], [-0.4348383333333333, 50.248981666666666], [-0.25905833333333333, 50.283543333333334], [1.3413416666666669, 50.68972333333333], [1.3914816666666667, 50.77215], [1.4355366666666667, 50.856275], [1.5930283333333333, 50.98978833333333], [1.6943483333333333, 51.05459], [1.7882033333333331, 51.11653], [1.8937466666666665, 51.166945000000005], [2.008391666666667, 51.209965000000004], [2.100601666666667, 51.261026666666666], [2.1321766666666666, 51.34003833333334], [2.4636283333333333, 51.66075333333333], [2.57401, 51.74926333333334]]}, "properties": {"label": "ONEGA", "mmsi": "273273930", "imo": "9384459", "name": "ONEGA", "shiptype": "", "first_seen_utc": "2026-01-13T00:13:03Z", "last_seen_utc": "2026-01-13T16:45:42Z", "destination": "RUKGD", "eta": "{'Day': 18, 'Hour': 20, 'Minute': 0, 'Month': 1}", "display": "", "links": "<a href=\"https://www.vesselfinder.com/vessels?name=9384459\" target=\"_blank\" rel=\"noopener\">VesselFinder</a> | <a href=\"https://www.marinetraffic.com/en/ais/search/all?keyword=9384459\" target=\"_blank\" rel=\"noopener\">MarineTraffic</a>", "vf_url": "https://www.vesselfinder.com/vessels?name=9384459", "mst_url": "https://www.marinetraffic.com/en/ais/search/all?keyword=9384459", "method": "v3_2pass_track3d_fromru10d", "ru_seen_in_lookback": false, "in_monitor_on_day": true}}, {"type": "Feature", "geometry": {"type": "Point", "coordinates": [2.57401, 51.74926333333334]}, "properties": {"label": "ONEGA", "mmsi": "273273930", "imo": "9384459", "name": "ONEGA", "shiptype": "", "first_seen_utc": "2026-01-13T00:13:03Z", "last_seen_utc": "2026-01-13T16:45:42Z", "destination": "RUKGD", "eta": "{'Day': 18, 'Hour': 20, 'Minute': 0, 'Month': 1}", "display": "ONEGA (273273930)", "links": "<a href=\"https://www.vesselfinder.com/vessels?name=9384459\" target=\"_blank\" rel=\"noopener\">VesselFinder</a> | <a href=\"https://www.marinetraffic.com/en/ais/search/all?keyword=9384459\" target=\"_blank\" rel=\"noopener\">MarineTraffic</a>", "vf_url": "https://www.vesselfinder.com/vessels?name=9384459", "mst_url": "https://www.marinetraffic.com/en/ais/search/all?keyword=9384459", "method": "v3_2pass_track3d_fromru10d", "ru_seen_in_lookback": false, "in_monitor_on_day": true}}]}