{"type": "FeatureCollection", "features": [{"type": "Feature", "geometry": {"type": "LineString", "coordinates": [[28.515486666666668, 59.89708333333333], [15.408811666666667, 55.66444833333333], [15.228248333333333, 55.63397166666667], [15.065850000000001, 55.58801166666667], [14.906255, 55.54206333333333], [14.746145, 55.49592666666667], [14.578223333333334, 55.44723666666666], [14.456816666666667, 55.358595], [14.341355, 55.2731], [14.229718333333333, 55.19106166666666], [12.212533333333333, 54.55782833333333], [12.146383333333334, 54.45665666666666], [11.974958333333332, 54.438586666666666], [11.799823333333334, 54.43371166666667], [11.637571666666666, 54.47230833333333], [11.474471666666666, 54.516036666666665], [11.303663333333333, 54.56172], [11.129871666666666, 54.60485166666667], [10.948766666666668, 54.62011666666667], [10.785076666666667, 54.679563333333334], [10.824216666666667, 54.79139833333333]]}, "properties": {"label": "PIONEER", "mmsi": "273254770", "imo": "9255282", "name": "PIONEER", "shiptype": "", "first_seen_utc": "2026-01-02T00:28:40Z", "last_seen_utc": "2026-01-11T15:56:00Z", "destination": "RUS SAB", "eta": "{'Day': 23, 'Hour': 12, 'Minute': 0, 'Month': 1}", "display": "", "links": "<a href=\"https://www.vesselfinder.com/vessels?name=9255282\" target=\"_blank\" rel=\"noopener\">VesselFinder</a> | <a href=\"https://www.marinetraffic.com/en/ais/search/all?keyword=9255282\" target=\"_blank\" rel=\"noopener\">MarineTraffic</a>", "vf_url": "https://www.vesselfinder.com/vessels?name=9255282", "mst_url": "https://www.marinetraffic.com/en/ais/search/all?keyword=9255282", "method": "v3_2pass_track3d_fromru10d", "ru_seen_in_lookback": true, "in_monitor_on_day": true}}, {"type": "Feature", "geometry": {"type": "Point", "coordinates": [10.824216666666667, 54.79139833333333]}, "properties": {"label": "PIONEER", "mmsi": "273254770", "imo": "9255282", "name": "PIONEER", "shiptype": "", "first_seen_utc": "2026-01-02T00:28:40Z", "last_seen_utc": "2026-01-11T15:56:00Z", "destination": "RUS SAB", "eta": "{'Day': 23, 'Hour': 12, 'Minute': 0, 'Month': 1}", "display": "PIONEER (273254770)", "links": "<a href=\"https://www.vesselfinder.com/vessels?name=9255282\" target=\"_blank\" rel=\"noopener\">VesselFinder</a> | <a href=\"https://www.marinetraffic.com/en/ais/search/all?keyword=9255282\" target=\"_blank\" rel=\"noopener\">MarineTraffic</a>", "vf_url": "https://www.vesselfinder.com/vessels?name=9255282", "mst_url": "https://www.marinetraffic.com/en/ais/search/all?keyword=9255282", "method": "v3_2pass_track3d_fromru10d", "ru_seen_in_lookback": true, "in_monitor_on_day": true}}, {"type": "Feature", "geometry": {"type": "LineString", "coordinates": [[12.169133333333333, 54.43908333333333], [12.011466666666667, 54.436185], [11.851085000000001, 54.434035], [11.694276666666667, 54.45772], [11.543376666666667, 54.494906666666665], [11.389886666666666, 54.53561666666667], [11.230888333333333, 54.578005], [11.064496666666667, 54.59658666666667], [10.910670000000001, 54.62471166666667], [10.784148333333333, 54.678381666666674], [10.80283, 54.76522166666667], [10.837298333333333, 54.85911], [10.8779, 54.928670000000004], [10.981883333333334, 54.99707], [10.991511666666666, 55.097881666666666], [11.055573333333333, 55.181958333333334], [11.074145, 55.26685833333333], [10.824866666666667, 55.582271666666664], [10.791551666666667, 55.680658333333334], [10.80783, 55.779001666666666]]}, "properties": {"label": "PROGRESS", "mmsi": "273278840", "imo": "9306627", "name": "PROGRESS", "shiptype": "", "first_seen_utc": "2026-01-02T02:24:44Z", "last_seen_utc": "2026-01-11T15:55:20Z", "destination": "EGPSE", "eta": "{'Day': 25, 'Hour': 9, 'Minute': 0, 'Month': 1}", "display": "", "links": "<a href=\"https://www.vesselfinder.com/vessels?name=9306627\" target=\"_blank\" rel=\"noopener\">VesselFinder</a> | <a href=\"https://www.marinetraffic.com/en/ais/search/all?keyword=9306627\" target=\"_blank\" rel=\"noopener\">MarineTraffic</a>", "vf_url": "https://www.vesselfinder.com/vessels?name=9306627", "mst_url": "https://www.marinetraffic.com/en/ais/search/all?keyword=9306627", "method": "v3_2pass_track3d_fromru10d", "ru_seen_in_lookback": true, "in_monitor_on_day": true}}, {"type": "Feature", "geometry": {"type": "Point", "coordinates": [10.80783, 55.779001666666666]}, "properties": {"label": "PROGRESS", "mmsi": "273278840", "imo": "9306627", "name": "PROGRESS", "shiptype": "", "first_seen_utc": "2026-01-02T02:24:44Z", "last_seen_utc": "2026-01-11T15:55:20Z", "destination": "EGPSE", "eta": "{'Day': 25, 'Hour': 9, 'Minute': 0, 'Month': 1}", "display": "PROGRESS (273278840)", "links": "<a href=\"https://www.vesselfinder.com/vessels?name=9306627\" target=\"_blank\" rel=\"noopener\">VesselFinder</a> | <a href=\"https://www.marinetraffic.com/en/ais/search/all?keyword=9306627\" target=\"_blank\" rel=\"noopener\">MarineTraffic</a>", "vf_url": "https://www.vesselfinder.com/vessels?name=9306627", "mst_url": "https://www.marinetraffic.com/en/ais/search/all?keyword=9306627", "method": "v3_2pass_track3d_fromru10d", "ru_seen_in_lookback": true, "in_monitor_on_day": true}}, {"type": "Feature", "geometry": {"type": "LineString", "coordinates": [[18.9804, 54.911836666666666], [15.237105000000001, 55.556088333333335], [14.96871, 55.567773333333335], [14.814498333333335, 55.531153333333336], [14.685258333333334, 55.493309999999994], [12.22798, 54.56042333333333], [12.211198333333334, 54.482965], [12.12082, 54.44177666666667], [11.993533333333334, 54.44112666666667], [11.859945000000002, 54.440145], [11.739216666666666, 54.453375], [11.624873333333333, 54.485663333333335], [11.504303333333333, 54.518350000000005], [11.386013333333333, 54.55083333333334], [11.264193333333333, 54.58555], [11.14428, 54.62098666666667], [11.03122, 54.658593333333336], [10.914783333333332, 54.696405], [10.877396666666668, 54.768386666666665], [10.883205, 54.855824999999996], [10.940873333333334, 54.936875], [11.029711666666666, 55.00005833333333], [11.042326666666666, 55.079029999999996], [11.056078333333334, 55.149723333333334], [11.101973333333332, 55.21045166666667], [10.832095, 55.57579833333333], [10.782445, 55.6454], [10.797605, 55.709785000000004], [10.814860000000001, 55.775843333333334]]}, "properties": {"label": "ANABAR", "mmsi": "273435910", "imo": "9194012", "name": "ANABAR", "shiptype": "", "first_seen_utc": "2026-01-03T10:39:50Z", "last_seen_utc": "2026-01-11T09:01:51Z", "destination": "RU MMK", "eta": "{'Day': 17, 'Hour': 1, 'Minute': 0, 'Month': 1}", "display": "", "links": "<a href=\"https://www.vesselfinder.com/vessels?name=9194012\" target=\"_blank\" rel=\"noopener\">VesselFinder</a> | <a href=\"https://www.marinetraffic.com/en/ais/search/all?keyword=9194012\" target=\"_blank\" rel=\"noopener\">MarineTraffic</a>", "vf_url": "https://www.vesselfinder.com/vessels?name=9194012", "mst_url": "https://www.marinetraffic.com/en/ais/search/all?keyword=9194012", "method": "v3_2pass_track3d_fromru10d", "ru_seen_in_lookback": true, "in_monitor_on_day": true}}, {"type": "Feature", "geometry": {"type": "Point", "coordinates": [10.814860000000001, 55.775843333333334]}, "properties": {"label": "ANABAR", "mmsi": "273435910", "imo": "9194012", "name": "ANABAR", "shiptype": "", "first_seen_utc": "2026-01-03T10:39:50Z", "last_seen_utc": "2026-01-11T09:01:51Z", "destination": "RU MMK", "eta": "{'Day': 17, 'Hour': 1, 'Minute': 0, 'Month': 1}", "display": "ANABAR (273435910)", "links": "<a href=\"https://www.vesselfinder.com/vessels?name=9194012\" target=\"_blank\" rel=\"noopener\">VesselFinder</a> | <a href=\"https://www.marinetraffic.com/en/ais/search/all?keyword=9194012\" target=\"_blank\" rel=\"noopener\">MarineTraffic</a>", "vf_url": "https://www.vesselfinder.com/vessels?name=9194012", "mst_url": "https://www.marinetraffic.com/en/ais/search/all?keyword=9194012", "method": "v3_2pass_track3d_fromru10d", "ru_seen_in_lookback": true, "in_monitor_on_day": true}}, {"type": "Feature", "geometry": {"type": "LineString", "coordinates": [[15.172448333333334, 55.606725], [15.041016666666668, 55.558350000000004], [14.924859999999999, 55.49957], [14.824916666666667, 55.43613666666667], [14.730398333333333, 55.35437666666667], [12.215895, 54.50701333333333], [12.134228333333335, 54.44318833333333], [11.980683333333333, 54.442753333333336], [11.814705, 54.44110666666666], [11.654953333333333, 54.461371666666665], [11.499185, 54.504131666666666], [11.341063333333333, 54.55067333333333], [11.18401, 54.59549333333334], [11.005496666666666, 54.602624999999996], [10.851663333333333, 54.656616666666665], [10.782971666666667, 54.73175833333333], [10.838116666666668, 54.82951166666667], [10.884825000000001, 54.93779833333333], [10.9925, 55.015456666666665], [10.989446666666668, 55.11421833333333], [11.074011666666667, 55.192568333333334], [11.0625, 55.280318333333334], [11.03214, 55.37969666666667], [10.85453, 55.53771833333334], [10.786145, 55.63700166666667], [10.802475, 55.737473333333334], [10.814606666666666, 55.881573333333336], [10.494188333333334, 57.85776], [10.299885, 57.853653333333334], [10.106286666666668, 57.85311333333333], [9.901271666666666, 57.85019], [9.704875, 57.844813333333335], [9.526251666666667, 57.84113833333333], [9.350446666666667, 57.796791666666664], [9.17031, 57.752608333333335], [8.986559999999999, 57.70686833333333], [8.798283333333334, 57.662063333333336], [8.622628333333333, 57.61934333333333], [8.44601, 57.575093333333335], [8.267109999999999, 57.52480166666667], [8.090955, 57.48023]]}, "properties": {"label": "NASLEDIE", "mmsi": "273279840", "imo": "9293002", "name": "NASLEDIE", "shiptype": "", "first_seen_utc": "2026-01-04T04:11:19Z", "last_seen_utc": "2026-01-11T15:58:29Z", "destination": "SINGAPORE", "eta": "{'Day': 10, 'Hour': 10, 'Minute': 0, 'Month': 2}", "display": "", "links": "<a href=\"https://www.vesselfinder.com/vessels?name=9293002\" target=\"_blank\" rel=\"noopener\">VesselFinder</a> | <a href=\"https://www.marinetraffic.com/en/ais/search/all?keyword=9293002\" target=\"_blank\" rel=\"noopener\">MarineTraffic</a>", "vf_url": "https://www.vesselfinder.com/vessels?name=9293002", "mst_url": "https://www.marinetraffic.com/en/ais/search/all?keyword=9293002", "method": "v3_2pass_track3d_fromru10d", "ru_seen_in_lookback": true, "in_monitor_on_day": true}}, {"type": "Feature", "geometry": {"type": "Point", "coordinates": [8.090955, 57.48023]}, "properties": {"label": "NASLEDIE", "mmsi": "273279840", "imo": "9293002", "name": "NASLEDIE", "shiptype": "", "first_seen_utc": "2026-01-04T04:11:19Z", "last_seen_utc": "2026-01-11T15:58:29Z", "destination": "SINGAPORE", "eta": "{'Day': 10, 'Hour': 10, 'Minute': 0, 'Month': 2}", "display": "NASLEDIE (273279840)", "links": "<a href=\"https://www.vesselfinder.com/vessels?name=9293002\" target=\"_blank\" rel=\"noopener\">VesselFinder</a> | <a href=\"https://www.marinetraffic.com/en/ais/search/all?keyword=9293002\" target=\"_blank\" rel=\"noopener\">MarineTraffic</a>", "vf_url": "https://www.vesselfinder.com/vessels?name=9293002", "mst_url": "https://www.marinetraffic.com/en/ais/search/all?keyword=9293002", "method": "v3_2pass_track3d_fromru10d", "ru_seen_in_lookback": true, "in_monitor_on_day": true}}, {"type": "Feature", "geometry": {"type": "LineString", "coordinates": [[15.363511666666666, 55.61350166666667], [15.184043333333333, 55.593475], [15.013293333333333, 55.547291666666666], [14.841116666666666, 55.5084], [14.604989999999999, 55.44039333333333], [14.466583333333334, 55.34239166666667], [14.230598333333335, 55.17358166666667], [12.258511666666667, 54.594255], [12.217863333333334, 54.52329833333333], [12.137168333333333, 54.445816666666666], [11.966108333333333, 54.448141666666665], [11.79304, 54.45701833333333], [11.625271666666666, 54.48535666666667], [11.467076666666665, 54.528486666666666], [11.306705, 54.570861666666666], [11.138663333333334, 54.605955], [10.9603, 54.61931666666667], [10.804456666666665, 54.673030000000004], [10.80699, 54.768805], [10.837175, 54.86443166666666], [10.877893333333333, 54.934650000000005], [11.022785, 55.00231333333333], [11.044115, 55.10720333333334], [11.097383333333333, 55.201710000000006], [11.054788333333333, 55.293800000000005], [10.819645000000001, 55.590313333333334], [10.790368333333333, 55.689058333333335], [10.819086666666667, 55.789210000000004], [10.954343333333332, 55.91706333333333]]}, "properties": {"label": "JUPITER", "mmsi": "273265590", "imo": "9397535", "name": "JUPITER", "shiptype": "", "first_seen_utc": "2026-01-04T21:17:52Z", "last_seen_utc": "2026-01-11T06:34:24Z", "destination": "EGPSD", "eta": "{'Day': 24, 'Hour': 17, 'Minute': 0, 'Month': 1}", "display": "", "links": "<a href=\"https://www.vesselfinder.com/vessels?name=9397535\" target=\"_blank\" rel=\"noopener\">VesselFinder</a> | <a href=\"https://www.marinetraffic.com/en/ais/search/all?keyword=9397535\" target=\"_blank\" rel=\"noopener\">MarineTraffic</a>", "vf_url": "https://www.vesselfinder.com/vessels?name=9397535", "mst_url": "https://www.marinetraffic.com/en/ais/search/all?keyword=9397535", "method": "v3_2pass_track3d_fromru10d", "ru_seen_in_lookback": true, "in_monitor_on_day": true}}, {"type": "Feature", "geometry": {"type": "Point", "coordinates": [10.954343333333332, 55.91706333333333]}, "properties": {"label": "JUPITER", "mmsi": "273265590", "imo": "9397535", "name": "JUPITER", "shiptype": "", "first_seen_utc": "2026-01-04T21:17:52Z", "last_seen_utc": "2026-01-11T06:34:24Z", "destination": "EGPSD", "eta": "{'Day': 24, 'Hour': 17, 'Minute': 0, 'Month': 1}", "display": "JUPITER (273265590)", "links": "<a href=\"https://www.vesselfinder.com/vessels?name=9397535\" target=\"_blank\" rel=\"noopener\">VesselFinder</a> | <a href=\"https://www.marinetraffic.com/en/ais/search/all?keyword=9397535\" target=\"_blank\" rel=\"noopener\">MarineTraffic</a>", "vf_url": "https://www.vesselfinder.com/vessels?name=9397535", "mst_url": "https://www.marinetraffic.com/en/ais/search/all?keyword=9397535", "method": "v3_2pass_track3d_fromru10d", "ru_seen_in_lookback": true, "in_monitor_on_day": true}}, {"type": "Feature", "geometry": {"type": "LineString", "coordinates": [[10.497666666666667, 57.85129], [10.347199999999999, 57.84874666666666], [10.207708333333333, 57.84491666666667], [9.776886666666666, 57.827774999999995], [9.646711666666667, 57.836845000000004], [9.365395000000001, 57.755005], [9.195113333333333, 57.696755], [9.013186666666666, 57.64241833333333], [8.832016666666668, 57.583508333333334], [8.095145, 57.31067666666667], [7.909361666666666, 57.24661166666667], [4.741843333333334, 53.75798666666667], [4.680976666666667, 53.66096], [4.626706666666666, 53.564505000000004], [4.576758333333333, 53.46843666666667], [4.528478333333334, 53.37623], [4.476083333333333, 53.28700333333334], [4.410426666666667, 53.20614166666667], [4.309473333333333, 53.137661666666666], [4.187341666666667, 53.071223333333336], [4.062781666666667, 53.00400666666667], [2.1599833333333334, 51.61459333333333], [2.06125, 51.549996666666665], [1.9667216666666667, 51.48580166666667], [1.88985, 51.41236166666667], [1.8277433333333333, 51.32808333333333], [1.7632716666666668, 51.24246], [1.655645, 51.175578333333334], [1.5386633333333333, 51.11127166666667]]}, "properties": {"label": "ANASTASIIA", "mmsi": "273298160", "imo": "9349291", "name": "ANASTASIIA", "shiptype": "", "first_seen_utc": "2026-01-06T00:13:56Z", "last_seen_utc": "2026-01-11T12:25:08Z", "destination": "TO ORDER", "eta": "{'Day': 0, 'Hour': 24, 'Minute': 60, 'Month': 0}", "display": "", "links": "<a href=\"https://www.vesselfinder.com/vessels?name=9349291\" target=\"_blank\" rel=\"noopener\">VesselFinder</a> | <a href=\"https://www.marinetraffic.com/en/ais/search/all?keyword=9349291\" target=\"_blank\" rel=\"noopener\">MarineTraffic</a>", "vf_url": "https://www.vesselfinder.com/vessels?name=9349291", "mst_url": "https://www.marinetraffic.com/en/ais/search/all?keyword=9349291", "method": "v3_2pass_track3d_fromru10d", "ru_seen_in_lookback": true, "in_monitor_on_day": true}}, {"type": "Feature", "geometry": {"type": "Point", "coordinates": [1.5386633333333333, 51.11127166666667]}, "properties": {"label": "ANASTASIIA", "mmsi": "273298160", "imo": "9349291", "name": "ANASTASIIA", "shiptype": "", "first_seen_utc": "2026-01-06T00:13:56Z", "last_seen_utc": "2026-01-11T12:25:08Z", "destination": "TO ORDER", "eta": "{'Day': 0, 'Hour': 24, 'Minute': 60, 'Month': 0}", "display": "ANASTASIIA (273298160)", "links": "<a href=\"https://www.vesselfinder.com/vessels?name=9349291\" target=\"_blank\" rel=\"noopener\">VesselFinder</a> | <a href=\"https://www.marinetraffic.com/en/ais/search/all?keyword=9349291\" target=\"_blank\" rel=\"noopener\">MarineTraffic</a>", "vf_url": "https://www.vesselfinder.com/vessels?name=9349291", "mst_url": "https://www.marinetraffic.com/en/ais/search/all?keyword=9349291", "method": "v3_2pass_track3d_fromru10d", "ru_seen_in_lookback": true, "in_monitor_on_day": true}}, {"type": "Feature", "geometry": {"type": "LineString", "coordinates": [[28.333666666666666, 60.467983333333336], [15.418971666666666, 55.66701333333333], [15.247455, 55.625930000000004], [15.077918333333335, 55.577194999999996], [14.912004999999999, 55.528778333333335], [14.719253333333334, 55.478314999999995], [14.533199999999999, 55.39908666666667], [14.413343333333334, 55.309195], [14.149783333333334, 55.122475]]}, "properties": {"label": "ALMOND", "mmsi": "273276930", "imo": "9385142", "name": "ALMOND", "shiptype": "", "first_seen_utc": "2026-01-07T21:26:30Z", "last_seen_utc": "2026-01-11T11:11:43Z", "destination": "GIBRALTAR FOR ORDERS", "eta": "{'Day': 18, 'Hour': 13, 'Minute': 0, 'Month': 1}", "display": "", "links": "<a href=\"https://www.vesselfinder.com/vessels?name=9385142\" target=\"_blank\" rel=\"noopener\">VesselFinder</a> | <a href=\"https://www.marinetraffic.com/en/ais/search/all?keyword=9385142\" target=\"_blank\" rel=\"noopener\">MarineTraffic</a>", "vf_url": "https://www.vesselfinder.com/vessels?name=9385142", "mst_url": "https://www.marinetraffic.com/en/ais/search/all?keyword=9385142", "method": "v3_2pass_track3d_fromru10d", "ru_seen_in_lookback": true, "in_monitor_on_day": true}}, {"type": "Feature", "geometry": {"type": "Point", "coordinates": [14.149783333333334, 55.122475]}, "properties": {"label": "ALMOND", "mmsi": "273276930", "imo": "9385142", "name": "ALMOND", "shiptype": "", "first_seen_utc": "2026-01-07T21:26:30Z", "last_seen_utc": "2026-01-11T11:11:43Z", "destination": "GIBRALTAR FOR ORDERS", "eta": "{'Day': 18, 'Hour': 13, 'Minute': 0, 'Month': 1}", "display": "ALMOND (273276930)", "links": "<a href=\"https://www.vesselfinder.com/vessels?name=9385142\" target=\"_blank\" rel=\"noopener\">VesselFinder</a> | <a href=\"https://www.marinetraffic.com/en/ais/search/all?keyword=9385142\" target=\"_blank\" rel=\"noopener\">MarineTraffic</a>", "vf_url": "https://www.vesselfinder.com/vessels?name=9385142", "mst_url": "https://www.marinetraffic.com/en/ais/search/all?keyword=9385142", "method": "v3_2pass_track3d_fromru10d", "ru_seen_in_lookback": true, "in_monitor_on_day": true}}, {"type": "Feature", "geometry": {"type": "LineString", "coordinates": [[2.0318883333333333, 51.463165000000004], [1.9590633333333334, 51.402948333333335], [1.886055, 51.339288333333336], [1.8132083333333333, 51.278196666666666], [1.73698, 51.21879666666667], [1.6501566666666667, 51.173575], [1.5754016666666668, 51.13437], [1.4629249999999998, 51.073096666666665]]}, "properties": {"label": "ASCALON", "mmsi": "273219650", "imo": "", "name": "ASCALON", "shiptype": "", "first_seen_utc": "2026-01-08T01:48:39Z", "last_seen_utc": "2026-01-11T15:50:44Z", "destination": "TO ORDER", "eta": "{'Day': 11, 'Hour': 11, 'Minute': 11, 'Month': 11}", "display": "", "links": "<a href=\"https://www.vesselfinder.com/vessels?name=273219650\" target=\"_blank\" rel=\"noopener\">VesselFinder</a> | <a href=\"https://www.marinetraffic.com/en/ais/search/all?keyword=273219650\" target=\"_blank\" rel=\"noopener\">MarineTraffic</a>", "vf_url": "https://www.vesselfinder.com/vessels?name=273219650", "mst_url": "https://www.marinetraffic.com/en/ais/search/all?keyword=273219650", "method": "v3_2pass_track3d_fromru10d", "ru_seen_in_lookback": false, "in_monitor_on_day": true}}, {"type": "Feature", "geometry": {"type": "Point", "coordinates": [1.4629249999999998, 51.073096666666665]}, "properties": {"label": "ASCALON", "mmsi": "273219650", "imo": "", "name": "ASCALON", "shiptype": "", "first_seen_utc": "2026-01-08T01:48:39Z", "last_seen_utc": "2026-01-11T15:50:44Z", "destination": "TO ORDER", "eta": "{'Day': 11, 'Hour': 11, 'Minute': 11, 'Month': 11}", "display": "ASCALON (273219650)", "links": "<a href=\"https://www.vesselfinder.com/vessels?name=273219650\" target=\"_blank\" rel=\"noopener\">VesselFinder</a> | <a href=\"https://www.marinetraffic.com/en/ais/search/all?keyword=273219650\" target=\"_blank\" rel=\"noopener\">MarineTraffic</a>", "vf_url": "https://www.vesselfinder.com/vessels?name=273219650", "mst_url": "https://www.marinetraffic.com/en/ais/search/all?keyword=273219650", "method": "v3_2pass_track3d_fromru10d", "ru_seen_in_lookback": false, "in_monitor_on_day": true}}, {"type": "Feature", "geometry": {"type": "LineString", "coordinates": [[1.3593350000000002, 50.71351333333334], [1.4300866666666667, 50.80054500000001], [1.6232666666666666, 51.016153333333335], [1.7320966666666666, 51.09467166666666], [1.8608066666666665, 51.15425333333334], [1.9985766666666664, 51.203125], [2.1009366666666667, 51.27177166666667], [2.1592, 51.361061666666664], [2.2385733333333335, 51.46171666666667], [4.077005, 52.707874999999994], [4.17375, 52.77267333333334], [4.244936666666667, 52.839976666666665], [4.30171, 52.913286666666664], [4.356800000000001, 52.98717333333333], [4.406933333333333, 53.05792833333333], [4.463076666666667, 53.127865], [4.518715, 53.194433333333336], [4.573418333333334, 53.25691], [4.618236666666666, 53.31036833333334], [4.654624999999999, 53.35825333333333], [4.687176666666667, 53.40219833333333], [4.715336666666667, 53.43851166666666], [4.739033333333333, 53.46935666666666], [4.77697, 53.48829833333333], [4.816696666666667, 53.505325], [4.803965000000001, 53.54893833333333], [4.815636666666666, 53.57973166666667], [4.8331116666666665, 53.61140833333333], [8.189119999999999, 57.227325], [8.521094999999999, 57.370646666666666], [8.708145, 57.43333166666666], [9.033353333333334, 57.55085666666666], [9.190871666666668, 57.60835833333333], [9.376496666666666, 57.677461666666666], [9.68123, 57.764835], [9.83703, 57.78495], [9.988185, 57.794988333333336], [10.138743333333334, 57.801948333333335]]}, "properties": {"label": "AVIOR", "mmsi": "273415140", "imo": "9164512", "name": "AVIOR", "shiptype": "", "first_seen_utc": "2026-01-09T00:38:29Z", "last_seen_utc": "2026-01-11T15:35:50Z", "destination": "RU LED", "eta": "{'Day': 16, 'Hour': 15, 'Minute': 0, 'Month': 1}", "display": "", "links": "<a href=\"https://www.vesselfinder.com/vessels?name=9164512\" target=\"_blank\" rel=\"noopener\">VesselFinder</a> | <a href=\"https://www.marinetraffic.com/en/ais/search/all?keyword=9164512\" target=\"_blank\" rel=\"noopener\">MarineTraffic</a>", "vf_url": "https://www.vesselfinder.com/vessels?name=9164512", "mst_url": "https://www.marinetraffic.com/en/ais/search/all?keyword=9164512", "method": "v3_2pass_track3d_fromru10d", "ru_seen_in_lookback": false, "in_monitor_on_day": true}}, {"type": "Feature", "geometry": {"type": "Point", "coordinates": [10.138743333333334, 57.801948333333335]}, "properties": {"label": "AVIOR", "mmsi": "273415140", "imo": "9164512", "name": "AVIOR", "shiptype": "", "first_seen_utc": "2026-01-09T00:38:29Z", "last_seen_utc": "2026-01-11T15:35:50Z", "destination": "RU LED", "eta": "{'Day': 16, 'Hour': 15, 'Minute': 0, 'Month': 1}", "display": "AVIOR (273415140)", "links": "<a href=\"https://www.vesselfinder.com/vessels?name=9164512\" target=\"_blank\" rel=\"noopener\">VesselFinder</a> | <a href=\"https://www.marinetraffic.com/en/ais/search/all?keyword=9164512\" target=\"_blank\" rel=\"noopener\">MarineTraffic</a>", "vf_url": "https://www.vesselfinder.com/vessels?name=9164512", "mst_url": "https://www.marinetraffic.com/en/ais/search/all?keyword=9164512", "method": "v3_2pass_track3d_fromru10d", "ru_seen_in_lookback": false, "in_monitor_on_day": true}}, {"type": "Feature", "geometry": {"type": "LineString", "coordinates": [[1.3343266666666667, 50.684099999999994], [1.3764616666666667, 50.74534333333334], [1.4094783333333334, 50.80819333333333], [1.4615633333333333, 50.90127333333333], [1.5646416666666667, 50.97611333333334], [1.6463, 51.03454333333333], [1.7286566666666665, 51.093621666666664], [1.8734383333333333, 51.15511333333333], [1.9998233333333333, 51.20006333333333], [2.1047233333333333, 51.255253333333336], [2.13178, 51.32259], [2.1356200000000003, 51.387053333333334], [2.4859883333333332, 51.673685], [2.5786816666666668, 51.748844999999996], [3.9133166666666668, 52.62347333333333], [4.00059, 52.678850000000004], [4.07983, 52.728629999999995], [4.155275, 52.78261166666667], [4.228421666666667, 52.83712], [4.2789383333333335, 52.90239833333333], [4.324285000000001, 52.972903333333335], [4.38484, 53.03986833333333], [4.44691, 53.102905], [4.508795, 53.16589833333333], [4.566055, 53.23340833333334], [4.614108333333333, 53.30131166666667], [4.656338333333333, 53.367886666666664], [4.703768333333333, 53.42868], [4.7445216666666665, 53.48924], [4.78899, 53.54878166666666], [4.834773333333334, 53.61058333333334], [4.877005, 53.67431166666667], [4.916408333333334, 53.73746833333333], [7.571573333333333, 57.08898], [7.680811666666667, 57.16974333333334], [7.787145, 57.25741166666667], [7.895128333333333, 57.33576333333333], [8.018898333333333, 57.40888666666667], [8.146586666666668, 57.47929833333333], [8.294568333333334, 57.524051666666665], [8.455906666666667, 57.56021166666667], [8.635516666666666, 57.592555], [8.809278333333333, 57.622845], [8.975186666666668, 57.65282333333334], [9.236035, 57.69964], [9.432571666666666, 57.740024999999996], [9.606208333333333, 57.763419999999996]]}, "properties": {"label": "ARIA", "mmsi": "273267690", "imo": "9397559", "name": "ARIA", "shiptype": "", "first_seen_utc": "2026-01-09T09:41:29Z", "last_seen_utc": "2026-01-11T15:59:23Z", "destination": "RUULU", "eta": "{'Day': 15, 'Hour': 9, 'Minute': 0, 'Month': 1}", "display": "", "links": "<a href=\"https://www.vesselfinder.com/vessels?name=9397559\" target=\"_blank\" rel=\"noopener\">VesselFinder</a> | <a href=\"https://www.marinetraffic.com/en/ais/search/all?keyword=9397559\" target=\"_blank\" rel=\"noopener\">MarineTraffic</a>", "vf_url": "https://www.vesselfinder.com/vessels?name=9397559", "mst_url": "https://www.marinetraffic.com/en/ais/search/all?keyword=9397559", "method": "v3_2pass_track3d_fromru10d", "ru_seen_in_lookback": false, "in_monitor_on_day": true}}, {"type": "Feature", "geometry": {"type": "Point", "coordinates": [9.606208333333333, 57.763419999999996]}, "properties": {"label": "ARIA", "mmsi": "273267690", "imo": "9397559", "name": "ARIA", "shiptype": "", "first_seen_utc": "2026-01-09T09:41:29Z", "last_seen_utc": "2026-01-11T15:59:23Z", "destination": "RUULU", "eta": "{'Day': 15, 'Hour': 9, 'Minute': 0, 'Month': 1}", "display": "ARIA (273267690)", "links": "<a href=\"https://www.vesselfinder.com/vessels?name=9397559\" target=\"_blank\" rel=\"noopener\">VesselFinder</a> | <a href=\"https://www.marinetraffic.com/en/ais/search/all?keyword=9397559\" target=\"_blank\" rel=\"noopener\">MarineTraffic</a>", "vf_url": "https://www.vesselfinder.com/vessels?name=9397559", "mst_url": "https://www.marinetraffic.com/en/ais/search/all?keyword=9397559", "method": "v3_2pass_track3d_fromru10d", "ru_seen_in_lookback": false, "in_monitor_on_day": true}}, {"type": "Feature", "geometry": {"type": "Point", "coordinates": [19.899161666666664, 54.43398333333334]}, "properties": {"label": "273389870", "mmsi": "273389870", "imo": "", "name": "", "shiptype": "", "first_seen_utc": "2026-01-11T10:17:54Z", "last_seen_utc": "2026-01-11T10:17:54Z", "destination": "", "eta": "", "display": "273389870 (273389870)", "links": "<a href=\"https://www.vesselfinder.com/vessels?name=273389870\" target=\"_blank\" rel=\"noopener\">VesselFinder</a> | <a href=\"https://www.marinetraffic.com/en/ais/search/all?keyword=273389870\" target=\"_blank\" rel=\"noopener\">MarineTraffic</a>", "vf_url": "https://www.vesselfinder.com/vessels?name=273389870", "mst_url": "https://www.marinetraffic.com/en/ais/search/all?keyword=273389870", "method": "v3_2pass_track3d_fromru10d", "ru_seen_in_lookback": true, "in_monitor_on_day": true}}]}