{"type": "FeatureCollection", "features": [{"type": "Feature", "geometry": {"type": "LineString", "coordinates": [[15.181063333333332, 55.59878666666667], [15.031018333333332, 55.558234999999996], [14.877303333333334, 55.51748833333333], [14.721486666666667, 55.47654], [12.279478333333333, 54.594], [12.214225, 54.51158833333333], [12.151086666666666, 54.44235666666667], [12.007143333333334, 54.444665], [11.85206, 54.44836333333333], [11.695235, 54.461815], [11.542735, 54.497863333333335], [11.384988333333332, 54.53968166666667], [11.238705000000001, 54.578520000000005], [11.088955, 54.606750000000005], [10.935865, 54.62431166666667], [10.802471666666666, 54.680126666666666], [10.806033333333334, 54.76871666666667], [10.839318333333333, 54.86215833333333], [10.882311666666668, 54.93536833333334], [10.984811666666667, 55.00478333333333], [10.989851666666668, 55.10464], [11.068048333333333, 55.187981666666666], [11.065845, 55.27946833333333], [10.831728333333333, 55.57295], [10.789333333333333, 55.66803], [10.813315, 55.765679999999996], [10.814151666666667, 55.876189999999994], [10.495470000000001, 57.846345], [9.850165, 57.85220833333334], [9.665926666666667, 57.84214833333333], [9.481021666666667, 57.80670833333333], [9.318053333333333, 57.758556666666664], [9.159043333333333, 57.71085333333333], [9.003333333333334, 57.664765], [8.854486666666666, 57.61902666666666], [8.700343333333333, 57.572829999999996], [8.541416666666667, 57.52695666666667], [8.387363333333333, 57.48257], [8.22443, 57.433616666666666], [8.060318333333333, 57.394238333333334], [7.889036666666667, 57.36439666666667], [7.717163333333334, 57.32894666666667], [7.556536666666667, 57.29057666666667], [7.385133333333333, 57.24995166666667], [7.219245, 57.210035], [7.058400000000001, 57.16852666666667], [6.902243333333333, 57.12876333333334], [6.737615, 57.088861666666666]]}, "properties": {"label": "ELYTE", "mmsi": "667002017", "imo": "9345623", "name": "ELYTE", "shiptype": "", "first_seen_utc": "2026-01-01T13:00:52Z", "last_seen_utc": "2026-01-08T00:28:48Z", "destination": "SG SIN", "eta": "{'Day': 9, 'Hour': 12, 'Minute': 0, 'Month': 2}", "display": "", "links": "<a href=\"https://www.vesselfinder.com/vessels?name=9345623\" target=\"_blank\" rel=\"noopener\">VesselFinder</a> | <a href=\"https://www.marinetraffic.com/en/ais/search/all?keyword=9345623\" target=\"_blank\" rel=\"noopener\">MarineTraffic</a>", "vf_url": "https://www.vesselfinder.com/vessels?name=9345623", "mst_url": "https://www.marinetraffic.com/en/ais/search/all?keyword=9345623", "method": "v3_2pass_track3d_fromru10d", "ru_seen_in_lookback": true, "in_monitor_on_day": true}}, {"type": "Feature", "geometry": {"type": "Point", "coordinates": [6.737615, 57.088861666666666]}, "properties": {"label": "ELYTE", "mmsi": "667002017", "imo": "9345623", "name": "ELYTE", "shiptype": "", "first_seen_utc": "2026-01-01T13:00:52Z", "last_seen_utc": "2026-01-08T00:28:48Z", "destination": "SG SIN", "eta": "{'Day': 9, 'Hour': 12, 'Minute': 0, 'Month': 2}", "display": "ELYTE (667002017)", "links": "<a href=\"https://www.vesselfinder.com/vessels?name=9345623\" target=\"_blank\" rel=\"noopener\">VesselFinder</a> | <a href=\"https://www.marinetraffic.com/en/ais/search/all?keyword=9345623\" target=\"_blank\" rel=\"noopener\">MarineTraffic</a>", "vf_url": "https://www.vesselfinder.com/vessels?name=9345623", "mst_url": "https://www.marinetraffic.com/en/ais/search/all?keyword=9345623", "method": "v3_2pass_track3d_fromru10d", "ru_seen_in_lookback": true, "in_monitor_on_day": true}}, {"type": "Feature", "geometry": {"type": "LineString", "coordinates": [[15.367893333333335, 55.655633333333334], [15.194526666666667, 55.627399999999994], [14.984161666666667, 55.56496], [14.829113333333334, 55.516515], [14.676121666666667, 55.471070000000005], [14.535419999999998, 55.418335], [14.435711666666666, 55.347076666666666], [14.298098333333334, 55.23081], [14.199185, 55.15084]]}, "properties": {"label": "MAINI", "mmsi": "613003573", "imo": "9319870", "name": "MAINI", "shiptype": "", "first_seen_utc": "2026-01-03T13:58:46Z", "last_seen_utc": "2026-01-08T01:28:38Z", "destination": "EG PSD", "eta": "{'Day': 21, 'Hour': 9, 'Minute': 0, 'Month': 1}", "display": "", "links": "<a href=\"https://www.vesselfinder.com/vessels?name=9319870\" target=\"_blank\" rel=\"noopener\">VesselFinder</a> | <a href=\"https://www.marinetraffic.com/en/ais/search/all?keyword=9319870\" target=\"_blank\" rel=\"noopener\">MarineTraffic</a>", "vf_url": "https://www.vesselfinder.com/vessels?name=9319870", "mst_url": "https://www.marinetraffic.com/en/ais/search/all?keyword=9319870", "method": "v3_2pass_track3d_fromru10d", "ru_seen_in_lookback": true, "in_monitor_on_day": true}}, {"type": "Feature", "geometry": {"type": "Point", "coordinates": [14.199185, 55.15084]}, "properties": {"label": "MAINI", "mmsi": "613003573", "imo": "9319870", "name": "MAINI", "shiptype": "", "first_seen_utc": "2026-01-03T13:58:46Z", "last_seen_utc": "2026-01-08T01:28:38Z", "destination": "EG PSD", "eta": "{'Day': 21, 'Hour': 9, 'Minute': 0, 'Month': 1}", "display": "MAINI (613003573)", "links": "<a href=\"https://www.vesselfinder.com/vessels?name=9319870\" target=\"_blank\" rel=\"noopener\">VesselFinder</a> | <a href=\"https://www.marinetraffic.com/en/ais/search/all?keyword=9319870\" target=\"_blank\" rel=\"noopener\">MarineTraffic</a>", "vf_url": "https://www.vesselfinder.com/vessels?name=9319870", "mst_url": "https://www.marinetraffic.com/en/ais/search/all?keyword=9319870", "method": "v3_2pass_track3d_fromru10d", "ru_seen_in_lookback": true, "in_monitor_on_day": true}}, {"type": "Feature", "geometry": {"type": "LineString", "coordinates": [[15.264299999999999, 55.598483333333334], [15.033816666666667, 55.552366666666664], [14.884816666666667, 55.50901666666667], [14.691383333333333, 55.4547], [14.4109, 55.30636666666667], [12.321766666666667, 54.6182], [12.24465, 54.54868333333333], [12.18875, 54.455850000000005], [12.02605, 54.44123333333334]]}, "properties": {"label": "PATE", "mmsi": "667002026", "imo": "9338905", "name": "PATE", "shiptype": "", "first_seen_utc": "2026-01-04T08:45:47Z", "last_seen_utc": "2026-01-08T03:55:30Z", "destination": "PORT SAID", "eta": "{'Day': 21, 'Hour': 23, 'Minute': 0, 'Month': 1}", "display": "", "links": "<a href=\"https://www.vesselfinder.com/vessels?name=9338905\" target=\"_blank\" rel=\"noopener\">VesselFinder</a> | <a href=\"https://www.marinetraffic.com/en/ais/search/all?keyword=9338905\" target=\"_blank\" rel=\"noopener\">MarineTraffic</a>", "vf_url": "https://www.vesselfinder.com/vessels?name=9338905", "mst_url": "https://www.marinetraffic.com/en/ais/search/all?keyword=9338905", "method": "v3_2pass_track3d_fromru10d", "ru_seen_in_lookback": true, "in_monitor_on_day": true}}, {"type": "Feature", "geometry": {"type": "Point", "coordinates": [12.02605, 54.44123333333334]}, "properties": {"label": "PATE", "mmsi": "667002026", "imo": "9338905", "name": "PATE", "shiptype": "", "first_seen_utc": "2026-01-04T08:45:47Z", "last_seen_utc": "2026-01-08T03:55:30Z", "destination": "PORT SAID", "eta": "{'Day': 21, 'Hour': 23, 'Minute': 0, 'Month': 1}", "display": "PATE (667002026)", "links": "<a href=\"https://www.vesselfinder.com/vessels?name=9338905\" target=\"_blank\" rel=\"noopener\">VesselFinder</a> | <a href=\"https://www.marinetraffic.com/en/ais/search/all?keyword=9338905\" target=\"_blank\" rel=\"noopener\">MarineTraffic</a>", "vf_url": "https://www.vesselfinder.com/vessels?name=9338905", "mst_url": "https://www.marinetraffic.com/en/ais/search/all?keyword=9338905", "method": "v3_2pass_track3d_fromru10d", "ru_seen_in_lookback": true, "in_monitor_on_day": true}}]}