{"type": "FeatureCollection", "features": [{"type": "Feature", "geometry": {"type": "Point", "coordinates": [8.025556, 53.629722]}, "properties": {"label": "KiwiSDR Hooksiel", "receiver_id": "kiwi_hooksiel", "ts_utc": "2026-01-04T09:57:36Z", "intensity": 0.0, "windows": [{"window": "hf_3m5", "f_center_hz": 3500000, "span_hz": 12000, "error": "No parsable wf metrics. Output head:\n"}, {"window": "hf_7m", "f_center_hz": 7000000, "span_hz": 12000, "error": "No parsable wf metrics. Output head:\n2026-01-04 10:57:45,858 pid 12868 dl1bajkiwisdr.ddns.net:8074 Too busy now. Redirecting to dl1bajkiwisdr.ddns.net:8073"}, {"window": "hf_14m", "f_center_hz": 14000000, "span_hz": 12000, "error": "No parsable wf metrics. Output head:\n"}, {"window": "hf_27m", "f_center_hz": 27000000, "span_hz": 12000, "error": "No parsable wf metrics. Output head:\n2026-01-04 10:58:06,726 pid  2092 dl1bajkiwisdr.ddns.net:8074 Too busy now. Redirecting to dl1bajkiwisdr.ddns.net:8073"}]}}, {"type": "Feature", "geometry": {"type": "Point", "coordinates": [8.10556, 53.52861]}, "properties": {"label": "KiwiSDR Wilhelmshaven", "receiver_id": "kiwi_wilhelmshaven", "ts_utc": "2026-01-04T09:57:36Z", "intensity": 0.0, "windows": [{"window": "hf_3m5", "f_center_hz": 3500000, "span_hz": 12000, "error": "No parsable wf metrics. Output head:\n"}, {"window": "hf_7m", "f_center_hz": 7000000, "span_hz": 12000, "error": "No parsable wf metrics. Output head:\n"}, {"window": "hf_14m", "f_center_hz": 14000000, "span_hz": 12000, "error": "No parsable wf metrics. Output head:\n"}, {"window": "hf_27m", "f_center_hz": 27000000, "span_hz": 12000, "error": "No parsable wf metrics. Output head:\n"}]}}, {"type": "Feature", "geometry": {"type": "Point", "coordinates": [7.95, 53.65]}, "properties": {"label": "KiwiSDR Wangerland", "receiver_id": "kiwi_wangerland", "ts_utc": "2026-01-04T09:57:36Z", "intensity": 0.0, "windows": [{"window": "hf_3m5", "f_center_hz": 3500000, "span_hz": 12000, "error": "No parsable wf metrics. Output head:\n2026-01-04 10:59:03,924 pid  5576 dl4eeckiwi.proxy.kiwisdr.com:8073 Too busy now. Reconnecting after 15 seconds\n2026-01-04 10:59:20,076 pid  5576 dl4eeckiwi.proxy.kiwisdr.com:8073 Too busy now. Reconnecting after 15 seconds"}, {"window": "hf_7m", "f_center_hz": 7000000, "span_hz": 12000, "error": "No parsable wf metrics. Output head:\n"}, {"window": "hf_14m", "f_center_hz": 14000000, "span_hz": 12000, "error": "No parsable wf metrics. Output head:\n"}, {"window": "hf_27m", "f_center_hz": 27000000, "span_hz": 12000, "error": "No parsable wf metrics. Output head:\n"}]}}]}